{
"type": "FeatureCollection",
"name": "geo_12_特定施設入居者生活介護（有料老人ホーム（サービス付き高齢者向け住宅））",
"crs": { "type": "name", "properties": { "name": "urn:ogc:def:crs:OGC:1.3:CRS84" } },
"features": [
{ "type": "Feature", "properties": { "内容": "ふるさとホーム千葉稲毛【特定施設入居者生活介護（有料老人ホーム（サービス付き高齢者向け住宅））】園生町487-13ふるさとホーム千葉稲毛", "url2": "https://www.kaigokensaku.mhlw.go.jp/12/index.php?action_kouhyou_detail_004_kani=true&JigyosyoCd=1270302589-00&ServiceCd=&Type=search" }, "geometry": { "type": "Point", "coordinates": [ 140.111793532540901, 35.645408931202326 ] } },
{ "type": "Feature", "properties": { "内容": "なごみ花游【特定施設入居者生活介護（有料老人ホーム（サービス付き高齢者向け住宅））】千葉県館山市正木2375", "url2": "https://www.kaigokensaku.mhlw.go.jp/12/index.php?action_kouhyou_detail_004_kani=true&JigyosyoCd=1271001008-00&ServiceCd=&Type=search" }, "geometry": { "type": "Point", "coordinates": [ 139.879364660158103, 35.023911757809906 ] } },
{ "type": "Feature", "properties": { "内容": "ウエルガーデン松戸【特定施設入居者生活介護（有料老人ホーム（サービス付き高齢者向け住宅））】千葉県松戸市五香4-34-3", "url2": "https://www.kaigokensaku.mhlw.go.jp/12/index.php?action_kouhyou_detail_004_kani=true&JigyosyoCd=1271205310-00&ServiceCd=&Type=search" }, "geometry": { "type": "Point", "coordinates": [ 139.9807111, 35.7940286 ] } },
{ "type": "Feature", "properties": { "内容": "ホームステーション松戸八柱【特定施設入居者生活介護（有料老人ホーム（サービス付き高齢者向け住宅））】千葉県松戸市日暮７－８", "url2": "https://www.kaigokensaku.mhlw.go.jp/12/index.php?action_kouhyou_detail_004_kani=true&JigyosyoCd=1271206110-00&ServiceCd=&Type=search" }, "geometry": { "type": "Point", "coordinates": [ 139.944080881614695, 35.78931574126603 ] } },
{ "type": "Feature", "properties": { "内容": "イリーゼ津田沼【特定施設入居者生活介護（有料老人ホーム（サービス付き高齢者向け住宅））】千葉県習志野市鷺沼台1-7-12", "url2": "https://www.kaigokensaku.mhlw.go.jp/12/index.php?action_kouhyou_detail_004_kani=true&JigyosyoCd=1272102631-00&ServiceCd=&Type=search" }, "geometry": { "type": "Point", "coordinates": [ 140.031319200000013, 35.6852012 ] } },
{ "type": "Feature", "properties": { "内容": "ふるさとホーム市原【特定施設入居者生活介護（有料老人ホーム（サービス付き高齢者向け住宅））】千葉県市原市有秋台西2丁目4-39", "url2": "https://www.kaigokensaku.mhlw.go.jp/12/index.php?action_kouhyou_detail_004_kani=true&JigyosyoCd=1272403674-00&ServiceCd=&Type=search" }, "geometry": { "type": "Point", "coordinates": [ 140.053520400000025, 35.4463278 ] } },
{ "type": "Feature", "properties": { "内容": "イリーゼ南柏【特定施設入居者生活介護（有料老人ホーム（サービス付き高齢者向け住宅））】千葉県流山市松ヶ丘4-495-3", "url2": "https://www.kaigokensaku.mhlw.go.jp/12/index.php?action_kouhyou_detail_004_kani=true&JigyosyoCd=1272503697-00&ServiceCd=&Type=search" }, "geometry": { "type": "Point", "coordinates": [ 139.902953300000036, 35.8563392 ] } },
{ "type": "Feature", "properties": { "内容": "さわやかあびこ館【特定施設入居者生活介護（有料老人ホーム（サービス付き高齢者向け住宅））】千葉県我孫子市下ヶ戸190-6", "url2": "https://www.kaigokensaku.mhlw.go.jp/12/index.php?action_kouhyou_detail_004_kani=true&JigyosyoCd=1272701770-00&ServiceCd=&Type=search" }, "geometry": { "type": "Point", "coordinates": [ 140.048120599999947, 35.873421975117274 ] } },
{ "type": "Feature", "properties": { "内容": "イリーゼ四街道【特定施設入居者生活介護（有料老人ホーム（サービス付き高齢者向け住宅））】千葉県四街道市もねの里4丁目28番1イリーゼ四街道", "url2": "https://www.kaigokensaku.mhlw.go.jp/12/index.php?action_kouhyou_detail_004_kani=true&JigyosyoCd=1273301877-00&ServiceCd=&Type=search" }, "geometry": { "type": "Point", "coordinates": [ 140.197543799999977, 35.6926165 ] } },
{ "type": "Feature", "properties": { "内容": "サービス付き高齢者向け住宅南房総里見【特定施設入居者生活介護（有料老人ホーム（サービス付き高齢者向け住宅））】千葉県南房総市和田町黒岩9-1", "url2": "https://www.kaigokensaku.mhlw.go.jp/12/index.php?action_kouhyou_detail_004_kani=true&JigyosyoCd=1278800311-00&ServiceCd=&Type=search" }, "geometry": { "type": "Point", "coordinates": [ 139.992641099999986, 35.0444955 ] } },
{ "type": "Feature", "properties": { "内容": "ケアホーム茶ノ木台くらぶ【特定施設入居者生活介護（有料老人ホーム（サービス付き高齢者向け住宅））】千葉県いすみ市山田６０４１－１ケアホーム茶ノ木台くらぶ", "url2": "https://www.kaigokensaku.mhlw.go.jp/12/index.php?action_kouhyou_detail_004_kani=true&JigyosyoCd=1278600356-00&ServiceCd=&Type=search" }, "geometry": { "type": "Point", "coordinates": [ 140.316140899999937, 35.2475118 ] } },
{ "type": "Feature", "properties": { "内容": "和楽久ぼっくい【特定施設入居者生活介護（有料老人ホーム（サービス付き高齢者向け住宅））】千葉県印旛郡栄町安食卜杭新田９０４番地１", "url2": "https://www.kaigokensaku.mhlw.go.jp/12/index.php?action_kouhyou_detail_004_kani=true&JigyosyoCd=1274400199-00&ServiceCd=&Type=search" }, "geometry": { "type": "Point", "coordinates": [ 140.233493400000043, 35.84067490000001 ] } },
{ "type": "Feature", "properties": { "内容": "サービス付き高齢者向け住宅あすなろの家【特定施設入居者生活介護（有料老人ホーム（サービス付き高齢者向け住宅））】千葉県長生郡一宮町船頭給1782－2", "url2": "https://www.kaigokensaku.mhlw.go.jp/12/index.php?action_kouhyou_detail_004_kani=true&JigyosyoCd=1276600234-00&ServiceCd=&Type=search" }, "geometry": { "type": "Point", "coordinates": [ 140.379857799999968, 35.38038370000001 ] } }
]
}
