{
"type": "FeatureCollection",
"name": "geo_12_各種学校",
"crs": { "type": "name", "properties": { "name": "urn:ogc:def:crs:EPSG::6668" } },
"features": [
{ "type": "Feature", "properties": { "P29_001": "12236", "P29_002": "H212310000171", "P29_003": "16015", "P29_004": "越川裁縫女學校", "P29_005": "千葉県香取市小見川848", "P29_006": "4", "P29_007": "0", "P29_008": "00", "P29_009": null }, "geometry": { "type": "Point", "coordinates": [ 140.60643533356901, 35.853681316611386 ] } },
{ "type": "Feature", "properties": { "P29_001": "12102", "P29_002": "H212310000019", "P29_003": "16015", "P29_004": "千葉朝鮮初中級学校", "P29_005": "千葉県千葉市花見川区浪花町965", "P29_006": "4", "P29_007": "0", "P29_008": "00", "P29_009": null }, "geometry": { "type": "Point", "coordinates": [ 140.068786365460511, 35.657680623136905 ] } },
{ "type": "Feature", "properties": { "P29_001": "12203", "P29_002": "H212310000046", "P29_003": "16015", "P29_004": "若宮珠算学校", "P29_005": "千葉県市川市中山1-25-3", "P29_006": "4", "P29_007": "0", "P29_008": "00", "P29_009": null }, "geometry": { "type": "Point", "coordinates": [ 139.948955867062978, 35.72471287378481 ] } },
{ "type": "Feature", "properties": { "P29_001": "12204", "P29_002": "H212310000064", "P29_003": "16015", "P29_004": "ふなばし美術学院", "P29_005": "千葉県船橋市宮本4-4-22", "P29_006": "4", "P29_007": "0", "P29_008": "00", "P29_009": null }, "geometry": { "type": "Point", "coordinates": [ 139.992483610994043, 35.693979901367292 ] } },
{ "type": "Feature", "properties": { "P29_001": "12207", "P29_002": "H212310000073", "P29_003": "16015", "P29_004": "松戸第一珠算学校", "P29_005": "千葉県松戸市根本3-6", "P29_006": "4", "P29_007": "0", "P29_008": "00", "P29_009": null }, "geometry": { "type": "Point", "coordinates": [ 139.900287045027255, 35.787220776709113 ] } },
{ "type": "Feature", "properties": { "P29_001": "12207", "P29_002": "H212310000082", "P29_003": "16015", "P29_004": "馬橋珠算学校", "P29_005": "千葉県松戸市馬橋1763-1", "P29_006": "4", "P29_007": "0", "P29_008": "00", "P29_009": null }, "geometry": { "type": "Point", "coordinates": [ 139.918047377685866, 35.813609268712696 ] } },
{ "type": "Feature", "properties": { "P29_001": "12207", "P29_002": "H212310000091", "P29_003": "16015", "P29_004": "藤工房和裁学院", "P29_005": "千葉県松戸市上本郷270", "P29_006": "4", "P29_007": "0", "P29_008": "00", "P29_009": null }, "geometry": { "type": "Point", "coordinates": [ 139.907564941122644, 35.79678072453342 ] } },
{ "type": "Feature", "properties": { "P29_001": "12236", "P29_002": "H212310000126", "P29_003": "16015", "P29_004": "一般社団法人香取郡市医師会附属佐原准看護学校", "P29_005": "千葉県香取市佐原ロ2097-72", "P29_006": "4", "P29_007": "0", "P29_008": "00", "P29_009": null }, "geometry": { "type": "Point", "coordinates": [ 140.495331927561949, 35.904157884256605 ] } },
{ "type": "Feature", "properties": { "P29_001": "12213", "P29_002": "H212310000135", "P29_003": "16015", "P29_004": "大塚ドレスメーカー女学院", "P29_005": "千葉県東金市東金984", "P29_006": "4", "P29_007": "0", "P29_008": "00", "P29_009": null }, "geometry": { "type": "Point", "coordinates": [ 140.363016088059766, 35.56151507959494 ] } },
{ "type": "Feature", "properties": { "P29_001": "12217", "P29_002": "H212310000144", "P29_003": "16015", "P29_004": "全国漁業協同組合学校", "P29_005": "千葉県柏市豊町1-4-5", "P29_006": "4", "P29_007": "0", "P29_008": "00", "P29_009": null }, "geometry": { "type": "Point", "coordinates": [ 139.958379803452061, 35.849118218047536 ] } },
{ "type": "Feature", "properties": { "P29_001": "12217", "P29_002": "H212310000153", "P29_003": "16015", "P29_004": "日本語国際学院", "P29_005": "千葉県柏市末広町11-12", "P29_006": "4", "P29_007": "0", "P29_008": "00", "P29_009": null }, "geometry": { "type": "Point", "coordinates": [ 139.972682448101295, 35.864806837521208 ] } },
{ "type": "Feature", "properties": { "P29_001": "12219", "P29_002": "H212310000162", "P29_003": "16015", "P29_004": "市原女子服装学院", "P29_005": "千葉県市原市牛久1197", "P29_006": "4", "P29_007": "0", "P29_008": "00", "P29_009": null }, "geometry": { "type": "Point", "coordinates": [ 140.142255552073664, 35.398586725063318 ] } },
{ "type": "Feature", "properties": { "P29_001": "12238", "P29_002": "H212310000180", "P29_003": "16015", "P29_004": "夷隅准看護師学校", "P29_005": "千葉県いすみ市大原8846", "P29_006": "4", "P29_007": "0", "P29_008": "00", "P29_009": null }, "geometry": { "type": "Point", "coordinates": [ 140.392714436457396, 35.252016702608941 ] } },
{ "type": "Feature", "properties": { "P29_001": "12204", "P29_002": "H212310000199", "P29_003": "16015", "P29_004": "船橋日本語学院", "P29_005": "千葉県船橋市湊町2-1-6", "P29_006": "4", "P29_007": "0", "P29_008": "00", "P29_009": null }, "geometry": { "type": "Point", "coordinates": [ 139.984059006882092, 35.694902895871678 ] } }
]
}
