{
"type": "FeatureCollection",
"name": "geo_12_専修学校",
"crs": { "type": "name", "properties": { "name": "urn:ogc:def:crs:EPSG::6668" } },
"features": [
{ "type": "Feature", "properties": { "P29_001": "12101", "P29_002": "H112310000207", "P29_003": "16016", "P29_004": "国際医療福祉専門学校", "P29_005": "千葉県千葉市中央区村田町336-8", "P29_006": "4", "P29_007": "0", "P29_008": "00", "P29_009": null }, "geometry": { "type": "Point", "coordinates": [ 140.135295583581097, 35.545904864762498 ] } },
{ "type": "Feature", "properties": { "P29_001": "12206", "P29_002": "H112310000458", "P29_003": "16016", "P29_004": "木更津看護学院", "P29_005": "千葉県木更津市新田3-4-30", "P29_006": "4", "P29_007": "0", "P29_008": "00", "P29_009": null }, "geometry": { "type": "Point", "coordinates": [ 139.916416645571104, 35.377732428171981 ] } },
{ "type": "Feature", "properties": { "P29_001": "12219", "P29_002": "H112310000680", "P29_003": "16016", "P29_004": "独立行政法人労働者健康安全機構千葉労災看護専門学校", "P29_005": "千葉県市原市辰巳台東2-13-2", "P29_006": "0", "P29_007": "0", "P29_008": "00", "P29_009": null }, "geometry": { "type": "Point", "coordinates": [ 140.158476313262128, 35.519204476468296 ] } },
{ "type": "Feature", "properties": { "P29_001": "12223", "P29_002": "H112310000760", "P29_003": "16016", "P29_004": "亀田医療技術専門学校", "P29_005": "千葉県鴨川市東町1343-4", "P29_006": "4", "P29_007": "0", "P29_008": "00", "P29_009": null }, "geometry": { "type": "Point", "coordinates": [ 140.12829436919759, 35.121266880743107 ] } },
{ "type": "Feature", "properties": { "P29_001": "12441", "P29_002": "H112310000859", "P29_003": "16016", "P29_004": "専門学校三育学院カレッジ", "P29_005": "千葉県夷隅郡大多喜町久我原1500", "P29_006": "4", "P29_007": "0", "P29_008": "00", "P29_009": null }, "geometry": { "type": "Point", "coordinates": [ 140.263665238374188, 35.241732831036813 ] } },
{ "type": "Feature", "properties": { "P29_001": "12229", "P29_002": "H112310000868", "P29_003": "16016", "P29_004": "専門学校日本自動車大学校袖ケ浦校", "P29_005": "千葉県袖ケ浦市長浦拓2-580-258", "P29_006": "4", "P29_007": "0", "P29_008": "00", "P29_009": null }, "geometry": { "type": "Point", "coordinates": [ 139.975195301593601, 35.443627490068124 ] } },
{ "type": "Feature", "properties": { "P29_001": "12225", "P29_002": "H112310000886", "P29_003": "16016", "P29_004": "千葉医療福祉専門学校", "P29_005": "千葉県君津市上湯江字三角1019", "P29_006": "4", "P29_007": "0", "P29_008": "00", "P29_009": null }, "geometry": { "type": "Point", "coordinates": [ 139.892088750571133, 35.320653241905653 ] } },
{ "type": "Feature", "properties": { "P29_001": "12205", "P29_002": "H112310000895", "P29_003": "16016", "P29_004": "安房医療福祉専門学校", "P29_005": "千葉県館山市腰越801-1", "P29_006": "4", "P29_007": "0", "P29_008": "00", "P29_009": null }, "geometry": { "type": "Point", "coordinates": [ 139.892829351335223, 35.006676716262504 ] } },
{ "type": "Feature", "properties": { "P29_001": "12101", "P29_002": "H112310000029", "P29_003": "16016", "P29_004": "国際トラベル・ホテル・ブライダル専門学校", "P29_005": "千葉県千葉市中央区新宿2-11-12", "P29_006": "4", "P29_007": "0", "P29_008": "00", "P29_009": null }, "geometry": { "type": "Point", "coordinates": [ 140.115934610305942, 35.606291165151553 ] } },
{ "type": "Feature", "properties": { "P29_001": "12101", "P29_002": "H112310000038", "P29_003": "16016", "P29_004": "千葉女子専門学校", "P29_005": "千葉県千葉市中央区道場北1-21-21", "P29_006": "4", "P29_007": "0", "P29_008": "00", "P29_009": null }, "geometry": { "type": "Point", "coordinates": [ 140.13002396880961, 35.616413811634587 ] } },
{ "type": "Feature", "properties": { "P29_001": "12101", "P29_002": "H112310000047", "P29_003": "16016", "P29_004": "東洋理容美容専門学校", "P29_005": "千葉県千葉市中央区春日2-17-12", "P29_006": "4", "P29_007": "0", "P29_008": "00", "P29_009": null }, "geometry": { "type": "Point", "coordinates": [ 140.101781095708361, 35.6229807856677 ] } },
{ "type": "Feature", "properties": { "P29_001": "12101", "P29_002": "H112310000056", "P29_003": "16016", "P29_004": "千葉情報経理専門学校", "P29_005": "千葉県千葉市中央区新宿2-5-2", "P29_006": "4", "P29_007": "0", "P29_008": "00", "P29_009": null }, "geometry": { "type": "Point", "coordinates": [ 140.117257783005982, 35.607036002330169 ] } },
{ "type": "Feature", "properties": { "P29_001": "12103", "P29_002": "H112310000065", "P29_003": "16016", "P29_004": "イーストウエスト外国語専門学校", "P29_005": "千葉県千葉市稲毛区稲毛台町18-10", "P29_006": "4", "P29_007": "0", "P29_008": "00", "P29_009": null }, "geometry": { "type": "Point", "coordinates": [ 140.094486232238353, 35.633877778311316 ] } },
{ "type": "Feature", "properties": { "P29_001": "12104", "P29_002": "H112310000074", "P29_003": "16016", "P29_004": "千葉モードビジネス専門学校", "P29_005": "千葉県千葉市若葉区西都賀1-11-11", "P29_006": "4", "P29_007": "0", "P29_008": "00", "P29_009": null }, "geometry": { "type": "Point", "coordinates": [ 140.147202759650895, 35.635469447815225 ] } },
{ "type": "Feature", "properties": { "P29_001": "12106", "P29_002": "H112310000092", "P29_003": "16016", "P29_004": "専門学校千葉県自動車大学校", "P29_005": "千葉県千葉市美浜区新港156", "P29_006": "4", "P29_007": "0", "P29_008": "00", "P29_009": null }, "geometry": { "type": "Point", "coordinates": [ 140.079948955107255, 35.617691397105347 ] } },
{ "type": "Feature", "properties": { "P29_001": "12101", "P29_002": "H112310000127", "P29_003": "16016", "P29_004": "パリ総合美容専門学校千葉校", "P29_005": "千葉県千葉市中央区長洲1-15-12", "P29_006": "4", "P29_007": "0", "P29_008": "00", "P29_009": null }, "geometry": { "type": "Point", "coordinates": [ 140.123366734861918, 35.602230028767018 ] } },
{ "type": "Feature", "properties": { "P29_001": "12101", "P29_002": "H112310000136", "P29_003": "16016", "P29_004": "千葉調理師専門学校", "P29_005": "千葉県千葉市中央区新千葉2-5-3", "P29_006": "4", "P29_007": "0", "P29_008": "00", "P29_009": null }, "geometry": { "type": "Point", "coordinates": [ 140.10990752876512, 35.613862064036574 ] } },
{ "type": "Feature", "properties": { "P29_001": "12101", "P29_002": "H112310000145", "P29_003": "16016", "P29_004": "千葉中央看護専門学校", "P29_005": "千葉県千葉市中央区南町1-8-1", "P29_006": "4", "P29_007": "0", "P29_008": "00", "P29_009": null }, "geometry": { "type": "Point", "coordinates": [ 140.130031881396661, 35.584912476857284 ] } },
{ "type": "Feature", "properties": { "P29_001": "12103", "P29_002": "H112310000163", "P29_003": "16016", "P29_004": "専門学校国際理工カレッジ", "P29_005": "千葉県千葉市稲毛区穴川3-8-11", "P29_006": "4", "P29_007": "0", "P29_008": "00", "P29_009": null }, "geometry": { "type": "Point", "coordinates": [ 140.109517918669269, 35.637503996030595 ] } },
{ "type": "Feature", "properties": { "P29_001": "12101", "P29_002": "H112310000181", "P29_003": "16016", "P29_004": "千葉日建工科専門学校", "P29_005": "千葉県千葉市中央区新千葉2-20-1", "P29_006": "4", "P29_007": "0", "P29_008": "00", "P29_009": null }, "geometry": { "type": "Point", "coordinates": [ 140.109820781457699, 35.615190921378201 ] } },
{ "type": "Feature", "properties": { "P29_001": "12101", "P29_002": "H112310000190", "P29_003": "16016", "P29_004": "上野法科ビジネス専門学校", "P29_005": "千葉県千葉市中央区南町1-10-15", "P29_006": "4", "P29_007": "0", "P29_008": "00", "P29_009": null }, "geometry": { "type": "Point", "coordinates": [ 140.13060628026966, 35.583326008681887 ] } },
{ "type": "Feature", "properties": { "P29_001": "12103", "P29_002": "H112310000216", "P29_003": "16016", "P29_004": "中央介護福祉専門学校", "P29_005": "千葉県千葉市稲毛区緑町1-5-17", "P29_006": "4", "P29_007": "0", "P29_008": "00", "P29_009": null }, "geometry": { "type": "Point", "coordinates": [ 140.098285136817339, 35.624177049694268 ] } },
{ "type": "Feature", "properties": { "P29_001": "12101", "P29_002": "H112310000225", "P29_003": "16016", "P29_004": "専門学校ちば愛犬動物フラワー学園", "P29_005": "千葉県千葉市中央区新宿2-14-13", "P29_006": "4", "P29_007": "0", "P29_008": "00", "P29_009": null }, "geometry": { "type": "Point", "coordinates": [ 140.115270587668078, 35.606817321399873 ] } },
{ "type": "Feature", "properties": { "P29_001": "12101", "P29_002": "H112310000234", "P29_003": "16016", "P29_004": "京葉介護福祉専門学校", "P29_005": "千葉県千葉市中央区今井2-13-1", "P29_006": "4", "P29_007": "0", "P29_008": "00", "P29_009": null }, "geometry": { "type": "Point", "coordinates": [ 140.128288986762954, 35.579365046296161 ] } },
{ "type": "Feature", "properties": { "P29_001": "12101", "P29_002": "H112310000243", "P29_003": "16016", "P29_004": "独立行政法人国立病院機構千葉医療センター附属千葉看護学校", "P29_005": "千葉県千葉市中央区椿森4-2-1", "P29_006": "0", "P29_007": "0", "P29_008": "00", "P29_009": null }, "geometry": { "type": "Point", "coordinates": [ 140.12087617786608, 35.623677789186253 ] } },
{ "type": "Feature", "properties": { "P29_001": "12101", "P29_002": "H112310000252", "P29_003": "16016", "P29_004": "東京ＩＴ会計公務員専門学校千葉校", "P29_005": "千葉県千葉市中央区弁天1-6-2", "P29_006": "4", "P29_007": "0", "P29_008": "00", "P29_009": null }, "geometry": { "type": "Point", "coordinates": [ 140.110340045704049, 35.615478279400953 ] } },
{ "type": "Feature", "properties": { "P29_001": "12101", "P29_002": "H112310000261", "P29_003": "16016", "P29_004": "千葉デザイナー学院", "P29_005": "千葉県千葉市中央区新千葉3-1-6", "P29_006": "4", "P29_007": "0", "P29_008": "00", "P29_009": null }, "geometry": { "type": "Point", "coordinates": [ 140.109039958210786, 35.61506520367022 ] } },
{ "type": "Feature", "properties": { "P29_001": "12101", "P29_002": "H112310000270", "P29_003": "16016", "P29_004": "千葉市青葉看護専門学校", "P29_005": "千葉県千葉市中央区青葉町1273-5", "P29_006": "4", "P29_007": "0", "P29_008": "00", "P29_009": null }, "geometry": { "type": "Point", "coordinates": [ 140.137304148283476, 35.601551645922804 ] } },
{ "type": "Feature", "properties": { "P29_001": "12101", "P29_002": "H112310000289", "P29_003": "16016", "P29_004": "アイエステティック専門学校", "P29_005": "千葉県千葉市中央区新宿2-14-3", "P29_006": "4", "P29_007": "0", "P29_008": "00", "P29_009": null }, "geometry": { "type": "Point", "coordinates": [ 140.115850112962534, 35.60659416531206 ] } },
{ "type": "Feature", "properties": { "P29_001": "12101", "P29_002": "H112310000298", "P29_003": "16016", "P29_004": "千葉医療秘書アンドＩＴ専門学校", "P29_005": "千葉県千葉市中央区本千葉町8-19", "P29_006": "4", "P29_007": "0", "P29_008": "00", "P29_009": null }, "geometry": { "type": "Point", "coordinates": [ 140.119087120594571, 35.606456086678307 ] } },
{ "type": "Feature", "properties": { "P29_001": "12101", "P29_002": "H112310000305", "P29_003": "16016", "P29_004": "千葉リゾートアンドスポーツ専門学校", "P29_005": "千葉県千葉市中央区本千葉町8-16", "P29_006": "4", "P29_007": "0", "P29_008": "00", "P29_009": null }, "geometry": { "type": "Point", "coordinates": [ 140.11959210296331, 35.606384300652167 ] } },
{ "type": "Feature", "properties": { "P29_001": "12101", "P29_002": "H112310000314", "P29_003": "16016", "P29_004": "千葉ビューティーアンドブライダル専門学校", "P29_005": "千葉県千葉市中央区本千葉町8-16", "P29_006": "4", "P29_007": "0", "P29_008": "00", "P29_009": null }, "geometry": { "type": "Point", "coordinates": [ 140.119291077456978, 35.606106613941385 ] } },
{ "type": "Feature", "properties": { "P29_001": "12101", "P29_002": "H112310000323", "P29_003": "16016", "P29_004": "大原医療保育福祉専門学校千葉校", "P29_005": "千葉県千葉市中央区弁天1-16-2", "P29_006": "4", "P29_007": "0", "P29_008": "00", "P29_009": null }, "geometry": { "type": "Point", "coordinates": [ 140.114715998000378, 35.613846468724972 ] } },
{ "type": "Feature", "properties": { "P29_001": "12101", "P29_002": "H112310000332", "P29_003": "16016", "P29_004": "大原簿記公務員専門学校千葉校", "P29_005": "千葉県千葉市中央区弁天1-16-2", "P29_006": "4", "P29_007": "0", "P29_008": "00", "P29_009": null }, "geometry": { "type": "Point", "coordinates": [ 140.114701663452479, 35.613752508266948 ] } },
{ "type": "Feature", "properties": { "P29_001": "12101", "P29_002": "H112310000341", "P29_003": "16016", "P29_004": "ハッピー製菓調理専門学校", "P29_005": "千葉県千葉市中央区新宿2-6-21", "P29_006": "4", "P29_007": "0", "P29_008": "00", "P29_009": null }, "geometry": { "type": "Point", "coordinates": [ 140.11702809885935, 35.60655785234281 ] } },
{ "type": "Feature", "properties": { "P29_001": "12101", "P29_002": "H112310000350", "P29_003": "16016", "P29_004": "ジェイヘアメイク美容専門学校", "P29_005": "千葉県千葉市中央区新宿2-14-3", "P29_006": "4", "P29_007": "0", "P29_008": "00", "P29_009": null }, "geometry": { "type": "Point", "coordinates": [ 140.115693456831707, 35.606556413342311 ] } },
{ "type": "Feature", "properties": { "P29_001": "12101", "P29_002": "H112310000369", "P29_003": "16016", "P29_004": "千葉こども専門学校", "P29_005": "千葉県千葉市中央区本千葉町8-16", "P29_006": "4", "P29_007": "0", "P29_008": "00", "P29_009": null }, "geometry": { "type": "Point", "coordinates": [ 140.119365821885424, 35.606175406419588 ] } },
{ "type": "Feature", "properties": { "P29_001": "12101", "P29_002": "H112310000387", "P29_003": "16016", "P29_004": "北原学院千葉歯科衛生専門学校", "P29_005": "千葉県千葉市中央区神明町201-5", "P29_006": "4", "P29_007": "0", "P29_008": "00", "P29_009": null }, "geometry": { "type": "Point", "coordinates": [ 140.118312224332641, 35.605083979808406 ] } },
{ "type": "Feature", "properties": { "P29_001": "12228", "P29_002": "H112310000779", "P29_003": "16016", "P29_004": "白萩服飾専修学院", "P29_005": "千葉県四街道市鹿渡950", "P29_006": "4", "P29_007": "0", "P29_008": "00", "P29_009": null }, "geometry": { "type": "Point", "coordinates": [ 140.16953200301208, 35.665890456426567 ] } },
{ "type": "Feature", "properties": { "P29_001": "12207", "P29_002": "H112210000021", "P29_003": "16016", "P29_004": "松戸市立総合医療センター附属看護専門学校", "P29_005": "千葉県松戸市上本郷4182", "P29_006": "3", "P29_007": "0", "P29_008": "00", "P29_009": null }, "geometry": { "type": "Point", "coordinates": [ 139.921003725061581, 35.795899676912924 ] } },
{ "type": "Feature", "properties": { "P29_001": "12204", "P29_002": "H112210000030", "P29_003": "16016", "P29_004": "船橋市立看護専門学校", "P29_005": "千葉県船橋市金杉1-28-7", "P29_006": "3", "P29_007": "0", "P29_008": "00", "P29_009": null }, "geometry": { "type": "Point", "coordinates": [ 139.999806833064724, 35.723166592808752 ] } },
{ "type": "Feature", "properties": { "P29_001": "12208", "P29_002": "H112210000058", "P29_003": "16016", "P29_004": "千葉県立野田看護専門学校", "P29_005": "千葉県野田市中根316-1", "P29_006": "2", "P29_007": "0", "P29_008": "00", "P29_009": null }, "geometry": { "type": "Point", "coordinates": [ 139.887968538472222, 35.944859438286137 ] } },
{ "type": "Feature", "properties": { "P29_001": "12204", "P29_002": "H112310000412", "P29_003": "16016", "P29_004": "船橋情報ビジネス専門学校", "P29_005": "千葉県船橋市本町7-12-16", "P29_006": "4", "P29_007": "0", "P29_008": "00", "P29_009": null }, "geometry": { "type": "Point", "coordinates": [ 139.984401550415186, 35.704451717373175 ] } },
{ "type": "Feature", "properties": { "P29_001": "12204", "P29_002": "H112310000430", "P29_003": "16016", "P29_004": "専修学校早稲田予備学校西船橋校", "P29_005": "千葉県船橋市西船4-12-10", "P29_006": "4", "P29_007": "0", "P29_008": "00", "P29_009": null }, "geometry": { "type": "Point", "coordinates": [ 139.960114850574342, 35.70901631121351 ] } },
{ "type": "Feature", "properties": { "P29_001": "12207", "P29_002": "H112310000467", "P29_003": "16016", "P29_004": "日本大学松戸歯学部附属歯科衛生専門学校", "P29_005": "千葉県松戸市栄町西2-870-1", "P29_006": "4", "P29_007": "0", "P29_008": "00", "P29_009": null }, "geometry": { "type": "Point", "coordinates": [ 139.89941875524994, 35.810581848304444 ] } },
{ "type": "Feature", "properties": { "P29_001": "12207", "P29_002": "H112310000476", "P29_003": "16016", "P29_004": "北原学院歯科衛生専門学校", "P29_005": "千葉県松戸市新松戸1-348-2", "P29_006": "4", "P29_007": "0", "P29_008": "00", "P29_009": null }, "geometry": { "type": "Point", "coordinates": [ 139.921646086354116, 35.82756035264029 ] } },
{ "type": "Feature", "properties": { "P29_001": "12207", "P29_002": "H112310000485", "P29_003": "16016", "P29_004": "日本国際工科専門学校", "P29_005": "千葉県松戸市新松戸4-2-1", "P29_006": "4", "P29_007": "0", "P29_008": "00", "P29_009": null }, "geometry": { "type": "Point", "coordinates": [ 139.91908433623118, 35.825163673519647 ] } },
{ "type": "Feature", "properties": { "P29_001": "12207", "P29_002": "H112310000494", "P29_003": "16016", "P29_004": "専門学校ニホン国際ＩＴカレッジ", "P29_005": "千葉県松戸市小金59-1", "P29_006": "4", "P29_007": "0", "P29_008": "00", "P29_009": null }, "geometry": { "type": "Point", "coordinates": [ 139.931781687239294, 35.831299277509785 ] } },
{ "type": "Feature", "properties": { "P29_001": "12207", "P29_002": "H112310000500", "P29_003": "16016", "P29_004": "松山学園松山福祉専門学校", "P29_005": "千葉県松戸市秋山71", "P29_006": "4", "P29_007": "0", "P29_008": "00", "P29_009": null }, "geometry": { "type": "Point", "coordinates": [ 139.927407655225323, 35.767057844086224 ] } },
{ "type": "Feature", "properties": { "P29_001": "12208", "P29_002": "H112310000519", "P29_003": "16016", "P29_004": "野田鎌田学園高等専修学校", "P29_005": "千葉県野田市野田389-1", "P29_006": "4", "P29_007": "0", "P29_008": "00", "P29_009": null }, "geometry": { "type": "Point", "coordinates": [ 139.866969504391335, 35.94618215538047 ] } },
{ "type": "Feature", "properties": { "P29_001": "12217", "P29_002": "H112310000635", "P29_003": "16016", "P29_004": "慈恵柏看護専門学校", "P29_005": "千葉県柏市柏下163-1", "P29_006": "4", "P29_007": "0", "P29_008": "00", "P29_009": null }, "geometry": { "type": "Point", "coordinates": [ 139.98222247972177, 35.87030552121908 ] } },
{ "type": "Feature", "properties": { "P29_001": "12217", "P29_002": "H112310000644", "P29_003": "16016", "P29_004": "大原簿記法律専門学校柏校", "P29_005": "千葉県柏市末広町10-1", "P29_006": "4", "P29_007": "0", "P29_008": "00", "P29_009": null }, "geometry": { "type": "Point", "coordinates": [ 139.972062244345125, 35.864189332683807 ] } },
{ "type": "Feature", "properties": { "P29_001": "12217", "P29_002": "H112310000653", "P29_003": "16016", "P29_004": "パリ総合美容専門学校柏校", "P29_005": "千葉県柏市柏3-4-7", "P29_006": "4", "P29_007": "0", "P29_008": "00", "P29_009": null }, "geometry": { "type": "Point", "coordinates": [ 139.975440379550349, 35.859087888584135 ] } },
{ "type": "Feature", "properties": { "P29_001": "12217", "P29_002": "H112310000662", "P29_003": "16016", "P29_004": "専修学校河合塾柏校", "P29_005": "千葉県柏市柏4-3-1", "P29_006": "4", "P29_007": "0", "P29_008": "00", "P29_009": null }, "geometry": { "type": "Point", "coordinates": [ 139.973545357379095, 35.862839196891414 ] } },
{ "type": "Feature", "properties": { "P29_001": "12220", "P29_002": "H112310000715", "P29_003": "16016", "P29_004": "勤医会東葛看護専門学校", "P29_005": "千葉県流山市下花輪409", "P29_006": "4", "P29_007": "0", "P29_008": "00", "P29_009": null }, "geometry": { "type": "Point", "coordinates": [ 139.901860184774762, 35.867459923403004 ] } },
{ "type": "Feature", "properties": { "P29_001": "12222", "P29_002": "H112310000742", "P29_003": "16016", "P29_004": "あびこ助産師専門学校", "P29_005": "千葉県我孫子市我孫子1854-12", "P29_006": "4", "P29_007": "0", "P29_008": "00", "P29_009": null }, "geometry": { "type": "Point", "coordinates": [ 140.027362150209768, 35.865934738227864 ] } },
{ "type": "Feature", "properties": { "P29_001": "12222", "P29_002": "H112310000751", "P29_003": "16016", "P29_004": "スカイ総合ペット専門学校", "P29_005": "千葉県我孫子市台田4-1-41", "P29_006": "4", "P29_007": "0", "P29_008": "00", "P29_009": null }, "geometry": { "type": "Point", "coordinates": [ 139.994859771275941, 35.877025590671558 ] } },
{ "type": "Feature", "properties": { "P29_001": "12232", "P29_002": "H112310000804", "P29_003": "16016", "P29_004": "（専）中央自動車大学校", "P29_005": "千葉県白井市根字大山口1920-7", "P29_006": "4", "P29_007": "0", "P29_008": "00", "P29_009": null }, "geometry": { "type": "Point", "coordinates": [ 140.026434006364724, 35.790026805655359 ] } },
{ "type": "Feature", "properties": { "P29_001": "12217", "P29_002": "H112310000813", "P29_003": "16016", "P29_004": "千葉・柏リハビリテーション学院", "P29_005": "千葉県柏市大井2673-1", "P29_006": "4", "P29_007": "0", "P29_008": "00", "P29_009": null }, "geometry": { "type": "Point", "coordinates": [ 140.014510064177045, 35.856327582148054 ] } },
{ "type": "Feature", "properties": { "P29_001": "12217", "P29_002": "H112310000831", "P29_003": "16016", "P29_004": "駿台予備学校柏校", "P29_005": "千葉県柏市柏5-2-13", "P29_006": "4", "P29_007": "0", "P29_008": "00", "P29_009": null }, "geometry": { "type": "Point", "coordinates": [ 139.974281389047661, 35.865170339469039 ] } },
{ "type": "Feature", "properties": { "P29_001": "12216", "P29_002": "H112310000154", "P29_003": "16016", "P29_004": "専修学校河合塾津田沼校", "P29_005": "千葉県習志野市谷津1-15-33", "P29_006": "4", "P29_007": "0", "P29_008": "00", "P29_009": null }, "geometry": { "type": "Point", "coordinates": [ 140.019413747729089, 35.688505284309983 ] } },
{ "type": "Feature", "properties": { "P29_001": "12204", "P29_002": "H112310000403", "P29_003": "16016", "P29_004": "船橋ファッション＆ビジネス専門学校", "P29_005": "千葉県船橋市本町2-3-21", "P29_006": "4", "P29_007": "0", "P29_008": "00", "P29_009": null }, "geometry": { "type": "Point", "coordinates": [ 139.98454215925716, 35.696141604160239 ] } },
{ "type": "Feature", "properties": { "P29_001": "12204", "P29_002": "H112310000449", "P29_003": "16016", "P29_004": "ユニバーサル美容専門学校", "P29_005": "千葉県船橋市本町3-5-3", "P29_006": "4", "P29_007": "0", "P29_008": "00", "P29_009": null }, "geometry": { "type": "Point", "coordinates": [ 139.98805178219726, 35.697401161755302 ] } },
{ "type": "Feature", "properties": { "P29_001": "12216", "P29_002": "H112310000591", "P29_003": "16016", "P29_004": "習志野調理師専門学校", "P29_005": "千葉県習志野市津田沼3-6-38", "P29_006": "4", "P29_007": "0", "P29_008": "00", "P29_009": null }, "geometry": { "type": "Point", "coordinates": [ 140.023068688553906, 35.684369063744036 ] } },
{ "type": "Feature", "properties": { "P29_001": "12216", "P29_002": "H112310000608", "P29_003": "16016", "P29_004": "千葉薬事専門学校", "P29_005": "千葉県習志野市津田沼5-13-6", "P29_006": "4", "P29_007": "0", "P29_008": "00", "P29_009": null }, "geometry": { "type": "Point", "coordinates": [ 140.024697331888405, 35.682460853812309 ] } },
{ "type": "Feature", "properties": { "P29_001": "12216", "P29_002": "H112310000626", "P29_003": "16016", "P29_004": "駿台予備学校津田沼校", "P29_005": "千葉県習志野市谷津7-7-6", "P29_006": "4", "P29_007": "0", "P29_008": "00", "P29_009": null }, "geometry": { "type": "Point", "coordinates": [ 140.018556056817488, 35.690467123816951 ] } },
{ "type": "Feature", "properties": { "P29_001": "12221", "P29_002": "H112310000724", "P29_003": "16016", "P29_004": "東京動物専門学校", "P29_005": "千葉県八千代市大和田新田1093-8", "P29_006": "4", "P29_007": "0", "P29_008": "00", "P29_009": null }, "geometry": { "type": "Point", "coordinates": [ 140.066553775699532, 35.72561784116909 ] } },
{ "type": "Feature", "properties": { "P29_001": "12215", "P29_002": "H112310000010", "P29_003": "16016", "P29_004": "地方独立行政法人総合病院国保旭中央病院旭中央病院附属看護専門学校", "P29_005": "千葉県旭市イ-1182", "P29_006": "0", "P29_007": "0", "P29_008": "00", "P29_009": null }, "geometry": { "type": "Point", "coordinates": [ 140.664664024402896, 35.717102735577726 ] } },
{ "type": "Feature", "properties": { "P29_001": "12106", "P29_002": "H112310000083", "P29_003": "16016", "P29_004": "関東鍼灸専門学校", "P29_005": "千葉県千葉市美浜区若葉2-9-2", "P29_006": "4", "P29_007": "0", "P29_008": "00", "P29_009": null }, "geometry": { "type": "Point", "coordinates": [ 140.054517543932633, 35.651471424383296 ] } },
{ "type": "Feature", "properties": { "P29_001": "12102", "P29_002": "H112310000118", "P29_003": "16016", "P29_004": "組合立千葉美容専門学校", "P29_005": "千葉県千葉市花見川区幕張本郷1-22-6", "P29_006": "4", "P29_007": "0", "P29_008": "00", "P29_009": null }, "geometry": { "type": "Point", "coordinates": [ 140.037942316378576, 35.670771902119 ] } },
{ "type": "Feature", "properties": { "P29_001": "12103", "P29_002": "H112310000172", "P29_003": "16016", "P29_004": "山王看護専門学校", "P29_005": "千葉県千葉市稲毛区山王町159-2", "P29_006": "4", "P29_007": "0", "P29_008": "00", "P29_009": null }, "geometry": { "type": "Point", "coordinates": [ 140.140376023032275, 35.667094310680632 ] } },
{ "type": "Feature", "properties": { "P29_001": "12211", "P29_002": "H112310000537", "P29_003": "16016", "P29_004": "成田国際福祉専門学校", "P29_005": "千葉県成田市郷部583-1", "P29_006": "4", "P29_007": "0", "P29_008": "00", "P29_009": null }, "geometry": { "type": "Point", "coordinates": [ 140.304603339055092, 35.784963690596882 ] } },
{ "type": "Feature", "properties": { "P29_001": "12211", "P29_002": "H112310000546", "P29_003": "16016", "P29_004": "二葉看護学院", "P29_005": "千葉県成田市押畑872-2", "P29_006": "4", "P29_007": "0", "P29_008": "00", "P29_009": null }, "geometry": { "type": "Point", "coordinates": [ 140.307586702072541, 35.801735790985511 ] } },
{ "type": "Feature", "properties": { "P29_001": "12211", "P29_002": "H112310000564", "P29_003": "16016", "P29_004": "成田航空ビジネス専門学校", "P29_005": "千葉県成田市公津の杜2-28-4", "P29_006": "4", "P29_007": "0", "P29_008": "00", "P29_009": null }, "geometry": { "type": "Point", "coordinates": [ 140.298896488743395, 35.759017621814507 ] } },
{ "type": "Feature", "properties": { "P29_001": "12215", "P29_002": "H112310000582", "P29_003": "16016", "P29_004": "旭家政専修学校", "P29_005": "千葉県旭市二1923-1", "P29_006": "4", "P29_007": "0", "P29_008": "00", "P29_009": null }, "geometry": { "type": "Point", "coordinates": [ 140.646416204096084, 35.71995980063862 ] } },
{ "type": "Feature", "properties": { "P29_001": "12221", "P29_002": "H112310000733", "P29_003": "16016", "P29_004": "八千代リハビリテーション学院", "P29_005": "千葉県八千代市八千代台北11-1-30", "P29_006": "4", "P29_007": "0", "P29_008": "00", "P29_009": null }, "geometry": { "type": "Point", "coordinates": [ 140.096685585205023, 35.706548999235153 ] } },
{ "type": "Feature", "properties": { "P29_001": "12228", "P29_002": "H112310000788", "P29_003": "16016", "P29_004": "専門学校新国際福祉カレッジ", "P29_005": "千葉県四街道市山梨1316-1", "P29_006": "4", "P29_007": "0", "P29_008": "00", "P29_009": null }, "geometry": { "type": "Point", "coordinates": [ 140.191758584625376, 35.670362552152056 ] } },
{ "type": "Feature", "properties": { "P29_001": "12213", "P29_002": "H112210000076", "P29_003": "16016", "P29_004": "千葉県立農業大学校", "P29_005": "千葉県東金市家之子1059", "P29_006": "2", "P29_007": "0", "P29_008": "00", "P29_009": null }, "geometry": { "type": "Point", "coordinates": [ 140.379642019855822, 35.588253973722843 ] } },
{ "type": "Feature", "properties": { "P29_001": "12206", "P29_002": "H112210000012", "P29_003": "16016", "P29_004": "君津中央病院附属看護学校", "P29_005": "千葉県木更津市桜井1010", "P29_006": "3", "P29_007": "0", "P29_008": "00", "P29_009": null }, "geometry": { "type": "Point", "coordinates": [ 139.922265405855171, 35.359096028442643 ] } },
{ "type": "Feature", "properties": { "P29_001": "12219", "P29_002": "H112210000049", "P29_003": "16016", "P29_004": "千葉県立鶴舞看護専門学校", "P29_005": "千葉県市原市鶴舞565", "P29_006": "2", "P29_007": "0", "P29_008": "00", "P29_009": null }, "geometry": { "type": "Point", "coordinates": [ 140.186292721263783, 35.386532187917339 ] } },
{ "type": "Feature", "properties": { "P29_001": "12204", "P29_002": "H112310000421", "P29_003": "16016", "P29_004": "日医電専門学校", "P29_005": "千葉県船橋市前原西2-17-13", "P29_006": "4", "P29_007": "0", "P29_008": "00", "P29_009": null }, "geometry": { "type": "Point", "coordinates": [ 140.018694767983021, 35.692294100888361 ] } },
{ "type": "Feature", "properties": { "P29_001": "12208", "P29_002": "H112310000528", "P29_003": "16016", "P29_004": "正心実業専門学校", "P29_005": "千葉県野田市中根207", "P29_006": "4", "P29_007": "0", "P29_008": "00", "P29_009": null }, "geometry": { "type": "Point", "coordinates": [ 139.875067432257822, 35.943516581791535 ] } },
{ "type": "Feature", "properties": { "P29_001": "12211", "P29_002": "H112310000555", "P29_003": "16016", "P29_004": "専門学校藤リハビリテーション学院", "P29_005": "千葉県成田市押畑908-1", "P29_006": "4", "P29_007": "0", "P29_008": "00", "P29_009": null }, "geometry": { "type": "Point", "coordinates": [ 140.30822733592035, 35.801594860066068 ] } },
{ "type": "Feature", "properties": { "P29_001": "12216", "P29_002": "H112310000617", "P29_003": "16016", "P29_004": "大原簿記公務員医療情報ビジネス専門学校津田沼校", "P29_005": "千葉県習志野市津田沼1-1-1", "P29_006": "4", "P29_007": "0", "P29_008": "00", "P29_009": null }, "geometry": { "type": "Point", "coordinates": [ 140.019676576570447, 35.69139102944051 ] } },
{ "type": "Feature", "properties": { "P29_001": "12219", "P29_002": "H112310000699", "P29_003": "16016", "P29_004": "市原看護専門学校", "P29_005": "千葉県市原市八幡字八幡下1050-5", "P29_006": "4", "P29_007": "0", "P29_008": "00", "P29_009": null }, "geometry": { "type": "Point", "coordinates": [ 140.114471206113478, 35.537564421075153 ] } },
{ "type": "Feature", "properties": { "P29_001": "12220", "P29_002": "H112310000706", "P29_003": "16016", "P29_004": "江戸川学園おおたかの森専門学校", "P29_005": "千葉県流山市駒木474", "P29_006": "4", "P29_007": "0", "P29_008": "00", "P29_009": null }, "geometry": { "type": "Point", "coordinates": [ 139.938364530471034, 35.877291973676286 ] } },
{ "type": "Feature", "properties": { "P29_001": "12231", "P29_002": "H112310000797", "P29_003": "16016", "P29_004": "日本医科大学看護専門学校", "P29_005": "千葉県印西市鎌苅1955", "P29_006": "4", "P29_007": "0", "P29_008": "00", "P29_009": null }, "geometry": { "type": "Point", "coordinates": [ 140.200361561703971, 35.782657209307438 ] } },
{ "type": "Feature", "properties": { "P29_001": "12219", "P29_002": "H112310000840", "P29_003": "16016", "P29_004": "東和ＩＴ専門学校", "P29_005": "千葉県市原市五所1705", "P29_006": "4", "P29_007": "0", "P29_008": "00", "P29_009": null }, "geometry": { "type": "Point", "coordinates": [ 140.109051002439202, 35.53230952955257 ] } },
{ "type": "Feature", "properties": { "P29_001": "12211", "P29_002": "H112310000877", "P29_003": "16016", "P29_004": "専門学校日本自動車大学校", "P29_005": "千葉県成田市桜田296-38", "P29_006": "4", "P29_007": "0", "P29_008": "00", "P29_009": null }, "geometry": { "type": "Point", "coordinates": [ 140.438430149488909, 35.844890550459425 ] } },
{ "type": "Feature", "properties": { "P29_001": "12427", "P29_002": "H112310000902", "P29_003": "16016", "P29_004": "専門学校マーキュリー情報コミュニケーションカレッジ", "P29_005": "千葉県長生郡長南町米満101", "P29_006": "4", "P29_007": "0", "P29_008": "00", "P29_009": null }, "geometry": { "type": "Point", "coordinates": [ 140.241936505999121, 35.412884933071368 ] } },
{ "type": "Feature", "properties": { "P29_001": "12236", "P29_002": "H112310000911", "P29_003": "16016", "P29_004": "香取おみがわ医療センター附属看護専門学校", "P29_005": "千葉県香取市南原地新田457", "P29_006": "4", "P29_007": "0", "P29_008": "00", "P29_009": null }, "geometry": { "type": "Point", "coordinates": [ 140.602850302562359, 35.842629238451956 ] } },
{ "type": "Feature", "properties": { "P29_001": "12204", "P29_002": "H112310000920", "P29_003": "16016", "P29_004": "船橋国際福祉専門学校", "P29_005": "千葉県船橋市湊町2-1-7", "P29_006": "4", "P29_007": "0", "P29_008": "00", "P29_009": null }, "geometry": { "type": "Point", "coordinates": [ 139.984011685933183, 35.694838312093928 ] } }
]
}
