{
"type": "FeatureCollection",
"name": "geo_12_介護医療院",
"crs": { "type": "name", "properties": { "name": "urn:ogc:def:crs:OGC:1.3:CRS84" } },
"features": [
{ "type": "Feature", "properties": { "内容": "介護医療院なごみかん【介護医療院】千葉県千葉市中央区道場南1丁目12番7号", "url": "https://www.kaigokensaku.mhlw.go.jp/12/index.php?action_kouhyou_detail_004_kani=true&JigyosyoCd=12B0100026-00&ServiceCd=550&Type=search", "url2": "http://www.saito-rosai.or.jp" }, "geometry": { "type": "Point", "coordinates": [ 140.130262, 35.6124926 ] } },
{ "type": "Feature", "properties": { "内容": "うらら介護医療院【介護医療院】千葉県千葉市中央区千葉寺町188", "url": "https://www.kaigokensaku.mhlw.go.jp/12/index.php?action_kouhyou_detail_004_kani=true&JigyosyoCd=12B0100034-00&ServiceCd=550&Type=search", "url2": "http://green-eminence.com/" }, "geometry": { "type": "Point", "coordinates": [ 140.1297242, 35.5949492 ] } },
{ "type": "Feature", "properties": { "内容": "平山病院附属花見川介護医療院【介護医療院】千葉市花見川区天戸町1483-4", "url": "https://www.kaigokensaku.mhlw.go.jp/12/index.php?action_kouhyou_detail_004_kani=true&JigyosyoCd=12B0100059-00&ServiceCd=550&Type=search", "url2": null }, "geometry": { "type": "Point", "coordinates": [ 140.0925603, 35.6846653 ] } },
{ "type": "Feature", "properties": { "内容": "タムス介護医療院花見川【介護医療院】千葉県千葉市花見川区柏井町1132-1", "url": "https://www.kaigokensaku.mhlw.go.jp/12/index.php?action_kouhyou_detail_004_kani=true&JigyosyoCd=12B0100067-00&ServiceCd=550&Type=search", "url2": "https://www.k-hanamigawa.tums-kaigo.com" }, "geometry": { "type": "Point", "coordinates": [ 140.1039844, 35.6987756 ] } },
{ "type": "Feature", "properties": { "内容": "介護医療院　秀眉園【介護医療院】千葉市若葉区加曽利町1803-1", "url": "https://www.kaigokensaku.mhlw.go.jp/12/index.php?action_kouhyou_detail_004_kani=true&JigyosyoCd=12B0100042-00&ServiceCd=550&Type=search", "url2": "https://www.syuubi-seikei-kai.jp/" }, "geometry": { "type": "Point", "coordinates": [ 140.1705861, 35.6179315 ] } },
{ "type": "Feature", "properties": { "内容": "総泉病院介護医療院【介護医療院】千葉県千葉市若葉区更科町2592", "url": "https://www.kaigokensaku.mhlw.go.jp/12/index.php?action_kouhyou_detail_004_kani=true&JigyosyoCd=12B0100018-00&ServiceCd=550&Type=search", "url2": "http://www.sousen.seikei-kai.or.jp/" }, "geometry": { "type": "Point", "coordinates": [ 140.218284499999982, 35.620998300000018 ] } },
{ "type": "Feature", "properties": { "内容": "医療法人友康会　行徳中央介護医療院【介護医療院】千葉県市川市日之出17-16", "url": "https://www.kaigokensaku.mhlw.go.jp/12/index.php?action_kouhyou_detail_004_kani=true&JigyosyoCd=12B2700070-00&ServiceCd=550&Type=search", "url2": "https://www.gyoutokuchuo-hospital.com/hospital/" }, "geometry": { "type": "Point", "coordinates": [ 139.9212789, 35.6768218 ] } },
{ "type": "Feature", "properties": { "内容": "介護医療院　みさきの郷【介護医療院】千葉県船橋市三咲4-23-15", "url": "https://www.kaigokensaku.mhlw.go.jp/12/index.php?action_kouhyou_detail_004_kani=true&JigyosyoCd=12B2800011-00&ServiceCd=550&Type=search", "url2": "http://www.chibako-misaki.jp/" }, "geometry": { "type": "Point", "coordinates": [ 140.0367343, 35.7503501 ] } },
{ "type": "Feature", "properties": { "内容": "小林病院介護医療院【介護医療院】千葉県館山市船形９０９番地", "url": "https://www.kaigokensaku.mhlw.go.jp/12/index.php?action_kouhyou_detail_004_kani=true&JigyosyoCd=12B3600063-00&ServiceCd=550&Type=search", "url2": "https://www.kotobuki-kai.com/" }, "geometry": { "type": "Point", "coordinates": [ 139.8440036, 35.0283209 ] } },
{ "type": "Feature", "properties": { "内容": "介護医療院あきやまの郷【介護医療院】千葉県松戸市高塚新田484-1", "url": "https://www.kaigokensaku.mhlw.go.jp/12/index.php?action_kouhyou_detail_004_kani=true&JigyosyoCd=12B2400093-00&ServiceCd=550&Type=search", "url2": "https://www.chibako.or.jp/akiyamanosato/" }, "geometry": { "type": "Point", "coordinates": [ 139.933048, 35.7612942 ] } },
{ "type": "Feature", "properties": { "内容": "木野崎介護医療院【介護医療院】千葉県野田市木野崎1561-1", "url": "https://www.kaigokensaku.mhlw.go.jp/12/index.php?action_kouhyou_detail_004_kani=true&JigyosyoCd=12B2000034-00&ServiceCd=550&Type=search", "url2": "https://kinosaki.net/" }, "geometry": { "type": "Point", "coordinates": [ 139.9073923, 35.9553033 ] } },
{ "type": "Feature", "properties": { "内容": "聖マリア介護医療院【介護医療院】千葉県成田市取香446", "url": "https://www.kaigokensaku.mhlw.go.jp/12/index.php?action_kouhyou_detail_004_kani=true&JigyosyoCd=12B4300101-00&ServiceCd=550&Type=search", "url2": null }, "geometry": { "type": "Point", "coordinates": [ 140.37460705767208, 35.781338616826609 ] } },
{ "type": "Feature", "properties": { "内容": "介護医療院千年希望の杜成田【介護医療院】千葉県成田市大袋407-1", "url": "https://www.kaigokensaku.mhlw.go.jp/12/index.php?action_kouhyou_detail_004_kani=true&JigyosyoCd=12B4300119-00&ServiceCd=550&Type=search", "url2": "https://keiyou-kai.jp/naritain/" }, "geometry": { "type": "Point", "coordinates": [ 140.284993, 35.7622416 ] } },
{ "type": "Feature", "properties": { "内容": "医療法人社団博恵会介護医療院柏南【介護医療院】千葉県柏市逆井１１４４", "url": "https://www.kaigokensaku.mhlw.go.jp/12/index.php?action_kouhyou_detail_004_kani=true&JigyosyoCd=12B2100014-00&ServiceCd=550&Type=search", "url2": null }, "geometry": { "type": "Point", "coordinates": [ 139.979677900000013, 35.81680810000001 ] } },
{ "type": "Feature", "properties": { "内容": "介護医療院エスペーロ【介護医療院】千葉県我孫子市布佐834-28", "url": "https://www.kaigokensaku.mhlw.go.jp/12/index.php?action_kouhyou_detail_004_kani=true&JigyosyoCd=12B2500017-00&ServiceCd=550&Type=search", "url2": "http://www.medicalplaza.or.jp/espero/" }, "geometry": { "type": "Point", "coordinates": [ 140.1159116, 35.8637611 ] } },
{ "type": "Feature", "properties": { "内容": "東条病院介護医療院【介護医療院】千葉県鴨川市広場1615", "url": "https://www.kaigokensaku.mhlw.go.jp/12/index.php?action_kouhyou_detail_004_kani=true&JigyosyoCd=12B3900083-00&ServiceCd=550&Type=search", "url2": "http://www.tojo-h.or.jp" }, "geometry": { "type": "Point", "coordinates": [ 140.108703600000013, 35.1214633 ] } },
{ "type": "Feature", "properties": { "内容": "小田介護医療院【介護医療院】千葉県鴨川市横渚880", "url": "https://www.kaigokensaku.mhlw.go.jp/12/index.php?action_kouhyou_detail_004_kani=true&JigyosyoCd=12B3900034-00&ServiceCd=550&Type=search", "url2": "http://oda-hp.com" }, "geometry": { "type": "Point", "coordinates": [ 140.1048683, 35.1061858 ] } },
{ "type": "Feature", "properties": { "内容": "エビハラ介護医療院【介護医療院】千葉県鴨川市太海630番地10", "url": "https://www.kaigokensaku.mhlw.go.jp/12/index.php?action_kouhyou_detail_004_kani=true&JigyosyoCd=12B3900026-00&ServiceCd=550&Type=search", "url2": "http://www.ebihara.or.jp" }, "geometry": { "type": "Point", "coordinates": [ 140.0910754, 35.0914651 ] } },
{ "type": "Feature", "properties": { "内容": "医療法人社団一心会　初富保健病院介護医療院【介護医療院】千葉県鎌ヶ谷市初富114番地", "url": "https://www.kaigokensaku.mhlw.go.jp/12/index.php?action_kouhyou_detail_004_kani=true&JigyosyoCd=12B2600015-00&ServiceCd=550&Type=search", "url2": "https://www.hatsutomi.or.jp/" }, "geometry": { "type": "Point", "coordinates": [ 139.986196299999961, 35.7843554 ] } },
{ "type": "Feature", "properties": { "内容": "鈴木病院介護医療院【介護医療院】千葉県君津市上２３８番地", "url": "https://www.kaigokensaku.mhlw.go.jp/12/index.php?action_kouhyou_detail_004_kani=true&JigyosyoCd=12B1100017-00&ServiceCd=550&Type=search", "url2": "https://www.suzuki-hospital.com" }, "geometry": { "type": "Point", "coordinates": [ 139.9548824, 35.3069037 ] } },
{ "type": "Feature", "properties": { "内容": "医療法人三省会本多病院介護医療院【介護医療院】千葉県香取市本郷７７２番地", "url": "https://www.kaigokensaku.mhlw.go.jp/12/index.php?action_kouhyou_detail_004_kani=true&JigyosyoCd=12B5200029-00&ServiceCd=550&Type=search", "url2": "http://www.sanseikai.or.jp" }, "geometry": { "type": "Point", "coordinates": [ 140.583540199999959, 35.8535551 ] } },
{ "type": "Feature", "properties": { "内容": "国保多古中央病院　介護医療院【介護医療院】千葉県香取郡多古町多古３８８－１", "url": "https://www.kaigokensaku.mhlw.go.jp/12/index.php?action_kouhyou_detail_004_kani=true&JigyosyoCd=12B3000058-00&ServiceCd=550&Type=search", "url2": "http://www.takochu.tako.chiba.jp/" }, "geometry": { "type": "Point", "coordinates": [ 140.472092800000041, 35.73800880000001 ] } },
{ "type": "Feature", "properties": { "内容": "東庄町国民健康保険東庄病院　介護医療院【介護医療院】千葉県香取郡東庄町石出2692-15", "url": "https://www.kaigokensaku.mhlw.go.jp/12/index.php?action_kouhyou_detail_004_kani=true&JigyosyoCd=12B3000025-00&ServiceCd=550&Type=search", "url2": "https://www.town.tohnosho.chiba.jp" }, "geometry": { "type": "Point", "coordinates": [ 140.697511100000014, 35.8205677 ] } },
{ "type": "Feature", "properties": { "内容": "髙根病院　介護医療院【介護医療院】千葉県山武郡芝山町岩山2308", "url": "https://www.kaigokensaku.mhlw.go.jp/12/index.php?action_kouhyou_detail_004_kani=true&JigyosyoCd=12B0700049-00&ServiceCd=550&Type=search", "url2": "https://takane-hospital.jp/" }, "geometry": { "type": "Point", "coordinates": [ 140.3695381, 35.7245612 ] } },
{ "type": "Feature", "properties": { "内容": "介護医療院泉水ガーデンホーム【介護医療院】千葉県夷隅郡大多喜町泉水674", "url": "https://www.kaigokensaku.mhlw.go.jp/12/index.php?action_kouhyou_detail_004_kani=true&JigyosyoCd=12B3700012-00&ServiceCd=550&Type=search", "url2": "https://kawasaki-hospital.jp/" }, "geometry": { "type": "Point", "coordinates": [ 140.241894300000013, 35.294633200000014 ] } }
]
}
