{
"type": "FeatureCollection",
"name": "geo_12_訪問リハビリテーション",
"crs": { "type": "name", "properties": { "name": "urn:ogc:def:crs:OGC:1.3:CRS84" } },
"features": [
{ "type": "Feature", "properties": { "内容": "わたなべ整形外科【訪問リハビリテーション】千葉県千葉市中央区仁戸名町９４－４", "url": "https://www.kaigokensaku.mhlw.go.jp/12/index.php?action_kouhyou_detail_004_kani=true&JigyosyoCd=1210114942-00&ServiceCd=140&Type=search", "url2": null }, "geometry": { "type": "Point", "coordinates": [ 140.160124900000028, 35.5941557 ] } },
{ "type": "Feature", "properties": { "内容": "純恵の郷訪問リハビリテーション【訪問リハビリテーション】千葉県千葉市中央区南生実町590番地１", "url": "https://www.kaigokensaku.mhlw.go.jp/12/index.php?action_kouhyou_detail_004_kani=true&JigyosyoCd=1270105131-00&ServiceCd=140&Type=search", "url2": "http://naebafukushikai.com" }, "geometry": { "type": "Point", "coordinates": [ 140.149048200000038, 35.5540621 ] } },
{ "type": "Feature", "properties": { "内容": "医療法人社団　響心会　千葉セントラルパーククリニック【訪問リハビリテーション】中央2丁目2番1号エクセレントセンタービル2階", "url": "https://www.kaigokensaku.mhlw.go.jp/12/index.php?action_kouhyou_detail_004_kani=true&JigyosyoCd=1210126094-00&ServiceCd=140&Type=search", "url2": "https://kyoshinkai.clinic" }, "geometry": { "type": "Point", "coordinates": [ 140.8775283, 38.2608911 ] } },
{ "type": "Feature", "properties": { "内容": "和田医院訪問リハビリテーション【訪問リハビリテーション】千葉県千葉市中央区院内2-15-7", "url": "https://www.kaigokensaku.mhlw.go.jp/12/index.php?action_kouhyou_detail_004_kani=true&JigyosyoCd=1210117515-00&ServiceCd=140&Type=search", "url2": null }, "geometry": { "type": "Point", "coordinates": [ 140.124536199999966, 35.611523 ] } },
{ "type": "Feature", "properties": { "内容": "うらら介護医療院【訪問リハビリテーション】千葉県千葉市中央区千葉寺町188", "url": "https://www.kaigokensaku.mhlw.go.jp/12/index.php?action_kouhyou_detail_004_kani=true&JigyosyoCd=1250180075-00&ServiceCd=140&Type=search", "url2": "http://www.green-eminence.com/urara" }, "geometry": { "type": "Point", "coordinates": [ 140.129580159524494, 35.595468589492754 ] } },
{ "type": "Feature", "properties": { "内容": "千葉みなとリハビリテーション病院【訪問リハビリテーション】千葉県千葉市中央区中央港１丁目１７番地１８号", "url": "https://www.kaigokensaku.mhlw.go.jp/12/index.php?action_kouhyou_detail_004_kani=true&JigyosyoCd=1210122895-00&ServiceCd=140&Type=search", "url2": "http://www.minato-reha.com/" }, "geometry": { "type": "Point", "coordinates": [ 140.101193599999988, 35.6034586 ] } },
{ "type": "Feature", "properties": { "内容": "千葉病院附属介護老人保健施設【訪問リハビリテーション】千葉県千葉市中央区仁戸名町682番地", "url": "https://www.kaigokensaku.mhlw.go.jp/12/index.php?action_kouhyou_detail_004_kani=true&JigyosyoCd=1250180109-00&ServiceCd=140&Type=search", "url2": "https://chiba.jcho.go.jp/rouken/" }, "geometry": { "type": "Point", "coordinates": [ 140.1627468, 35.5828262 ] } },
{ "type": "Feature", "properties": { "内容": "元山医院【訪問リハビリテーション】千葉県千葉市花見川区朝日ヶ丘1-10-15", "url": "https://www.kaigokensaku.mhlw.go.jp/12/index.php?action_kouhyou_detail_004_kani=true&JigyosyoCd=1210118273-00&ServiceCd=140&Type=search", "url2": "http://www.keiyukai.co.jp/" }, "geometry": { "type": "Point", "coordinates": [ 140.09165669999993, 35.656117 ] } },
{ "type": "Feature", "properties": { "内容": "タムス介護医療院花見川【訪問リハビリテーション】千葉県千葉市花見川区柏井町1132-1", "url": "https://www.kaigokensaku.mhlw.go.jp/12/index.php?action_kouhyou_detail_004_kani=true&JigyosyoCd=12B0100067-00&ServiceCd=140&Type=search", "url2": "https://www.k-hanamigawa.tums-kaigo.com" }, "geometry": { "type": "Point", "coordinates": [ 140.1039844, 35.6987756 ] } },
{ "type": "Feature", "properties": { "内容": "医療法人社団稲正会　近藤医院【訪問リハビリテーション】千葉県千葉市稲毛区稲毛東３－６－３７", "url": "https://www.kaigokensaku.mhlw.go.jp/12/index.php?action_kouhyou_detail_004_kani=true&JigyosyoCd=1210119131-00&ServiceCd=140&Type=search", "url2": "http://www.h7.dion.ne.jp/-kondoiin" }, "geometry": { "type": "Point", "coordinates": [ 140.088813100000039, 35.6366276 ] } },
{ "type": "Feature", "properties": { "内容": "西千葉整形外科【訪問リハビリテーション】千葉県千葉市稲毛区作草部1-12-5", "url": "https://www.kaigokensaku.mhlw.go.jp/12/index.php?action_kouhyou_detail_004_kani=true&JigyosyoCd=1210121434-00&ServiceCd=140&Type=search", "url2": null }, "geometry": { "type": "Point", "coordinates": [ 140.114498200000071, 35.6283627 ] } },
{ "type": "Feature", "properties": { "内容": "医療法人社団ふけ会　富家千葉病院【訪問リハビリテーション】千葉県千葉市稲毛区長沼原町277番地1", "url": "https://www.kaigokensaku.mhlw.go.jp/12/index.php?action_kouhyou_detail_004_kani=true&JigyosyoCd=1210118042-00&ServiceCd=140&Type=search", "url2": "http://www.fukechiba-hp.jp/index.html" }, "geometry": { "type": "Point", "coordinates": [ 140.129006, 35.6698278 ] } },
{ "type": "Feature", "properties": { "内容": "総泉病院【訪問リハビリテーション】千葉県千葉市若葉区更科町2592", "url": "https://www.kaigokensaku.mhlw.go.jp/12/index.php?action_kouhyou_detail_004_kani=true&JigyosyoCd=1210113654-00&ServiceCd=140&Type=search", "url2": "http://www.sousen.seikei-kai.or.jp/" }, "geometry": { "type": "Point", "coordinates": [ 140.218284499999982, 35.6209983 ] } },
{ "type": "Feature", "properties": { "内容": "訪問リハビリテーション　坂の上外科【訪問リハビリテーション】千葉県千葉市緑区土気町３１１", "url": "https://www.kaigokensaku.mhlw.go.jp/12/index.php?action_kouhyou_detail_004_kani=true&JigyosyoCd=1210115378-00&ServiceCd=140&Type=search", "url2": null }, "geometry": { "type": "Point", "coordinates": [ 140.28024860000005, 35.5294393 ] } },
{ "type": "Feature", "properties": { "内容": "介護老人保健施設おゆみの【訪問リハビリテーション】千葉県千葉市緑区大金沢町364-1", "url": "https://www.kaigokensaku.mhlw.go.jp/12/index.php?action_kouhyou_detail_004_kani=true&JigyosyoCd=1250180158-00&ServiceCd=140&Type=search", "url2": "http://www.oyumino-roken.jp/" }, "geometry": { "type": "Point", "coordinates": [ 140.186414110205533, 35.540060620342722 ] } },
{ "type": "Feature", "properties": { "内容": "すずらんクリニック　あすみが丘【訪問リハビリテーション】千葉県千葉市緑区あすみが丘3-52-6", "url": "https://www.kaigokensaku.mhlw.go.jp/12/index.php?action_kouhyou_detail_004_kani=true&JigyosyoCd=1210124693-00&ServiceCd=140&Type=search", "url2": null }, "geometry": { "type": "Point", "coordinates": [ 140.2631252, 35.5289142 ] } },
{ "type": "Feature", "properties": { "内容": "医療法人社団　圭恵会　すずらんクリニック【訪問リハビリテーション】おゆみ野４－２－７", "url": "https://www.kaigokensaku.mhlw.go.jp/12/index.php?action_kouhyou_detail_004_kani=true&JigyosyoCd=1210123356-00&ServiceCd=140&Type=search", "url2": "https://suzuranclinic.jp/" }, "geometry": { "type": "Point", "coordinates": [ 140.180747099999962, 35.5600952 ] } },
{ "type": "Feature", "properties": { "内容": "あすみが丘医院訪問リハビリテーション【訪問リハビリテーション】千葉県千葉市緑区あすみが丘2-17-5", "url": "https://www.kaigokensaku.mhlw.go.jp/12/index.php?action_kouhyou_detail_004_kani=true&JigyosyoCd=1210124776-00&ServiceCd=140&Type=search", "url2": null }, "geometry": { "type": "Point", "coordinates": [ 140.2698101, 35.5250492 ] } },
{ "type": "Feature", "properties": { "内容": "千葉南病院【訪問リハビリテーション】千葉県千葉市緑区高田町401番地5", "url": "https://www.kaigokensaku.mhlw.go.jp/12/index.php?action_kouhyou_detail_004_kani=true&JigyosyoCd=1210116855-00&ServiceCd=140&Type=search", "url2": "http://www.chibaminami-hp.jp" }, "geometry": { "type": "Point", "coordinates": [ 140.211700599999972, 35.5543591 ] } },
{ "type": "Feature", "properties": { "内容": "椎名崎クリニック【訪問リハビリテーション】千葉県千葉市緑区おゆみ野南2-11-1", "url": "https://www.kaigokensaku.mhlw.go.jp/12/index.php?action_kouhyou_detail_004_kani=true&JigyosyoCd=1210121178-00&ServiceCd=140&Type=search", "url2": "www.kimeikai.or.jp" }, "geometry": { "type": "Point", "coordinates": [ 140.1666725, 35.5517959 ] } },
{ "type": "Feature", "properties": { "内容": "医療法人社団淳英会　おゆみの中央病院【訪問リハビリテーション】千葉県千葉市緑区おゆみ野南六丁目49番地9", "url": "https://www.kaigokensaku.mhlw.go.jp/12/index.php?action_kouhyou_detail_004_kani=true&JigyosyoCd=1210122820-00&ServiceCd=140&Type=search", "url2": "http://oyumino-central.jp/" }, "geometry": { "type": "Point", "coordinates": [ 140.18295569999998, 35.540003099999986 ] } },
{ "type": "Feature", "properties": { "内容": "介護老人保健施設　総和苑【訪問リハビリテーション】千葉県千葉市緑区高田町1084番地", "url": "https://www.kaigokensaku.mhlw.go.jp/12/index.php?action_kouhyou_detail_004_kani=true&JigyosyoCd=1250180117-00&ServiceCd=140&Type=search", "url2": "http://www.sowaen.or.jp" }, "geometry": { "type": "Point", "coordinates": [ 140.223318599999971, 35.5508403 ] } },
{ "type": "Feature", "properties": { "内容": "幸町中央診療所【訪問リハビリテーション】千葉県千葉市美浜区幸町2-12-6", "url": "https://www.kaigokensaku.mhlw.go.jp/12/index.php?action_kouhyou_detail_004_kani=true&JigyosyoCd=1210118570-00&ServiceCd=140&Type=search", "url2": "http://www16.ocn.ne.jp/~scc2288" }, "geometry": { "type": "Point", "coordinates": [ 140.092921599999954, 35.6219356 ] } },
{ "type": "Feature", "properties": { "内容": "介護老人保健施設　慈風苑【訪問リハビリテーション】千葉県銚子市長塚町3丁目609－2", "url": "https://www.kaigokensaku.mhlw.go.jp/12/index.php?action_kouhyou_detail_004_kani=true&JigyosyoCd=1270701368-00&ServiceCd=140&Type=search", "url2": "https://jifuuen.jp/" }, "geometry": { "type": "Point", "coordinates": [ 140.80146830000001, 35.7392437 ] } },
{ "type": "Feature", "properties": { "内容": "海村医院分院【訪問リハビリテーション】千葉県銚子市双葉町6-3", "url": "https://www.kaigokensaku.mhlw.go.jp/12/index.php?action_kouhyou_detail_004_kani=true&JigyosyoCd=1211310689-00&ServiceCd=140&Type=search", "url2": "https://umimura.jp" }, "geometry": { "type": "Point", "coordinates": [ 140.828544100000045, 35.7327504 ] } },
{ "type": "Feature", "properties": { "内容": "医療法人社団明潮会　おうち診療所　銚子【訪問リハビリテーション】千葉県銚子市双葉町6-25おうち診療所ビル2F", "url": "https://www.kaigokensaku.mhlw.go.jp/12/index.php?action_kouhyou_detail_004_kani=true&JigyosyoCd=1211310978-00&ServiceCd=140&Type=search", "url2": "https://ouchishinryojo.com" }, "geometry": { "type": "Point", "coordinates": [ 140.828867200000019, 35.732309100000037 ] } },
{ "type": "Feature", "properties": { "内容": "タムス市川リハビリテーション病院【訪問リハビリテーション】千葉県市川市柏井町4-229-4", "url": "https://www.kaigokensaku.mhlw.go.jp/12/index.php?action_kouhyou_detail_004_kani=true&JigyosyoCd=1212716975-00&ServiceCd=140&Type=search", "url2": "https://tums-ichikawahp.jp/" }, "geometry": { "type": "Point", "coordinates": [ 139.9648434, 35.7512738 ] } },
{ "type": "Feature", "properties": { "内容": "医療法人社団泰正会介護老人保健施設グレースケア市川【訪問リハビリテーション】千葉県市川市大町43-3", "url": "https://www.kaigokensaku.mhlw.go.jp/12/index.php?action_kouhyou_detail_004_kani=true&JigyosyoCd=1252780062-00&ServiceCd=140&Type=search", "url2": "https://gracecare-ichikawa.com/" }, "geometry": { "type": "Point", "coordinates": [ 139.953584200000023, 35.7698161 ] } },
{ "type": "Feature", "properties": { "内容": "介護老人保健施設サンセール市川【訪問リハビリテーション】千葉県市川市原木2-13-8", "url": "https://www.kaigokensaku.mhlw.go.jp/12/index.php?action_kouhyou_detail_004_kani=true&JigyosyoCd=1270805755-00&ServiceCd=140&Type=search", "url2": "https://sin-ichikawa.com" }, "geometry": { "type": "Point", "coordinates": [ 139.9432878, 35.6985496 ] } },
{ "type": "Feature", "properties": { "内容": "介護老人保健施設サンシルバー市川【訪問リハビリテーション】千葉県市川市北方町4-1460", "url": "https://www.kaigokensaku.mhlw.go.jp/12/index.php?action_kouhyou_detail_004_kani=true&JigyosyoCd=1252780070-00&ServiceCd=140&Type=search", "url2": "https://sunsilver-ichikawa.com/" }, "geometry": { "type": "Point", "coordinates": [ 139.9533524, 35.7344143 ] } },
{ "type": "Feature", "properties": { "内容": "医療法人社団　芳英会　吉野内科・神経内科医院【訪問リハビリテーション】千葉県市川市国府台３－３－１６", "url": "https://www.kaigokensaku.mhlw.go.jp/12/index.php?action_kouhyou_detail_004_kani=true&JigyosyoCd=1212715365-00&ServiceCd=140&Type=search", "url2": "http://www.yoshino-clinic.jp" }, "geometry": { "type": "Point", "coordinates": [ 139.902738900000031, 35.7490238 ] } },
{ "type": "Feature", "properties": { "内容": "仁整形外科【訪問リハビリテーション】千葉県市川市行徳駅前２－１－１１２階", "url": "https://www.kaigokensaku.mhlw.go.jp/12/index.php?action_kouhyou_detail_004_kani=true&JigyosyoCd=1212712776-00&ServiceCd=140&Type=search", "url2": "http://www.jin-c.com" }, "geometry": { "type": "Point", "coordinates": [ 139.913906600000018, 35.6833148 ] } },
{ "type": "Feature", "properties": { "内容": "国際医療福祉大学市川病院【訪問リハビリテーション】千葉県市川市国府台6-1-14", "url": "https://www.kaigokensaku.mhlw.go.jp/12/index.php?action_kouhyou_detail_004_kani=true&JigyosyoCd=1212716686-00&ServiceCd=140&Type=search", "url2": "https://ichikawa.iuhw.ac.jp/clinic/houmonriha.html" }, "geometry": { "type": "Point", "coordinates": [ 139.902481469260806, 35.756756289306985 ] } },
{ "type": "Feature", "properties": { "内容": "長浜クリニック【訪問リハビリテーション】千葉県市川市若宮２－１３－６", "url": "https://www.kaigokensaku.mhlw.go.jp/12/index.php?action_kouhyou_detail_004_kani=true&JigyosyoCd=1212714715-00&ServiceCd=140&Type=search", "url2": "http://www.nagahama-clinic.com" }, "geometry": { "type": "Point", "coordinates": [ 139.9536551, 35.7225222 ] } },
{ "type": "Feature", "properties": { "内容": "介護老人保健施設エスポワール市川【訪問リハビリテーション】千葉県市川市高谷3-1-20", "url": "https://www.kaigokensaku.mhlw.go.jp/12/index.php?action_kouhyou_detail_004_kani=true&JigyosyoCd=1252780088-00&ServiceCd=140&Type=search", "url2": "https://www.esp-ichikawa.com/" }, "geometry": { "type": "Point", "coordinates": [ 139.941776299999987, 35.6973694 ] } },
{ "type": "Feature", "properties": { "内容": "医療法人友康会　行徳中央クリニック【訪問リハビリテーション】千葉県市川市新浜1-11-1", "url": "https://www.kaigokensaku.mhlw.go.jp/12/index.php?action_kouhyou_detail_004_kani=true&JigyosyoCd=1212714871-00&ServiceCd=140&Type=search", "url2": "https://www.gyoutokuchuo-hospital.com/clinic/" }, "geometry": { "type": "Point", "coordinates": [ 139.920795871163932, 35.67648952352495 ] } },
{ "type": "Feature", "properties": { "内容": "面野医院【訪問リハビリテーション】千葉県市川市相之川4-15-1ヘルスプラザ2F", "url": "https://www.kaigokensaku.mhlw.go.jp/12/index.php?action_kouhyou_detail_004_kani=true&JigyosyoCd=1212716579-00&ServiceCd=140&Type=search", "url2": "https://www.omono-clinic.jp/" }, "geometry": { "type": "Point", "coordinates": [ 139.900984599999987, 35.672264 ] } },
{ "type": "Feature", "properties": { "内容": "介護老人保健施設　ハートケア市川【訪問リハビリテーション】千葉県市川市奉免町５９－２", "url": "https://www.kaigokensaku.mhlw.go.jp/12/index.php?action_kouhyou_detail_004_kani=true&JigyosyoCd=1252780039-00&ServiceCd=140&Type=search", "url2": "http://www.hc-ichikawa.jp" }, "geometry": { "type": "Point", "coordinates": [ 139.957029199999965, 35.7433054 ] } },
{ "type": "Feature", "properties": { "内容": "介護老人保健施設ふなばし光陽【訪問リハビリテーション】千葉県船橋市豊富町644-12", "url": "https://www.kaigokensaku.mhlw.go.jp/12/index.php?action_kouhyou_detail_004_kani=true&JigyosyoCd=1252880102-00&ServiceCd=140&Type=search", "url2": "https://yotsuba-kai.or.jp/" }, "geometry": { "type": "Point", "coordinates": [ 140.0631792, 35.7653987 ] } },
{ "type": "Feature", "properties": { "内容": "セコメディック病院【訪問リハビリテーション】千葉県船橋市豊富町696-1", "url": "https://www.kaigokensaku.mhlw.go.jp/12/index.php?action_kouhyou_detail_004_kani=true&JigyosyoCd=1212814945-00&ServiceCd=140&Type=search", "url2": "https://www.secomedic.gr.jp/index.html" }, "geometry": { "type": "Point", "coordinates": [ 140.074868599999945, 35.7632979 ] } },
{ "type": "Feature", "properties": { "内容": "介護老人保健施設　フェルマータ船橋【訪問リハビリテーション】千葉県船橋市飯山満１－８２２", "url": "https://www.kaigokensaku.mhlw.go.jp/12/index.php?action_kouhyou_detail_004_kani=true&JigyosyoCd=1252880060-00&ServiceCd=140&Type=search", "url2": "http://www.fff.or.jp/" }, "geometry": { "type": "Point", "coordinates": [ 140.01049009999997, 35.7093902 ] } },
{ "type": "Feature", "properties": { "内容": "医療法人成春会　北習志野花輪病院【訪問リハビリテーション】千葉県船橋市習志野台2-71-10", "url": "https://www.kaigokensaku.mhlw.go.jp/12/index.php?action_kouhyou_detail_004_kani=true&JigyosyoCd=1212811073-00&ServiceCd=140&Type=search", "url2": "http://www.hanawa.or.jp" }, "geometry": { "type": "Point", "coordinates": [ 140.047505300000012, 35.7237725 ] } },
{ "type": "Feature", "properties": { "内容": "船橋スタークリニック【訪問リハビリテーション】千葉県船橋市本中山2丁目15番地12リリスポスト5階", "url": "https://www.kaigokensaku.mhlw.go.jp/12/index.php?action_kouhyou_detail_004_kani=true&JigyosyoCd=1212818847-00&ServiceCd=140&Type=search", "url2": null }, "geometry": { "type": "Point", "coordinates": [ 139.9440075, 35.7154029 ] } },
{ "type": "Feature", "properties": { "内容": "介護老人保健施設リハビリケア船橋【訪問リハビリテーション】千葉県船橋市本町４－８－３０", "url": "https://www.kaigokensaku.mhlw.go.jp/12/index.php?action_kouhyou_detail_004_kani=true&JigyosyoCd=1252880136-00&ServiceCd=140&Type=search", "url2": "https://rc-funabashi.jp/" }, "geometry": { "type": "Point", "coordinates": [ 139.991220699999985, 35.7008851 ] } },
{ "type": "Feature", "properties": { "内容": "船橋市リハビリセンタークリニック【訪問リハビリテーション】千葉県船橋市飯山満町2-519-3", "url": "https://www.kaigokensaku.mhlw.go.jp/12/index.php?action_kouhyou_detail_004_kani=true&JigyosyoCd=1212817161-00&ServiceCd=140&Type=search", "url2": "http://www.funabashi-rehacen.com" }, "geometry": { "type": "Point", "coordinates": [ 140.0226781, 35.7058378 ] } },
{ "type": "Feature", "properties": { "内容": "介護老人保健施設なつみの郷【訪問リハビリテーション】千葉県船橋市夏見台4ー24－1", "url": "https://www.kaigokensaku.mhlw.go.jp/12/index.php?action_kouhyou_detail_004_kani=true&JigyosyoCd=1250980040-00&ServiceCd=140&Type=search", "url2": "https://youandi.takaminefukushikai.com" }, "geometry": { "type": "Point", "coordinates": [ 139.9973206, 35.725839200000017 ] } },
{ "type": "Feature", "properties": { "内容": "すこやか医院【訪問リハビリテーション】千葉県船橋市東船橋2-17-16すこやか医院", "url": "https://www.kaigokensaku.mhlw.go.jp/12/index.php?action_kouhyou_detail_004_kani=true&JigyosyoCd=1212817054-00&ServiceCd=140&Type=search", "url2": "http://ohisama-c.org/" }, "geometry": { "type": "Point", "coordinates": [ 140.003771599999936, 35.7023048 ] } },
{ "type": "Feature", "properties": { "内容": "船橋総合病院【訪問リハビリテーション】千葉県船橋市北本町1-13-1", "url": "https://www.kaigokensaku.mhlw.go.jp/12/index.php?action_kouhyou_detail_004_kani=true&JigyosyoCd=1212816858-00&ServiceCd=140&Type=search", "url2": "http://www.fgh-carrot.com/" }, "geometry": { "type": "Point", "coordinates": [ 139.983404699999937, 35.7128316 ] } },
{ "type": "Feature", "properties": { "内容": "介護老人保健施設　船橋ケアセンター【訪問リハビリテーション】千葉県船橋市高野台5-741-6", "url": "https://www.kaigokensaku.mhlw.go.jp/12/index.php?action_kouhyou_detail_004_kani=true&JigyosyoCd=1252880037-00&ServiceCd=140&Type=search", "url2": "https://funabashi-care.tmg.or.jp/" }, "geometry": { "type": "Point", "coordinates": [ 140.031359100000032, 35.7707039 ] } },
{ "type": "Feature", "properties": { "内容": "船橋総合病院附属あい在宅クリニック【訪問リハビリテーション】千葉県船橋市北本町2-66-20", "url": "https://www.kaigokensaku.mhlw.go.jp/12/index.php?action_kouhyou_detail_004_kani=true&JigyosyoCd=1212818367-00&ServiceCd=140&Type=search", "url2": "http://www.fgh-carrot.com/dept/ai_clinic/" }, "geometry": { "type": "Point", "coordinates": [ 139.9841061, 35.7136676 ] } },
{ "type": "Feature", "properties": { "内容": "介護老人保健施設はさま徳洲苑【訪問リハビリテーション】千葉県船橋市飯山満町2-685-3", "url": "https://www.kaigokensaku.mhlw.go.jp/12/index.php?action_kouhyou_detail_004_kani=true&JigyosyoCd=1250980073-00&ServiceCd=140&Type=search", "url2": "https://www.hasatoku.jp/service/" }, "geometry": { "type": "Point", "coordinates": [ 140.0186516, 35.7092246 ] } },
{ "type": "Feature", "properties": { "内容": "船橋市立リハビリテーション病院【訪問リハビリテーション】千葉県船橋市夏見台4-26-1", "url": "https://www.kaigokensaku.mhlw.go.jp/12/index.php?action_kouhyou_detail_004_kani=true&JigyosyoCd=1212815777-00&ServiceCd=140&Type=search", "url2": "http://www.funabashi-reha.com" }, "geometry": { "type": "Point", "coordinates": [ 139.996752, 35.7244162 ] } },
{ "type": "Feature", "properties": { "内容": "介護老人保健施設やすらぎ【訪問リハビリテーション】千葉県船橋市市場3-3-1介護老人保健施設やすらぎ", "url": "https://www.kaigokensaku.mhlw.go.jp/12/index.php?action_kouhyou_detail_004_kani=true&JigyosyoCd=1252880045-00&ServiceCd=140&Type=search", "url2": "http://kaigo-yasuragi.jp" }, "geometry": { "type": "Point", "coordinates": [ 139.997870499999976, 35.700993 ] } },
{ "type": "Feature", "properties": { "内容": "大島記念嬉泉病院【訪問リハビリテーション】千葉県船橋市三咲3-5-15", "url": "https://www.kaigokensaku.mhlw.go.jp/12/index.php?action_kouhyou_detail_004_kani=true&JigyosyoCd=1212812915-00&ServiceCd=140&Type=search", "url2": "http://hospitalohshima-kisen.com/" }, "geometry": { "type": "Point", "coordinates": [ 140.033724099999972, 35.752331 ] } },
{ "type": "Feature", "properties": { "内容": "介護老人保健施設　ロータスケアセンター【訪問リハビリテーション】千葉県船橋市藤原5-23-1", "url": "https://www.kaigokensaku.mhlw.go.jp/12/index.php?action_kouhyou_detail_004_kani=true&JigyosyoCd=1252880078-00&ServiceCd=140&Type=search", "url2": "https://www.lotus-care.jp" }, "geometry": { "type": "Point", "coordinates": [ 139.9823094, 35.7399805 ] } },
{ "type": "Feature", "properties": { "内容": "東船橋病院【訪問リハビリテーション】千葉県船橋市高根台４－２９－１", "url": "https://www.kaigokensaku.mhlw.go.jp/12/index.php?action_kouhyou_detail_004_kani=true&JigyosyoCd=1212816189-00&ServiceCd=140&Type=search", "url2": "http://www.hfhp.gr.jp" }, "geometry": { "type": "Point", "coordinates": [ 140.041211, 35.7306634 ] } },
{ "type": "Feature", "properties": { "内容": "介護老人保健施設　エスポワール船橋【訪問リハビリテーション】千葉県船橋市小野田町1494-1", "url": "https://www.kaigokensaku.mhlw.go.jp/12/index.php?action_kouhyou_detail_004_kani=true&JigyosyoCd=1250980057-00&ServiceCd=140&Type=search", "url2": "https://www.esp-funabashi.com/" }, "geometry": { "type": "Point", "coordinates": [ 140.076039900000012, 35.7831895 ] } },
{ "type": "Feature", "properties": { "内容": "滝不動病院【訪問リハビリテーション】千葉県船橋市南三咲４丁目１３－１", "url": "https://www.kaigokensaku.mhlw.go.jp/12/index.php?action_kouhyou_detail_004_kani=true&JigyosyoCd=1212812204-00&ServiceCd=140&Type=search", "url2": "https://www.takifudo.jp/index.html" }, "geometry": { "type": "Point", "coordinates": [ 140.027307900000011, 35.737082 ] } },
{ "type": "Feature", "properties": { "内容": "医療法人　下総会　薬園台リハビリテーション病院【訪問リハビリテーション】千葉県船橋市滝台町９４番地２２", "url": "https://www.kaigokensaku.mhlw.go.jp/12/index.php?action_kouhyou_detail_004_kani=true&JigyosyoCd=1212810299-00&ServiceCd=140&Type=search", "url2": "https://shimousakai.jp/" }, "geometry": { "type": "Point", "coordinates": [ 140.033596301852413, 35.710824119206123 ] } },
{ "type": "Feature", "properties": { "内容": "若葉クリニック【訪問リハビリテーション】千葉県船橋市上山町1-156-1ベルグプレシャデス船橋", "url": "https://www.kaigokensaku.mhlw.go.jp/12/index.php?action_kouhyou_detail_004_kani=true&JigyosyoCd=1212818375-00&ServiceCd=140&Type=search", "url2": "https://wakaba-cl.doctorsfile.jp/" }, "geometry": { "type": "Point", "coordinates": [ 139.9704104, 35.7289256 ] } },
{ "type": "Feature", "properties": { "内容": "医療法人社団志高会たてやま整形外科クリニック【訪問リハビリテーション】千葉県館山市安布里229", "url": "https://www.kaigokensaku.mhlw.go.jp/12/index.php?action_kouhyou_detail_004_kani=true&JigyosyoCd=1213611027-00&ServiceCd=140&Type=search", "url2": "https://tateyama-seikei.com/" }, "geometry": { "type": "Point", "coordinates": [ 139.883189539286832, 34.989032121113382 ] } },
{ "type": "Feature", "properties": { "内容": "館山病院　訪問リハビリテーション【訪問リハビリテーション】千葉県館山市北条字段所５２０番地１", "url": "https://www.kaigokensaku.mhlw.go.jp/12/index.php?action_kouhyou_detail_004_kani=true&JigyosyoCd=1213611100-00&ServiceCd=140&Type=search", "url2": "https://tateyama-hp.com/related/riha_t" }, "geometry": { "type": "Point", "coordinates": [ 139.867526, 34.9955391 ] } },
{ "type": "Feature", "properties": { "内容": "介護老人保健施設なのはな館みさき【訪問リハビリテーション】千葉県館山市浜田１１０－１番地", "url": "https://www.kaigokensaku.mhlw.go.jp/12/index.php?action_kouhyou_detail_004_kani=true&JigyosyoCd=1253680014-00&ServiceCd=140&Type=search", "url2": "https://www.keishokai.or.jp/" }, "geometry": { "type": "Point", "coordinates": [ 139.808715600000028, 34.9748188 ] } },
{ "type": "Feature", "properties": { "内容": "亀田ファミリークリニック館山【訪問リハビリテーション】千葉県館山市正木4304番地9", "url": "https://www.kaigokensaku.mhlw.go.jp/12/index.php?action_kouhyou_detail_004_kani=true&JigyosyoCd=1213610870-00&ServiceCd=140&Type=search", "url2": "https://medical.kameda.com/kfct/" }, "geometry": { "type": "Point", "coordinates": [ 139.861286, 35.0117334 ] } },
{ "type": "Feature", "properties": { "内容": "小林病院【訪問リハビリテーション】千葉県館山市船形９０９番地", "url": "https://www.kaigokensaku.mhlw.go.jp/12/index.php?action_kouhyou_detail_004_kani=true&JigyosyoCd=1213610193-00&ServiceCd=140&Type=search", "url2": "https://www.kotobuki-kai.com" }, "geometry": { "type": "Point", "coordinates": [ 139.844061099999976, 35.0282927 ] } },
{ "type": "Feature", "properties": { "内容": "津田医院訪問リハビリテーション【訪問リハビリテーション】千葉県木更津市東中央2-1-11", "url": "https://www.kaigokensaku.mhlw.go.jp/12/index.php?action_kouhyou_detail_004_kani=true&JigyosyoCd=1211010818-00&ServiceCd=140&Type=search", "url2": "http://www.livingsupport-k.jp/" }, "geometry": { "type": "Point", "coordinates": [ 139.9295651, 35.3814626 ] } },
{ "type": "Feature", "properties": { "内容": "介護老人保健施設メディケアーさざなみ【訪問リハビリテーション】千葉県木更津市中島2366-1", "url": "https://www.kaigokensaku.mhlw.go.jp/12/index.php?action_kouhyou_detail_004_kani=true&JigyosyoCd=1251080035-00&ServiceCd=140&Type=search", "url2": "https://koukyu-kai.com/" }, "geometry": { "type": "Point", "coordinates": [ 139.91935280000007, 35.437357 ] } },
{ "type": "Feature", "properties": { "内容": "木更津内科クリニック【訪問リハビリテーション】千葉県木更津市請西1-18-22", "url": "https://www.kaigokensaku.mhlw.go.jp/12/index.php?action_kouhyou_detail_004_kani=true&JigyosyoCd=1211011956-00&ServiceCd=140&Type=search", "url2": "https://www.chishinkai-group.jp/facilities/kisarazu-clinic" }, "geometry": { "type": "Point", "coordinates": [ 139.93246739999995, 35.3716585 ] } },
{ "type": "Feature", "properties": { "内容": "医療法人社団博翔会　五香病院【訪問リハビリテーション】千葉県松戸市五香8-40-1", "url": "https://www.kaigokensaku.mhlw.go.jp/12/index.php?action_kouhyou_detail_004_kani=true&JigyosyoCd=1212415289-00&ServiceCd=140&Type=search", "url2": "http://www.gokou-hp.com" }, "geometry": { "type": "Point", "coordinates": [ 139.980133199999955, 35.7959145 ] } },
{ "type": "Feature", "properties": { "内容": "いらはら診療所【訪問リハビリテーション】千葉県松戸市小金原４－３－２", "url": "https://www.kaigokensaku.mhlw.go.jp/12/index.php?action_kouhyou_detail_004_kani=true&JigyosyoCd=1212415024-00&ServiceCd=140&Type=search", "url2": "http://www.irahara.or.jp" }, "geometry": { "type": "Point", "coordinates": [ 139.93901649999998, 35.8232236 ] } },
{ "type": "Feature", "properties": { "内容": "常盤平中央病院【訪問リハビリテーション】千葉県松戸市常盤平６－１－８", "url": "https://www.kaigokensaku.mhlw.go.jp/12/index.php?action_kouhyou_detail_004_kani=true&JigyosyoCd=1212410140-00&ServiceCd=140&Type=search", "url2": "http://www.tokiwakai-chp.com/" }, "geometry": { "type": "Point", "coordinates": [ 139.956458099999963, 35.7980636 ] } },
{ "type": "Feature", "properties": { "内容": "恩田メディカルクリニック【訪問リハビリテーション】千葉県松戸市馬橋１８２８", "url": "https://www.kaigokensaku.mhlw.go.jp/12/index.php?action_kouhyou_detail_004_kani=true&JigyosyoCd=1212413623-00&ServiceCd=140&Type=search", "url2": "http://onda-medical.com/" }, "geometry": { "type": "Point", "coordinates": [ 139.918554733729593, 35.809482188410129 ] } },
{ "type": "Feature", "properties": { "内容": "医療法人社団のぞみ会梨香台診療所【訪問リハビリテーション】千葉県松戸市高塚新田４８８－２５", "url": "https://www.kaigokensaku.mhlw.go.jp/12/index.php?action_kouhyou_detail_004_kani=true&JigyosyoCd=1212414019-00&ServiceCd=140&Type=search", "url2": "https://rikoudai.com" }, "geometry": { "type": "Point", "coordinates": [ 139.931103200000052, 35.7609778 ] } },
{ "type": "Feature", "properties": { "内容": "あおぞら診療所【訪問リハビリテーション】千葉県松戸市緑ケ丘２丁目３５７番地ソフィア１階Ａ・Ｂ号", "url": "https://www.kaigokensaku.mhlw.go.jp/12/index.php?action_kouhyou_detail_004_kani=true&JigyosyoCd=1212413946-00&ServiceCd=140&Type=search", "url2": "http://aozora-clinic.or.jp/" }, "geometry": { "type": "Point", "coordinates": [ 139.9153059, 35.7887881 ] } },
{ "type": "Feature", "properties": { "内容": "松戸リハビリテーション病院【訪問リハビリテーション】千葉県松戸市和名ヶ谷1009-1", "url": "https://www.kaigokensaku.mhlw.go.jp/12/index.php?action_kouhyou_detail_004_kani=true&JigyosyoCd=1212416014-00&ServiceCd=140&Type=search", "url2": "http://matsudo-reha.com/" }, "geometry": { "type": "Point", "coordinates": [ 139.921523174868724, 35.780240701933629 ] } },
{ "type": "Feature", "properties": { "内容": "介護老人保健施設　エスポワール松戸【訪問リハビリテーション】千葉県松戸市五香西4-26-10", "url": "https://www.kaigokensaku.mhlw.go.jp/12/index.php?action_kouhyou_detail_004_kani=true&JigyosyoCd=1252480093-00&ServiceCd=140&Type=search", "url2": "https://www.esp-matsudo.com/" }, "geometry": { "type": "Point", "coordinates": [ 139.960221899999965, 35.7874286 ] } },
{ "type": "Feature", "properties": { "内容": "介護老人保健施設　千の星・松戸【訪問リハビリテーション】千葉県松戸市串崎新田189-4", "url": "https://www.kaigokensaku.mhlw.go.jp/12/index.php?action_kouhyou_detail_004_kani=true&JigyosyoCd=1252480051-00&ServiceCd=140&Type=search", "url2": "http://www.toseikai.or.jp/matsudo/" }, "geometry": { "type": "Point", "coordinates": [ 139.981921699999987, 35.7764951 ] } },
{ "type": "Feature", "properties": { "内容": "旭神経内科リハビリテーション病院【訪問リハビリテーション】千葉県松戸市栗ヶ沢789-1", "url": "https://www.kaigokensaku.mhlw.go.jp/12/index.php?action_kouhyou_detail_004_kani=true&JigyosyoCd=1212411429-00&ServiceCd=140&Type=search", "url2": "https://www.yayoikai.or.jp" }, "geometry": { "type": "Point", "coordinates": [ 139.954274299999952, 35.8110232 ] } },
{ "type": "Feature", "properties": { "内容": "けやきトータルクリニック【訪問リハビリテーション】千葉県松戸市新松戸3丁目114番地", "url": "https://www.kaigokensaku.mhlw.go.jp/12/index.php?action_kouhyou_detail_004_kani=true&JigyosyoCd=1212415586-00&ServiceCd=140&Type=search", "url2": "http://keyaki-clinic.com/" }, "geometry": { "type": "Point", "coordinates": [ 139.912360300000046, 35.8253473 ] } },
{ "type": "Feature", "properties": { "内容": "千葉西総合病院【訪問リハビリテーション】千葉県松戸市金ケ作107-1", "url": "https://www.kaigokensaku.mhlw.go.jp/12/index.php?action_kouhyou_detail_004_kani=true&JigyosyoCd=1212412484-00&ServiceCd=140&Type=search", "url2": "http://www.chibanishi-hp.or.jp" }, "geometry": { "type": "Point", "coordinates": [ 139.944683700000041, 35.8036402 ] } },
{ "type": "Feature", "properties": { "内容": "医療法人財団はるたか会　あおぞら診療所まつど【訪問リハビリテーション】千葉県松戸市南花島1-12-1", "url": "https://www.kaigokensaku.mhlw.go.jp/12/index.php?action_kouhyou_detail_004_kani=true&JigyosyoCd=1212417608-00&ServiceCd=140&Type=search", "url2": "https://harutaka-aozora.jp/" }, "geometry": { "type": "Point", "coordinates": [ 139.91159049999996, 35.792822120485795 ] } },
{ "type": "Feature", "properties": { "内容": "介護老人保健施設島村洗心苑【訪問リハビリテーション】千葉県松戸市和名ケ谷660介護老人保健施設　島村洗心苑", "url": "https://www.kaigokensaku.mhlw.go.jp/12/index.php?action_kouhyou_detail_004_kani=true&JigyosyoCd=1252480119-00&ServiceCd=140&Type=search", "url2": "http://www.senshin-g.jp/senshinen/" }, "geometry": { "type": "Point", "coordinates": [ 139.932460799999944, 35.7756592 ] } },
{ "type": "Feature", "properties": { "内容": "医療法人社団真療会　野田病院【訪問リハビリテーション】千葉県野田市中里1554-1", "url": "https://www.kaigokensaku.mhlw.go.jp/12/index.php?action_kouhyou_detail_004_kani=true&JigyosyoCd=1212010833-00&ServiceCd=140&Type=search", "url2": "https://www.nodahosp.or.jp/" }, "geometry": { "type": "Point", "coordinates": [ 139.847461599999974, 36.0006536 ] } },
{ "type": "Feature", "properties": { "内容": "訪問リハビリテーション野田ライフケアセンター【訪問リハビリテーション】千葉県野田市野田840", "url": "https://www.kaigokensaku.mhlw.go.jp/12/index.php?action_kouhyou_detail_004_kani=true&JigyosyoCd=1271301101-00&ServiceCd=140&Type=search", "url2": "https://nlcc.or.jp/" }, "geometry": { "type": "Point", "coordinates": [ 139.865850300000034, 35.9563642 ] } },
{ "type": "Feature", "properties": { "内容": "介護老人保健施設梅郷ナーシングセンター【訪問リハビリテーション】千葉県野田市山崎2785", "url": "https://www.kaigokensaku.mhlw.go.jp/12/index.php?action_kouhyou_detail_004_kani=true&JigyosyoCd=1252080018-00&ServiceCd=140&Type=search", "url2": "https://www.umesato-nc.com/" }, "geometry": { "type": "Point", "coordinates": [ 139.8935854, 35.9366774 ] } },
{ "type": "Feature", "properties": { "内容": "福聚苑老人保健施設【訪問リハビリテーション】千葉県野田市中戸２０番地", "url": "https://www.kaigokensaku.mhlw.go.jp/12/index.php?action_kouhyou_detail_004_kani=true&JigyosyoCd=1252280014-00&ServiceCd=140&Type=search", "url2": "https://rouken-fukujuen.jp/" }, "geometry": { "type": "Point", "coordinates": [ 139.801927400000068, 36.0553465 ] } },
{ "type": "Feature", "properties": { "内容": "茂原中央病院【訪問リハビリテーション】千葉県茂原市下永吉796", "url": "https://www.kaigokensaku.mhlw.go.jp/12/index.php?action_kouhyou_detail_004_kani=true&JigyosyoCd=1213110251-00&ServiceCd=140&Type=search", "url2": "https://mobarachuobyoin.jp/" }, "geometry": { "type": "Point", "coordinates": [ 140.309307100000069, 35.4122719 ] } },
{ "type": "Feature", "properties": { "内容": "医療法人社団上総会　山之内病院　訪問リハビリテーション事業所【訪問リハビリテーション】千葉県茂原市町保３番地", "url": "https://www.kaigokensaku.mhlw.go.jp/12/index.php?action_kouhyou_detail_004_kani=true&JigyosyoCd=1213110053-00&ServiceCd=140&Type=search", "url2": "https//kazusakai.jp" }, "geometry": { "type": "Point", "coordinates": [ 140.305559, 35.4263402 ] } },
{ "type": "Feature", "properties": { "内容": "おゆみの中央病院茂原クリニック【訪問リハビリテーション】千葉県茂原市六ツ野1834番地1", "url": "https://www.kaigokensaku.mhlw.go.jp/12/index.php?action_kouhyou_detail_004_kani=true&JigyosyoCd=1213111333-00&ServiceCd=140&Type=search", "url2": "https://oyumino-central-mobara.jp/" }, "geometry": { "type": "Point", "coordinates": [ 140.324731352114895, 35.437230681752354 ] } },
{ "type": "Feature", "properties": { "内容": "茂原すみれ訪問クリニック【訪問リハビリテーション】千葉県茂原市茂原591-4", "url": "https://www.kaigokensaku.mhlw.go.jp/12/index.php?action_kouhyou_detail_004_kani=true&JigyosyoCd=1213111366-00&ServiceCd=140&Type=search", "url2": "https://www.happymobara.com/" }, "geometry": { "type": "Point", "coordinates": [ 140.2973801, 35.4254107 ] } },
{ "type": "Feature", "properties": { "内容": "介護老人保健施設エスポワール成田【訪問リハビリテーション】千葉県成田市宝田３６０－１", "url": "https://www.kaigokensaku.mhlw.go.jp/12/index.php?action_kouhyou_detail_004_kani=true&JigyosyoCd=1271601989-00&ServiceCd=140&Type=search", "url2": "https://www.esp-narita.com/" }, "geometry": { "type": "Point", "coordinates": [ 140.31017270000001, 35.809638 ] } },
{ "type": "Feature", "properties": { "内容": "国際医療福祉大学成田老年医療福祉センター介護老人保健施設オルタンシア【訪問リハビリテーション】千葉県成田市川栗746番地1", "url": "https://www.kaigokensaku.mhlw.go.jp/12/index.php?action_kouhyou_detail_004_kani=true&JigyosyoCd=1254380049-00&ServiceCd=140&Type=search", "url2": "https://hoyukai.iuhw.ac.jp/rounen/index.html" }, "geometry": { "type": "Point", "coordinates": [ 140.3391523, 35.7651153 ] } },
{ "type": "Feature", "properties": { "内容": "介護老人保健施設透光苑【訪問リハビリテーション】千葉県成田市桜田１１３７", "url": "https://www.kaigokensaku.mhlw.go.jp/12/index.php?action_kouhyou_detail_004_kani=true&JigyosyoCd=1253080025-00&ServiceCd=140&Type=search", "url2": "http://www.toko-kai.or.jp/" }, "geometry": { "type": "Point", "coordinates": [ 140.459409300000061, 35.8432219 ] } },
{ "type": "Feature", "properties": { "内容": "セントルーククリニックユーカリが丘【訪問リハビリテーション】千葉県佐倉市西ユーカリが丘4丁目1番地21医療法人社団コアラの杜　セントルーククリニックユーカリが丘", "url": "https://www.kaigokensaku.mhlw.go.jp/12/index.php?action_kouhyou_detail_004_kani=true&JigyosyoCd=1214212320-00&ServiceCd=140&Type=search", "url2": "https://st-luke.choshinkai.or.jp/" }, "geometry": { "type": "Point", "coordinates": [ 140.15043267853892, 35.727326636570929 ] } },
{ "type": "Feature", "properties": { "内容": "介護老人保健施設ユーカリ優都苑【訪問リハビリテーション】千葉県佐倉市青菅1010番地15", "url": "https://www.kaigokensaku.mhlw.go.jp/12/index.php?action_kouhyou_detail_004_kani=true&JigyosyoCd=1254280046-00&ServiceCd=140&Type=search", "url2": "https://www.yutokai.com/facility/yutoen.html" }, "geometry": { "type": "Point", "coordinates": [ 140.1415658, 35.7445081 ] } },
{ "type": "Feature", "properties": { "内容": "厚生園訪問リハビリステーション【訪問リハビリテーション】千葉県佐倉市鏑木町３２０番地", "url": "https://www.kaigokensaku.mhlw.go.jp/12/index.php?action_kouhyou_detail_004_kani=true&JigyosyoCd=1271701102-00&ServiceCd=140&Type=search", "url2": "https://www.sakurakouseien.jp/" }, "geometry": { "type": "Point", "coordinates": [ 140.2355854, 35.7143903 ] } },
{ "type": "Feature", "properties": { "内容": "介護老人保健施設エスポワール佐倉【訪問リハビリテーション】千葉県佐倉市上志津1316-1", "url": "https://www.kaigokensaku.mhlw.go.jp/12/index.php?action_kouhyou_detail_004_kani=true&JigyosyoCd=1254280090-00&ServiceCd=140&Type=search", "url2": "https://excellentcare-shizu.jp/" }, "geometry": { "type": "Point", "coordinates": [ 140.1468918, 35.7082506 ] } },
{ "type": "Feature", "properties": { "内容": "ユーカリが丘PHCファミリークリニック【訪問リハビリテーション】千葉県佐倉市ユーカリが丘6丁目4番7号山万Rビル3B", "url": "https://www.kaigokensaku.mhlw.go.jp/12/index.php?action_kouhyou_detail_004_kani=true&JigyosyoCd=1214212445-00&ServiceCd=140&Type=search", "url2": "https://www.amamoto-clinic.com/" }, "geometry": { "type": "Point", "coordinates": [ 140.153926899999959, 35.7295934 ] } },
{ "type": "Feature", "properties": { "内容": "介護老人保健施設佐倉ホワイエ【訪問リハビリテーション】千葉県佐倉市鏑木町336", "url": "https://www.kaigokensaku.mhlw.go.jp/12/index.php?action_kouhyou_detail_004_kani=true&JigyosyoCd=1254280012-00&ServiceCd=140&Type=search", "url2": "https://sakurakouseien.jp/" }, "geometry": { "type": "Point", "coordinates": [ 140.2351416, 35.7146386 ] } },
{ "type": "Feature", "properties": { "内容": "医療法人静和会　介護老人保健施設　あさいケアセンター【訪問リハビリテーション】千葉県東金市家徳157-1", "url": "https://www.kaigokensaku.mhlw.go.jp/12/index.php?action_kouhyou_detail_004_kani=true&JigyosyoCd=1271801472-00&ServiceCd=140&Type=search", "url2": "http://www.care-asai.com" }, "geometry": { "type": "Point", "coordinates": [ 140.3956594, 35.5463026 ] } },
{ "type": "Feature", "properties": { "内容": "浅井病院【訪問リハビリテーション】千葉県東金市家徳38番地1", "url": "https://www.kaigokensaku.mhlw.go.jp/12/index.php?action_kouhyou_detail_004_kani=true&JigyosyoCd=1210810036-00&ServiceCd=140&Type=search", "url2": "https://www.asaihospital.com/" }, "geometry": { "type": "Point", "coordinates": [ 140.400116300000036, 35.5449658 ] } },
{ "type": "Feature", "properties": { "内容": "介護老人保健施設すこやかリハビリ・ケアセンター【訪問リハビリテーション】千葉県旭市ロ818-3", "url": "https://www.kaigokensaku.mhlw.go.jp/12/index.php?action_kouhyou_detail_004_kani=true&JigyosyoCd=1251480029-00&ServiceCd=140&Type=search", "url2": null }, "geometry": { "type": "Point", "coordinates": [ 140.654024199999981, 35.7177288 ] } },
{ "type": "Feature", "properties": { "内容": "総合病院　国保　旭中央病院【訪問リハビリテーション】千葉県旭市イ-1326", "url": "https://www.kaigokensaku.mhlw.go.jp/12/index.php?action_kouhyou_detail_004_kani=true&JigyosyoCd=1211411255-00&ServiceCd=140&Type=search", "url2": "https://www.hospital.asahi.chiba.jp/" }, "geometry": { "type": "Point", "coordinates": [ 140.662584599999917, 35.717218920409991 ] } },
{ "type": "Feature", "properties": { "内容": "東京湾岸リハビリテーション病院【訪問リハビリテーション】千葉県習志野市谷津4番地1-1", "url": "https://www.kaigokensaku.mhlw.go.jp/12/index.php?action_kouhyou_detail_004_kani=true&JigyosyoCd=1210211409-00&ServiceCd=140&Type=search", "url2": "https://wanreha.net" }, "geometry": { "type": "Point", "coordinates": [ 140.009516100000042, 35.6827877 ] } },
{ "type": "Feature", "properties": { "内容": "医療法人社団愛友会介護老人保健施設ケアセンター習志野【訪問リハビリテーション】千葉県習志野市秋津3-5-2", "url": "https://www.kaigokensaku.mhlw.go.jp/12/index.php?action_kouhyou_detail_004_kani=true&JigyosyoCd=1250280016-00&ServiceCd=140&Type=search", "url2": "http://www.e-ccn.net/" }, "geometry": { "type": "Point", "coordinates": [ 140.017968500000052, 35.6690449 ] } },
{ "type": "Feature", "properties": { "内容": "津田沼中央総合病院【訪問リハビリテーション】千葉県習志野市谷津1丁目9番17号", "url": "https://www.kaigokensaku.mhlw.go.jp/12/index.php?action_kouhyou_detail_004_kani=true&JigyosyoCd=1210210518-00&ServiceCd=140&Type=search", "url2": "http://www.tcgh.jp" }, "geometry": { "type": "Point", "coordinates": [ 140.018565200000012, 35.6868594 ] } },
{ "type": "Feature", "properties": { "内容": "柏たなか病院【訪問リハビリテーション】千葉県柏市小青田一丁目３番地２", "url": "https://www.kaigokensaku.mhlw.go.jp/12/index.php?action_kouhyou_detail_004_kani=true&JigyosyoCd=1212115749-00&ServiceCd=140&Type=search", "url2": "http://www.aoikai.jp" }, "geometry": { "type": "Point", "coordinates": [ 139.956007199999931, 35.9109713 ] } },
{ "type": "Feature", "properties": { "内容": "医療法人社団あかつき　ホームクリニック柏【訪問リハビリテーション】千葉県柏市桜台1-8", "url": "https://www.kaigokensaku.mhlw.go.jp/12/index.php?action_kouhyou_detail_004_kani=true&JigyosyoCd=1212115806-00&ServiceCd=140&Type=search", "url2": "https://homeclinic-kashiwa.doctorsfile.jp/" }, "geometry": { "type": "Point", "coordinates": [ 139.98076, 35.8588053 ] } },
{ "type": "Feature", "properties": { "内容": "医療法人　知真会　かしわ内科クリニック【訪問リハビリテーション】千葉県柏市小青田35-1", "url": "https://www.kaigokensaku.mhlw.go.jp/12/index.php?action_kouhyou_detail_004_kani=true&JigyosyoCd=1212116523-00&ServiceCd=140&Type=search", "url2": "https://www.chishinkai-group.jp/" }, "geometry": { "type": "Point", "coordinates": [ 139.9554556, 35.9076861 ] } },
{ "type": "Feature", "properties": { "内容": "医療法人社団順邦会　飯島整形外科【訪問リハビリテーション】千葉県柏市末広町６－１セントラルウェルネスクラブ柏ビル１Ｆ", "url": "https://www.kaigokensaku.mhlw.go.jp/12/index.php?action_kouhyou_detail_004_kani=true&JigyosyoCd=1212112936-00&ServiceCd=140&Type=search", "url2": "http://www.iijima-seikei.jp/" }, "geometry": { "type": "Point", "coordinates": [ 139.969470600000022, 35.8643933 ] } },
{ "type": "Feature", "properties": { "内容": "あらいメンタル・クリニック【訪問リハビリテーション】千葉県柏市南柏中央2-14-1F", "url": "https://www.kaigokensaku.mhlw.go.jp/12/index.php?action_kouhyou_detail_004_kani=true&JigyosyoCd=1212116234-00&ServiceCd=140&Type=search", "url2": "https://www.araimental.jp/" }, "geometry": { "type": "Point", "coordinates": [ 139.953632800000037, 35.843016 ] } },
{ "type": "Feature", "properties": { "内容": "医療法人社団いぶきの森のぞみの花クリニック【訪問リハビリテーション】千葉県柏市布施1213ｰ4", "url": "https://www.kaigokensaku.mhlw.go.jp/12/index.php?action_kouhyou_detail_004_kani=true&JigyosyoCd=1212116762-00&ServiceCd=140&Type=search", "url2": "http://www.nozominohana.com/" }, "geometry": { "type": "Point", "coordinates": [ 139.9988975, 35.891961 ] } },
{ "type": "Feature", "properties": { "内容": "柏まことクリニック【訪問リハビリテーション】千葉県柏市中央1-2-25矢羽根ビル2F", "url": "https://www.kaigokensaku.mhlw.go.jp/12/index.php?action_kouhyou_detail_004_kani=true&JigyosyoCd=1212116317-00&ServiceCd=140&Type=search", "url2": null }, "geometry": { "type": "Point", "coordinates": [ 139.9737614, 35.8588401 ] } },
{ "type": "Feature", "properties": { "内容": "回生の里　訪問リハビリステーション【訪問リハビリテーション】千葉県柏市名戸ケ谷929-1", "url": "https://www.kaigokensaku.mhlw.go.jp/12/index.php?action_kouhyou_detail_004_kani=true&JigyosyoCd=1272207430-00&ServiceCd=140&Type=search", "url2": "http://kaisei.nadogaya.com/" }, "geometry": { "type": "Point", "coordinates": [ 139.9810841, 35.8455947 ] } },
{ "type": "Feature", "properties": { "内容": "医療法人社団創明会　柏整形外科クリニック【訪問リハビリテーション】千葉県柏市南柏2－4－2SKビル1階", "url": "https://www.kaigokensaku.mhlw.go.jp/12/index.php?action_kouhyou_detail_004_kani=true&JigyosyoCd=1212114379-00&ServiceCd=140&Type=search", "url2": null }, "geometry": { "type": "Point", "coordinates": [ 139.955022500000013, 35.8458741 ] } },
{ "type": "Feature", "properties": { "内容": "訪問リハビリステーション柏たなか【訪問リハビリテーション】千葉県柏市小青田１丁目3-3", "url": "https://www.kaigokensaku.mhlw.go.jp/12/index.php?action_kouhyou_detail_004_kani=true&JigyosyoCd=1272207265-00&ServiceCd=140&Type=search", "url2": "https://www.aoikai.jp/aoinosono-kashiwatanaka/" }, "geometry": { "type": "Point", "coordinates": [ 139.955035, 35.910224 ] } },
{ "type": "Feature", "properties": { "内容": "柏厚生総合病院　指定訪問リハビリテーション事業所【訪問リハビリテーション】千葉県柏市篠籠田617番地", "url": "https://www.kaigokensaku.mhlw.go.jp/12/index.php?action_kouhyou_detail_004_kani=true&JigyosyoCd=1212114866-00&ServiceCd=140&Type=search", "url2": "https://www.kashiwakousei.or.jp/" }, "geometry": { "type": "Point", "coordinates": [ 139.961282100000062, 35.8729639 ] } },
{ "type": "Feature", "properties": { "内容": "諏訪の杜整形外科【訪問リハビリテーション】千葉県柏市豊四季1008-8", "url": "https://www.kaigokensaku.mhlw.go.jp/12/index.php?action_kouhyou_detail_004_kani=true&JigyosyoCd=1212116879-00&ServiceCd=140&Type=search", "url2": "https://suwanomori-ortho.com/" }, "geometry": { "type": "Point", "coordinates": [ 139.938711314680489, 35.86592183954599 ] } },
{ "type": "Feature", "properties": { "内容": "介護老人保健施設さかき光陽【訪問リハビリテーション】千葉県柏市酒井根40番地1", "url": "https://www.kaigokensaku.mhlw.go.jp/12/index.php?action_kouhyou_detail_004_kani=true&JigyosyoCd=1252180016-00&ServiceCd=140&Type=search", "url2": "https://yotsuba-kai.or.jp/sakaki/" }, "geometry": { "type": "Point", "coordinates": [ 139.961405, 35.820073 ] } },
{ "type": "Feature", "properties": { "内容": "医療法人社団ゆうあい会　やりたクリニック【訪問リハビリテーション】千葉県市原市西広１３１", "url": "https://www.kaigokensaku.mhlw.go.jp/12/index.php?action_kouhyou_detail_004_kani=true&JigyosyoCd=1210612093-00&ServiceCd=140&Type=search", "url2": "http://www.yarita-clinic.jp" }, "geometry": { "type": "Point", "coordinates": [ 140.121792, 35.4869475 ] } },
{ "type": "Feature", "properties": { "内容": "介護老人保健施設クレイン【訪問リハビリテーション】千葉県市原市石川1078", "url": "https://www.kaigokensaku.mhlw.go.jp/12/index.php?action_kouhyou_detail_004_kani=true&JigyosyoCd=1250680111-00&ServiceCd=140&Type=search", "url2": "http://www.ctg.or.jp/" }, "geometry": { "type": "Point", "coordinates": [ 140.183762699999988, 35.3863297 ] } },
{ "type": "Feature", "properties": { "内容": "医療法人社団　白金会　白金整形外科病院【訪問リハビリテーション】千葉県市原市白金町1-75-1", "url": "https://www.kaigokensaku.mhlw.go.jp/12/index.php?action_kouhyou_detail_004_kani=true&JigyosyoCd=1210611822-00&ServiceCd=140&Type=search", "url2": "http://shirogane-hp.com/" }, "geometry": { "type": "Point", "coordinates": [ 140.1045206, 35.5267144 ] } },
{ "type": "Feature", "properties": { "内容": "医療法人　鎗田病院【訪問リハビリテーション】千葉県市原市五井８９９", "url": "https://www.kaigokensaku.mhlw.go.jp/12/index.php?action_kouhyou_detail_004_kani=true&JigyosyoCd=1210610055-00&ServiceCd=140&Type=search", "url2": "http://www.yarita-hosp.or.jp" }, "geometry": { "type": "Point", "coordinates": [ 140.0799939, 35.510185 ] } },
{ "type": "Feature", "properties": { "内容": "介護老人保健施設リハパークきくま【訪問リハビリテーション】千葉県市原市菊間１１３６－６介護老人保健施設リハパークきくま", "url": "https://www.kaigokensaku.mhlw.go.jp/12/index.php?action_kouhyou_detail_004_kani=true&JigyosyoCd=1250680090-00&ServiceCd=140&Type=search", "url2": "http://rehapark-kikuma.com" }, "geometry": { "type": "Point", "coordinates": [ 140.149893900000052, 35.538260799999975 ] } },
{ "type": "Feature", "properties": { "内容": "リハビリテーション病院さらしな【訪問リハビリテーション】千葉県市原市更級1-5-3", "url": "https://www.kaigokensaku.mhlw.go.jp/12/index.php?action_kouhyou_detail_004_kani=true&JigyosyoCd=1210612879-00&ServiceCd=140&Type=search", "url2": "http://reha-sarashina.com/" }, "geometry": { "type": "Point", "coordinates": [ 140.096271699999988, 35.5087682 ] } },
{ "type": "Feature", "properties": { "内容": "メディケア51訪問リハビリテーション事業所【訪問リハビリテーション】千葉県市原市町田176", "url": "https://www.kaigokensaku.mhlw.go.jp/12/index.php?action_kouhyou_detail_004_kani=true&JigyosyoCd=1272403930-00&ServiceCd=140&Type=search", "url2": "https://www.medicare51.com/" }, "geometry": { "type": "Point", "coordinates": [ 140.08111790000001, 35.4859714 ] } },
{ "type": "Feature", "properties": { "内容": "まとばクリニック【訪問リハビリテーション】千葉県流山市おおたかの森西三丁目１－７", "url": "https://www.kaigokensaku.mhlw.go.jp/12/index.php?action_kouhyou_detail_004_kani=true&JigyosyoCd=1212311918-00&ServiceCd=140&Type=search", "url2": "https://nagareyama-otakanomori.matoba-clinic.com/" }, "geometry": { "type": "Point", "coordinates": [ 139.918393916285709, 35.874347988466262 ] } },
{ "type": "Feature", "properties": { "内容": "うのさわクリニック【訪問リハビリテーション】千葉県流山市東深井382-20", "url": "https://www.kaigokensaku.mhlw.go.jp/12/index.php?action_kouhyou_detail_004_kani=true&JigyosyoCd=1212311876-00&ServiceCd=140&Type=search", "url2": "https://unosawa.clinic" }, "geometry": { "type": "Point", "coordinates": [ 139.905825963229375, 35.912859701729154 ] } },
{ "type": "Feature", "properties": { "内容": "千葉愛友会記念病院【訪問リハビリテーション】千葉県流山市鰭ヶ崎1-1", "url": "https://www.kaigokensaku.mhlw.go.jp/12/index.php?action_kouhyou_detail_004_kani=true&JigyosyoCd=1212310423-00&ServiceCd=140&Type=search", "url2": "http://chibaaiyu-kai.com/" }, "geometry": { "type": "Point", "coordinates": [ 139.911607199999906, 35.836643199999983 ] } },
{ "type": "Feature", "properties": { "内容": "医療法人社団江陽会　江陽台病院【訪問リハビリテーション】千葉県流山市西深井393番地", "url": "https://www.kaigokensaku.mhlw.go.jp/12/index.php?action_kouhyou_detail_004_kani=true&JigyosyoCd=1212310753-00&ServiceCd=140&Type=search", "url2": "http://www.kouyoudai.jp" }, "geometry": { "type": "Point", "coordinates": [ 139.893131332540833, 35.909903381668371 ] } },
{ "type": "Feature", "properties": { "内容": "医療法人財団　東京勤労者医療会　東葛病院【訪問リハビリテーション】千葉県流山市中102-1", "url": "https://www.kaigokensaku.mhlw.go.jp/12/index.php?action_kouhyou_detail_004_kani=true&JigyosyoCd=1212311603-00&ServiceCd=140&Type=search", "url2": "http://www.tokatsu-hp.com/" }, "geometry": { "type": "Point", "coordinates": [ 139.915948599999979, 35.8529548 ] } },
{ "type": "Feature", "properties": { "内容": "介護老人保健施設ナーシングプラザ流山【訪問リハビリテーション】千葉県流山市前ヶ崎248-1", "url": "https://www.kaigokensaku.mhlw.go.jp/12/index.php?action_kouhyou_detail_004_kani=true&JigyosyoCd=1252380012-00&ServiceCd=140&Type=search", "url2": "https://np-nagareyama.jp/" }, "geometry": { "type": "Point", "coordinates": [ 139.929949599999986, 35.8498611 ] } },
{ "type": "Feature", "properties": { "内容": "のぞみ整形外科・内科クリニック【訪問リハビリテーション】千葉県流山市南流山1-18-13", "url": "https://www.kaigokensaku.mhlw.go.jp/12/index.php?action_kouhyou_detail_004_kani=true&JigyosyoCd=1212311520-00&ServiceCd=140&Type=search", "url2": "https://www.nozomi-clinic.info/" }, "geometry": { "type": "Point", "coordinates": [ 139.906280799999962, 35.838040499999984 ] } },
{ "type": "Feature", "properties": { "内容": "介護老人保健施設ハートケア流山訪問リハビリテーション【訪問リハビリテーション】千葉県流山市小屋１４６－１", "url": "https://www.kaigokensaku.mhlw.go.jp/12/index.php?action_kouhyou_detail_004_kani=true&JigyosyoCd=1272501279-00&ServiceCd=140&Type=search", "url2": "https://hc-nagareyama2200.jp/" }, "geometry": { "type": "Point", "coordinates": [ 139.896387399999981, 35.8939616 ] } },
{ "type": "Feature", "properties": { "内容": "おおたかの森西口クリニック【訪問リハビリテーション】千葉県流山市おおたかの森西1-32-5", "url": "https://www.kaigokensaku.mhlw.go.jp/12/index.php?action_kouhyou_detail_004_kani=true&JigyosyoCd=1212312098-00&ServiceCd=140&Type=search", "url2": "https://www.otakanomori-west-cl.com/" }, "geometry": { "type": "Point", "coordinates": [ 139.9212035, 35.871523 ] } },
{ "type": "Feature", "properties": { "内容": "新八千代病院【訪問リハビリテーション】千葉県八千代市米本2167", "url": "https://www.kaigokensaku.mhlw.go.jp/12/index.php?action_kouhyou_detail_004_kani=true&JigyosyoCd=1210410308-00&ServiceCd=140&Type=search", "url2": "http://www.harmonichearts.or.jp/shinyachiyo/" }, "geometry": { "type": "Point", "coordinates": [ 140.1122957, 35.7520993 ] } },
{ "type": "Feature", "properties": { "内容": "こうづ整形外科【訪問リハビリテーション】千葉県八千代市八千代台西9-2-11", "url": "https://www.kaigokensaku.mhlw.go.jp/12/index.php?action_kouhyou_detail_004_kani=true&JigyosyoCd=1210412023-00&ServiceCd=140&Type=search", "url2": "http://www.kouzu-seikei.com/" }, "geometry": { "type": "Point", "coordinates": [ 140.083211093254079, 35.696776704536241 ] } },
{ "type": "Feature", "properties": { "内容": "勝田台病院【訪問リハビリテーション】千葉県八千代市勝田622-2", "url": "https://www.kaigokensaku.mhlw.go.jp/12/index.php?action_kouhyou_detail_004_kani=true&JigyosyoCd=1210410647-00&ServiceCd=140&Type=search", "url2": "http://www.katsutadai.or.jp" }, "geometry": { "type": "Point", "coordinates": [ 140.12519, 35.7054066 ] } },
{ "type": "Feature", "properties": { "内容": "介護老人保健施設ばらの里【訪問リハビリテーション】千葉県八千代市島田台字大東台764-2", "url": "https://www.kaigokensaku.mhlw.go.jp/12/index.php?action_kouhyou_detail_004_kani=true&JigyosyoCd=1250480038-00&ServiceCd=140&Type=search", "url2": "https://www.baranosato.org/" }, "geometry": { "type": "Point", "coordinates": [ 140.0893883, 35.7655047 ] } },
{ "type": "Feature", "properties": { "内容": "八千代リハビリテーション病院【訪問リハビリテーション】千葉県八千代市米本１８０８番地", "url": "https://www.kaigokensaku.mhlw.go.jp/12/index.php?action_kouhyou_detail_004_kani=true&JigyosyoCd=1210412015-00&ServiceCd=140&Type=search", "url2": "http://www.yachiyo-reha.com" }, "geometry": { "type": "Point", "coordinates": [ 140.119084199999946, 35.746636 ] } },
{ "type": "Feature", "properties": { "内容": "我孫子聖仁会病院【訪問リハビリテーション】千葉県我孫子市柴崎1300番", "url": "https://www.kaigokensaku.mhlw.go.jp/12/index.php?action_kouhyou_detail_004_kani=true&JigyosyoCd=1212511087-00&ServiceCd=140&Type=search", "url2": "http://seijinkai-abiko.jp/" }, "geometry": { "type": "Point", "coordinates": [ 140.0516867, 35.8765189 ] } },
{ "type": "Feature", "properties": { "内容": "ジェイ内科・脳神経内科クリニック　訪問リハビリテーション【訪問リハビリテーション】千葉県我孫子市本町2丁目3‐3星野ビル4階", "url": "https://www.kaigokensaku.mhlw.go.jp/12/index.php?action_kouhyou_detail_004_kani=true&JigyosyoCd=1212511699-00&ServiceCd=140&Type=search", "url2": "http://j-neurology.saturn.bindcloud.jp/" }, "geometry": { "type": "Point", "coordinates": [ 140.0114878, 35.8719632 ] } },
{ "type": "Feature", "properties": { "内容": "平和台病院【訪問リハビリテーション】千葉県我孫子市布佐834-28", "url": "https://www.kaigokensaku.mhlw.go.jp/12/index.php?action_kouhyou_detail_004_kani=true&JigyosyoCd=1212510758-00&ServiceCd=140&Type=search", "url2": "https://www.medicalplaza.or.jp" }, "geometry": { "type": "Point", "coordinates": [ 140.1153903, 35.8631982 ] } },
{ "type": "Feature", "properties": { "内容": "医療法人財団明理会介護老人保健施設我孫子ロイヤルケアセンター【訪問リハビリテーション】千葉県我孫子市中峠2614", "url": "https://www.kaigokensaku.mhlw.go.jp/12/index.php?action_kouhyou_detail_004_kani=true&JigyosyoCd=1272701838-00&ServiceCd=140&Type=search", "url2": "http://www.ims.gr.jp/abiko_royal/" }, "geometry": { "type": "Point", "coordinates": [ 140.089893499999988, 35.8800037 ] } },
{ "type": "Feature", "properties": { "内容": "ほしの脳神経クリニック【訪問リハビリテーション】千葉県我孫子市我孫子４－４３－１７", "url": "https://www.kaigokensaku.mhlw.go.jp/12/index.php?action_kouhyou_detail_004_kani=true&JigyosyoCd=1212511210-00&ServiceCd=140&Type=search", "url2": "https://www.star-brain.jp/" }, "geometry": { "type": "Point", "coordinates": [ 140.014796, 35.8754317 ] } },
{ "type": "Feature", "properties": { "内容": "けやきの里クリニック　訪問リハビリテーション【訪問リハビリテーション】千葉県我孫子市青山417番", "url": "https://www.kaigokensaku.mhlw.go.jp/12/index.php?action_kouhyou_detail_004_kani=true&JigyosyoCd=1212511517-00&ServiceCd=140&Type=search", "url2": "https://kojk.jp/" }, "geometry": { "type": "Point", "coordinates": [ 140.048914299999979, 35.8839315 ] } },
{ "type": "Feature", "properties": { "内容": "小田病院【訪問リハビリテーション】千葉県鴨川市横渚８８０", "url": "https://www.kaigokensaku.mhlw.go.jp/12/index.php?action_kouhyou_detail_004_kani=true&JigyosyoCd=1213910080-00&ServiceCd=140&Type=search", "url2": "http://oda-hp.com" }, "geometry": { "type": "Point", "coordinates": [ 140.105260500000014, 35.1060961 ] } },
{ "type": "Feature", "properties": { "内容": "東条病院介護医療院【訪問リハビリテーション】千葉県鴨川市広場1615", "url": "https://www.kaigokensaku.mhlw.go.jp/12/index.php?action_kouhyou_detail_004_kani=true&JigyosyoCd=12B3900083-00&ServiceCd=140&Type=search", "url2": "http://www.tojo-h.or.jp" }, "geometry": { "type": "Point", "coordinates": [ 140.108657, 35.1214935 ] } },
{ "type": "Feature", "properties": { "内容": "亀田クリニック【訪問リハビリテーション】千葉県鴨川市東町1344番地", "url": "https://www.kaigokensaku.mhlw.go.jp/12/index.php?action_kouhyou_detail_004_kani=true&JigyosyoCd=1213910270-00&ServiceCd=140&Type=search", "url2": "https://medical.kameda.com/clinic/" }, "geometry": { "type": "Point", "coordinates": [ 140.127673499999986, 35.1215618 ] } },
{ "type": "Feature", "properties": { "内容": "鴨川市立国保病院【訪問リハビリテーション】千葉県鴨川市宮山233番地", "url": "https://www.kaigokensaku.mhlw.go.jp/12/index.php?action_kouhyou_detail_004_kani=true&JigyosyoCd=1213911021-00&ServiceCd=140&Type=search", "url2": "https://kamogawakokuho-hp.com" }, "geometry": { "type": "Point", "coordinates": [ 140.0143953, 35.1308689 ] } },
{ "type": "Feature", "properties": { "内容": "初富保健病院【訪問リハビリテーション】千葉県鎌ヶ谷市114番地", "url": "https://www.kaigokensaku.mhlw.go.jp/12/index.php?action_kouhyou_detail_004_kani=true&JigyosyoCd=1212610244-00&ServiceCd=140&Type=search", "url2": "http://www.hatsutomi.or.jp/" }, "geometry": { "type": "Point", "coordinates": [ 140.0165174, 35.7562553 ] } },
{ "type": "Feature", "properties": { "内容": "医療法人社団　君津あすなろ会　あすなろクリニック【訪問リハビリテーション】千葉県君津市久保1-2-2", "url": "https://www.kaigokensaku.mhlw.go.jp/12/index.php?action_kouhyou_detail_004_kani=true&JigyosyoCd=1211110717-00&ServiceCd=140&Type=search", "url2": "https://www.cl-asunaro.jp/" }, "geometry": { "type": "Point", "coordinates": [ 139.8979755, 35.3317069 ] } },
{ "type": "Feature", "properties": { "内容": "玄々堂じんクリニック【訪問リハビリテーション】千葉県君津市坂田1599", "url": "https://www.kaigokensaku.mhlw.go.jp/12/index.php?action_kouhyou_detail_004_kani=true&JigyosyoCd=1211110899-00&ServiceCd=140&Type=search", "url2": "http://www.gengendo.jp/" }, "geometry": { "type": "Point", "coordinates": [ 139.897535849189836, 35.336129950980869 ] } },
{ "type": "Feature", "properties": { "内容": "国保直営君津中央病院大佐和分院【訪問リハビリテーション】千葉県富津市千種新田７１０番地", "url": "https://www.kaigokensaku.mhlw.go.jp/12/index.php?action_kouhyou_detail_004_kani=true&JigyosyoCd=1211210012-00&ServiceCd=140&Type=search", "url2": "https://www.hospital.kisarazu.chiba.jp/osawa.html" }, "geometry": { "type": "Point", "coordinates": [ 139.849977599999988, 35.2949325 ] } },
{ "type": "Feature", "properties": { "内容": "介護老人保健施設　わかくさ【訪問リハビリテーション】千葉県富津市上335-1", "url": "https://www.kaigokensaku.mhlw.go.jp/12/index.php?action_kouhyou_detail_004_kani=true&JigyosyoCd=1251280023-00&ServiceCd=140&Type=search", "url2": "http://www.saiseikai-wakakusa.or.jp/" }, "geometry": { "type": "Point", "coordinates": [ 139.888348800000017, 35.287509 ] } },
{ "type": "Feature", "properties": { "内容": "鈴木内科クリニック【訪問リハビリテーション】千葉県富津市長崎331－1", "url": "https://www.kaigokensaku.mhlw.go.jp/12/index.php?action_kouhyou_detail_004_kani=true&JigyosyoCd=1211210418-00&ServiceCd=140&Type=search", "url2": "https://www.suzuki-naika.com/" }, "geometry": { "type": "Point", "coordinates": [ 139.9062408, 35.2198021 ] } },
{ "type": "Feature", "properties": { "内容": "介護老人保健施設浦安ベテルホーム【訪問リハビリテーション】千葉県浦安市高洲九丁目3番2号", "url": "https://www.kaigokensaku.mhlw.go.jp/12/index.php?action_kouhyou_detail_004_kani=true&JigyosyoCd=1251980019-00&ServiceCd=140&Type=search", "url2": "http://www.seirei.or.jp/elderlyhome/urayasu/" }, "geometry": { "type": "Point", "coordinates": [ 139.918723199999988, 35.6315647 ] } },
{ "type": "Feature", "properties": { "内容": "めいわ皮フ科クリニック【訪問リハビリテーション】千葉県四街道市めいわ4-3-27", "url": "https://www.kaigokensaku.mhlw.go.jp/12/index.php?action_kouhyou_detail_004_kani=true&JigyosyoCd=1214411138-00&ServiceCd=140&Type=search", "url2": "https://www.meiwa-hifu.com" }, "geometry": { "type": "Point", "coordinates": [ 140.1685257, 35.6508974 ] } },
{ "type": "Feature", "properties": { "内容": "のぞみ訪問リハビリテーション事業所【訪問リハビリテーション】千葉県四街道市大日1685-10", "url": "https://www.kaigokensaku.mhlw.go.jp/12/index.php?action_kouhyou_detail_004_kani=true&JigyosyoCd=1273300564-00&ServiceCd=140&Type=search", "url2": "https://keitoku-nozomi.jp/" }, "geometry": { "type": "Point", "coordinates": [ 140.152706500000022, 35.679502800000016 ] } },
{ "type": "Feature", "properties": { "内容": "四街道まごころクリニック【訪問リハビリテーション】千葉県四街道市めいわ3-16-8　1階", "url": "https://www.kaigokensaku.mhlw.go.jp/12/index.php?action_kouhyou_detail_004_kani=true&JigyosyoCd=1214411070-00&ServiceCd=140&Type=search", "url2": "https://www.magokoro-zaitaku.jp/yotsukaido-magokoro-cl/top/" }, "geometry": { "type": "Point", "coordinates": [ 140.162968520849404, 35.648831775531704 ] } },
{ "type": "Feature", "properties": { "内容": "介護老人保健施設　栗の郷【訪問リハビリテーション】千葉県四街道市栗山９０６－１", "url": "https://www.kaigokensaku.mhlw.go.jp/12/index.php?action_kouhyou_detail_004_kani=true&JigyosyoCd=1254480026-00&ServiceCd=140&Type=search", "url2": "https://www.kurinosato.org/" }, "geometry": { "type": "Point", "coordinates": [ 140.176325499999962, 35.678348799999981 ] } },
{ "type": "Feature", "properties": { "内容": "医療法人社団　恒久会　山口医院【訪問リハビリテーション】千葉県袖ケ浦市奈良輪５３５－１", "url": "https://www.kaigokensaku.mhlw.go.jp/12/index.php?action_kouhyou_detail_004_kani=true&JigyosyoCd=1210910620-00&ServiceCd=140&Type=search", "url2": "https://koukyu-kai.com/" }, "geometry": { "type": "Point", "coordinates": [ 139.9652734, 35.4347518 ] } },
{ "type": "Feature", "properties": { "内容": "介護老人保健施設メディケアーやまゆり【訪問リハビリテーション】千葉県袖ヶ浦市奈良輪730番地", "url": "https://www.kaigokensaku.mhlw.go.jp/12/index.php?action_kouhyou_detail_004_kani=true&JigyosyoCd=1250980011-00&ServiceCd=140&Type=search", "url2": "https://koukyu-kai.com/yamayuri/" }, "geometry": { "type": "Point", "coordinates": [ 139.963170900000023, 35.4334992 ] } },
{ "type": "Feature", "properties": { "内容": "袖ケ浦さつき台病院【訪問リハビリテーション】千葉県袖ケ浦市長浦駅前5丁目21番地", "url": "https://www.kaigokensaku.mhlw.go.jp/12/index.php?action_kouhyou_detail_004_kani=true&JigyosyoCd=1210910307-00&ServiceCd=140&Type=search", "url2": "http://www.satsuki-kai.or.jp" }, "geometry": { "type": "Point", "coordinates": [ 140.006348800000012, 35.4457466 ] } },
{ "type": "Feature", "properties": { "内容": "海保病院【訪問リハビリテーション】千葉県八街市八街ほ３８６", "url": "https://www.kaigokensaku.mhlw.go.jp/12/index.php?action_kouhyou_detail_004_kani=true&JigyosyoCd=1214510012-00&ServiceCd=140&Type=search", "url2": "http://med.kaiho.jp/" }, "geometry": { "type": "Point", "coordinates": [ 140.318700347746244, 35.656276692007204 ] } },
{ "type": "Feature", "properties": { "内容": "医療法人社団誠和会長谷川病院【訪問リハビリテーション】千葉県八街市八街に85番地", "url": "https://www.kaigokensaku.mhlw.go.jp/12/index.php?action_kouhyou_detail_004_kani=true&JigyosyoCd=1214510442-00&ServiceCd=140&Type=search", "url2": "http://www.hp-hasegawa.or.jp" }, "geometry": { "type": "Point", "coordinates": [ 140.325223199999982, 35.6623567 ] } },
{ "type": "Feature", "properties": { "内容": "医療法人社団雅厚生会　千葉新都市ラーバンクリニック【訪問リハビリテーション】千葉県印西市草深１３８", "url": "https://www.kaigokensaku.mhlw.go.jp/12/index.php?action_kouhyou_detail_004_kani=true&JigyosyoCd=1214610366-00&ServiceCd=140&Type=search", "url2": "https://chibashintoshi.or.jp/" }, "geometry": { "type": "Point", "coordinates": [ 140.1425547, 35.7977501 ] } },
{ "type": "Feature", "properties": { "内容": "医療法人平成博愛会　印西総合病院【訪問リハビリテーション】千葉県印西市牧の台１－１－１", "url": "https://www.kaigokensaku.mhlw.go.jp/12/index.php?action_kouhyou_detail_004_kani=true&JigyosyoCd=1214610572-00&ServiceCd=140&Type=search", "url2": "https://inzai-hospital.jp/" }, "geometry": { "type": "Point", "coordinates": [ 140.163250799999986, 35.8130727 ] } },
{ "type": "Feature", "properties": { "内容": "北総白井病院【訪問リハビリテーション】千葉県白井市根325-2-1北総白井病院", "url": "https://www.kaigokensaku.mhlw.go.jp/12/index.php?action_kouhyou_detail_004_kani=true&JigyosyoCd=1214710034-00&ServiceCd=140&Type=search", "url2": "http://r34.sakura.ne.jp/hf/hokusou/pg172.html" }, "geometry": { "type": "Point", "coordinates": [ 140.032422699999984, 35.770344800000011 ] } },
{ "type": "Feature", "properties": { "内容": "医療法人　美篶会　中原病院【訪問リハビリテーション】千葉県南房総市和田町仁我浦19-1", "url": "https://www.kaigokensaku.mhlw.go.jp/12/index.php?action_kouhyou_detail_004_kani=true&JigyosyoCd=1215110127-00&ServiceCd=140&Type=search", "url2": "http://www.nakahara-hosp.or.jp/" }, "geometry": { "type": "Point", "coordinates": [ 140.017782799999964, 35.0397996 ] } },
{ "type": "Feature", "properties": { "内容": "医療法人光洋会　介護老人保健施設光栄館【訪問リハビリテーション】千葉県南房総市谷向166-1", "url": "https://www.kaigokensaku.mhlw.go.jp/12/index.php?action_kouhyou_detail_004_kani=true&JigyosyoCd=1253580016-00&ServiceCd=140&Type=search", "url2": "https://www.ko-yo-kai.jp/" }, "geometry": { "type": "Point", "coordinates": [ 139.893876200000022, 35.0259102 ] } },
{ "type": "Feature", "properties": { "内容": "サテライト型小規模介護老人保健施設葵の園・岩井海岸【訪問リハビリテーション】千葉県南房総市久枝1143", "url": "https://www.kaigokensaku.mhlw.go.jp/12/index.php?action_kouhyou_detail_004_kani=true&JigyosyoCd=1278800527-00&ServiceCd=140&Type=search", "url2": "https://www.aoikai.jp/iwaikaigan/" }, "geometry": { "type": "Point", "coordinates": [ 139.839051299999937, 35.0986719 ] } },
{ "type": "Feature", "properties": { "内容": "七浦リハビリテーションセンター【訪問リハビリテーション】千葉県南房総市千倉町大川638番地ななうら", "url": "https://www.kaigokensaku.mhlw.go.jp/12/index.php?action_kouhyou_detail_004_kani=true&JigyosyoCd=1215110275-00&ServiceCd=140&Type=search", "url2": "https://nanaurashinryojo.com" }, "geometry": { "type": "Point", "coordinates": [ 139.945418099999983, 34.9319506 ] } },
{ "type": "Feature", "properties": { "内容": "医療法人三省会本多病院【訪問リハビリテーション】千葉県香取市本郷７７２番地", "url": "https://www.kaigokensaku.mhlw.go.jp/12/index.php?action_kouhyou_detail_004_kani=true&JigyosyoCd=1215210455-00&ServiceCd=140&Type=search", "url2": "http://www.sanseikai.or.jp" }, "geometry": { "type": "Point", "coordinates": [ 140.5834506, 35.8533283 ] } },
{ "type": "Feature", "properties": { "内容": "イムス佐原リハビリテーション病院【訪問リハビリテーション】千葉県香取市佐原ロ２１２１－１", "url": "https://www.kaigokensaku.mhlw.go.jp/12/index.php?action_kouhyou_detail_004_kani=true&JigyosyoCd=1215210265-00&ServiceCd=140&Type=search", "url2": "http://www.ims.gr.jp/sawara_reha/" }, "geometry": { "type": "Point", "coordinates": [ 140.500570700000054, 35.90121 ] } },
{ "type": "Feature", "properties": { "内容": "介護老人保健施設夢プラスワン【訪問リハビリテーション】千葉県香取市大倉字入り1196-1", "url": "https://www.kaigokensaku.mhlw.go.jp/12/index.php?action_kouhyou_detail_004_kani=true&JigyosyoCd=1252980019-00&ServiceCd=140&Type=search", "url2": "https://yume-plusone.com/" }, "geometry": { "type": "Point", "coordinates": [ 140.557344957418792, 35.888535316045576 ] } },
{ "type": "Feature", "properties": { "内容": "医療法人社団君津あすなろ会　小見川あすなろクリニック【訪問リハビリテーション】千葉県香取市野田280-1", "url": "https://www.kaigokensaku.mhlw.go.jp/12/index.php?action_kouhyou_detail_004_kani=true&JigyosyoCd=1215210737-00&ServiceCd=140&Type=search", "url2": "https://cl-omigawaasunaro.jp/" }, "geometry": { "type": "Point", "coordinates": [ 140.5931941, 35.8517843 ] } },
{ "type": "Feature", "properties": { "内容": "あきば伝統医学クリニック【訪問リハビリテーション】千葉県山武市蓮沼二の２０８６番地", "url": "https://www.kaigokensaku.mhlw.go.jp/12/index.php?action_kouhyou_detail_004_kani=true&JigyosyoCd=1215310271-00&ServiceCd=140&Type=search", "url2": "http://www.akibah.or.jp/" }, "geometry": { "type": "Point", "coordinates": [ 140.483350800000039, 35.5947424 ] } },
{ "type": "Feature", "properties": { "内容": "介護老人保健施設　エスポワール岬【訪問リハビリテーション】千葉県いすみ市岬町和泉330-1介護老人保健施設　エスポワール岬", "url": "https://www.kaigokensaku.mhlw.go.jp/12/index.php?action_kouhyou_detail_004_kani=true&JigyosyoCd=1253780020-00&ServiceCd=140&Type=search", "url2": "https://www.esp-misaki.com/" }, "geometry": { "type": "Point", "coordinates": [ 140.403095928836024, 35.323735236421037 ] } },
{ "type": "Feature", "properties": { "内容": "介護老人保健施設　エスポワール大原【訪問リハビリテーション】千葉県いすみ市日在2623", "url": "https://www.kaigokensaku.mhlw.go.jp/12/index.php?action_kouhyou_detail_004_kani=true&JigyosyoCd=1254980033-00&ServiceCd=140&Type=search", "url2": "https://www.esp-ohara.com/" }, "geometry": { "type": "Point", "coordinates": [ 140.388109100000065, 35.2759806 ] } },
{ "type": "Feature", "properties": { "内容": "岬病院【訪問リハビリテーション】千葉県いすみ市岬町桑田２５３１岬病院", "url": "https://www.kaigokensaku.mhlw.go.jp/12/index.php?action_kouhyou_detail_004_kani=true&JigyosyoCd=1214910204-00&ServiceCd=140&Type=search", "url2": "http://www.hp-misaki.com/contact/" }, "geometry": { "type": "Point", "coordinates": [ 140.348734700000023, 35.3086242 ] } },
{ "type": "Feature", "properties": { "内容": "しすいホームクリニック【訪問リハビリテーション】千葉県印旛郡酒々井町中央台1-28-1", "url": "https://www.kaigokensaku.mhlw.go.jp/12/index.php?action_kouhyou_detail_004_kani=true&JigyosyoCd=1214111928-00&ServiceCd=140&Type=search", "url2": null }, "geometry": { "type": "Point", "coordinates": [ 140.2728267, 35.7337566 ] } },
{ "type": "Feature", "properties": { "内容": "医療法人社団　千葉光徳会　千葉しすい病院【訪問リハビリテーション】千葉県印旛郡酒々井町上岩橋1160-2", "url": "https://www.kaigokensaku.mhlw.go.jp/12/index.php?action_kouhyou_detail_004_kani=true&JigyosyoCd=1214111894-00&ServiceCd=140&Type=search", "url2": "https://www.chibako.or.jp" }, "geometry": { "type": "Point", "coordinates": [ 140.276717600000012, 35.7373738 ] } },
{ "type": "Feature", "properties": { "内容": "介護老人保健施設　さかえケアセンター【訪問リハビリテーション】千葉県印旛郡栄町安食２４２１", "url": "https://www.kaigokensaku.mhlw.go.jp/12/index.php?action_kouhyou_detail_004_kani=true&JigyosyoCd=1254180030-00&ServiceCd=140&Type=search", "url2": "http://www.ikusei-g.com" }, "geometry": { "type": "Point", "coordinates": [ 140.249758093358167, 35.835048602435577 ] } },
{ "type": "Feature", "properties": { "内容": "国保多古中央病院【訪問リハビリテーション】千葉県香取郡多古町３８８－１", "url": "https://www.kaigokensaku.mhlw.go.jp/12/index.php?action_kouhyou_detail_004_kani=true&JigyosyoCd=1213010386-00&ServiceCd=140&Type=search", "url2": "http://www.takochu.tako.chiba.jp/" }, "geometry": { "type": "Point", "coordinates": [ 140.471852, 35.738191700000023 ] } },
{ "type": "Feature", "properties": { "内容": "東庄町国民健康保険東庄病院【訪問リハビリテーション】千葉県香取郡東庄町石出2692番地15", "url": "https://www.kaigokensaku.mhlw.go.jp/12/index.php?action_kouhyou_detail_004_kani=true&JigyosyoCd=1213010485-00&ServiceCd=140&Type=search", "url2": "https://www.town.tohnosho.chiba.jp/tonoshobyoin/index.html" }, "geometry": { "type": "Point", "coordinates": [ 140.697565542327879, 35.820668583763315 ] } },
{ "type": "Feature", "properties": { "内容": "九十九里病院【訪問リハビリテーション】千葉県山武郡九十九里町片貝2700", "url": "https://www.kaigokensaku.mhlw.go.jp/12/index.php?action_kouhyou_detail_004_kani=true&JigyosyoCd=1210710707-00&ServiceCd=140&Type=search", "url2": "http://kujyukuri-hp.or.jp/" }, "geometry": { "type": "Point", "coordinates": [ 140.437158700000026, 35.53394 ] } },
{ "type": "Feature", "properties": { "内容": "東陽病院【訪問リハビリテーション】千葉県山武郡横芝光町宮川12100番地", "url": "https://www.kaigokensaku.mhlw.go.jp/12/index.php?action_kouhyou_detail_004_kani=true&JigyosyoCd=1210712034-00&ServiceCd=140&Type=search", "url2": "https://hospital.town.yokoshibahikari.chiba.jp" }, "geometry": { "type": "Point", "coordinates": [ 140.503019200000011, 35.6581345 ] } },
{ "type": "Feature", "properties": { "内容": "介護老人保健施設睦沢の里【訪問リハビリテーション】千葉県長生郡睦沢町大上１１５０番地", "url": "https://www.kaigokensaku.mhlw.go.jp/12/index.php?action_kouhyou_detail_004_kani=true&JigyosyoCd=1253280021-00&ServiceCd=140&Type=search", "url2": "http://www.mutsuzawanosato.jp" }, "geometry": { "type": "Point", "coordinates": [ 140.294092399999954, 35.3348848 ] } },
{ "type": "Feature", "properties": { "内容": "介護老人保健施設長柄ケアセンター【訪問リハビリテーション】千葉県長生郡長柄町立鳥597-2", "url": "https://www.kaigokensaku.mhlw.go.jp/12/index.php?action_kouhyou_detail_004_kani=true&JigyosyoCd=1253280013-00&ServiceCd=140&Type=search", "url2": "http://www.seikoukai-hp.or.jp/" }, "geometry": { "type": "Point", "coordinates": [ 140.2187457, 35.4327941 ] } },
{ "type": "Feature", "properties": { "内容": "川崎病院【訪問リハビリテーション】千葉県夷隅郡大多喜町泉水６７４", "url": "https://www.kaigokensaku.mhlw.go.jp/12/index.php?action_kouhyou_detail_004_kani=true&JigyosyoCd=1213710076-00&ServiceCd=140&Type=search", "url2": "https://kawasaki-hospital.jp/" }, "geometry": { "type": "Point", "coordinates": [ 140.241869, 35.2946054 ] } }
]
}
