{
"type": "FeatureCollection",
"name": "geo_12_地域密着型介護老人福祉施設入所者生活介護",
"crs": { "type": "name", "properties": { "name": "urn:ogc:def:crs:OGC:1.3:CRS84" } },
"features": [
{ "type": "Feature", "properties": { "内容": "特別養護老人ホーム　横戸ガーデン【地域密着型介護老人福祉施設入所者生活介護】千葉県千葉市花見川区横戸町899-1", "url2": "https://www.kaigokensaku.mhlw.go.jp/12/index.php?action_kouhyou_detail_004_kani=true&JigyosyoCd=1290200136-00&ServiceCd=540&Type=search" }, "geometry": { "type": "Point", "coordinates": [ 140.114474100000052, 35.7107226 ] } },
{ "type": "Feature", "properties": { "内容": "きさらぎ荘【地域密着型介護老人福祉施設入所者生活介護】千葉県千葉市花見川区幕張町３丁目２２７３番地きさらぎ荘", "url2": "https://www.kaigokensaku.mhlw.go.jp/12/index.php?action_kouhyou_detail_004_kani=true&JigyosyoCd=1290200185-00&ServiceCd=540&Type=search" }, "geometry": { "type": "Point", "coordinates": [ 140.056545599999936, 35.6724566 ] } },
{ "type": "Feature", "properties": { "内容": "みやのぎ荘【地域密着型介護老人福祉施設入所者生活介護】千葉県千葉市稲毛区宮野木町1025-11", "url2": "https://www.kaigokensaku.mhlw.go.jp/12/index.php?action_kouhyou_detail_004_kani=true&JigyosyoCd=1290300142-00&ServiceCd=540&Type=search" }, "geometry": { "type": "Point", "coordinates": [ 140.10052810000002, 35.6520429 ] } },
{ "type": "Feature", "properties": { "内容": "地域密着型特別養護老人ホームシオン銚子【地域密着型介護老人福祉施設入所者生活介護】千葉県銚子市豊里台1-1044-745", "url2": "https://www.kaigokensaku.mhlw.go.jp/12/index.php?action_kouhyou_detail_004_kani=true&JigyosyoCd=1290700127-00&ServiceCd=540&Type=search" }, "geometry": { "type": "Point", "coordinates": [ 140.712381199999982, 35.7887396 ] } },
{ "type": "Feature", "properties": { "内容": "特別養護老人ホームたか音の杜【地域密着型介護老人福祉施設入所者生活介護】千葉県船橋市高根台2-10-30", "url2": "https://www.kaigokensaku.mhlw.go.jp/12/index.php?action_kouhyou_detail_004_kani=true&JigyosyoCd=1290900537-00&ServiceCd=540&Type=search" }, "geometry": { "type": "Point", "coordinates": [ 140.033495, 35.7323604 ] } },
{ "type": "Feature", "properties": { "内容": "特別養護老人ホーム三咲館【地域密着型介護老人福祉施設入所者生活介護】千葉県船橋市南三咲３－２７－１", "url2": "https://www.kaigokensaku.mhlw.go.jp/12/index.php?action_kouhyou_detail_004_kani=true&JigyosyoCd=1290900438-00&ServiceCd=540&Type=search" }, "geometry": { "type": "Point", "coordinates": [ 140.028471099999933, 35.7389457 ] } },
{ "type": "Feature", "properties": { "内容": "特別養護老人ホーム　船橋笑寿苑【地域密着型介護老人福祉施設入所者生活介護】千葉県船橋市大穴北4-25-15", "url2": "https://www.kaigokensaku.mhlw.go.jp/12/index.php?action_kouhyou_detail_004_kani=true&JigyosyoCd=1290900552-00&ServiceCd=540&Type=search" }, "geometry": { "type": "Point", "coordinates": [ 140.048333700000057, 35.7519868 ] } },
{ "type": "Feature", "properties": { "内容": "地域密着型特別養護老人ホームさざなみ苑【地域密着型介護老人福祉施設入所者生活介護】千葉県木更津市中島2357-1", "url2": "https://www.kaigokensaku.mhlw.go.jp/12/index.php?action_kouhyou_detail_004_kani=true&JigyosyoCd=1291100038-00&ServiceCd=540&Type=search" }, "geometry": { "type": "Point", "coordinates": [ 139.92059990000007, 35.4362044 ] } },
{ "type": "Feature", "properties": { "内容": "特別養護老人ホームしおかぜ【地域密着型介護老人福祉施設入所者生活介護】千葉県木更津市岩根2－2－2", "url2": "https://www.kaigokensaku.mhlw.go.jp/12/index.php?action_kouhyou_detail_004_kani=true&JigyosyoCd=1291100087-00&ServiceCd=540&Type=search" }, "geometry": { "type": "Point", "coordinates": [ 139.929031174591046, 35.409136404689406 ] } },
{ "type": "Feature", "properties": { "内容": "地域密着型特別養護老人ホームさざなみ苑（ユニット型）【地域密着型介護老人福祉施設入所者生活介護】千葉県木更津市中島字呑掘2357-1", "url2": "https://www.kaigokensaku.mhlw.go.jp/12/index.php?action_kouhyou_detail_004_kani=true&JigyosyoCd=1291100236-00&ServiceCd=540&Type=search" }, "geometry": { "type": "Point", "coordinates": [ 139.920599900000013, 35.4362044 ] } },
{ "type": "Feature", "properties": { "内容": "地域密着型特別養護老人ホームハートケア八幡台館【地域密着型介護老人福祉施設入所者生活介護】千葉県木更津市八幡台4丁目6番16号", "url2": "https://www.kaigokensaku.mhlw.go.jp/12/index.php?action_kouhyou_detail_004_kani=true&JigyosyoCd=1291100244-00&ServiceCd=540&Type=search" }, "geometry": { "type": "Point", "coordinates": [ 139.948486961208204, 35.338555171036475 ] } },
{ "type": "Feature", "properties": { "内容": "特別養護老人ホーム請西苑【地域密着型介護老人福祉施設入所者生活介護】千葉県木更津市請西1377-2", "url2": "https://www.kaigokensaku.mhlw.go.jp/12/index.php?action_kouhyou_detail_004_kani=true&JigyosyoCd=1291100079-00&ServiceCd=540&Type=search" }, "geometry": { "type": "Point", "coordinates": [ 139.938606, 35.3639236 ] } },
{ "type": "Feature", "properties": { "内容": "地域密着型特別養護老人ホーム　矢那梅の香園【地域密着型介護老人福祉施設入所者生活介護】千葉県木更津市矢那字天神前3731番2", "url2": "https://www.kaigokensaku.mhlw.go.jp/12/index.php?action_kouhyou_detail_004_kani=true&JigyosyoCd=1291100046-00&ServiceCd=540&Type=search" }, "geometry": { "type": "Point", "coordinates": [ 139.961238, 35.3559331 ] } },
{ "type": "Feature", "properties": { "内容": "地域密着型特別養護老人ホームいわね潮の香園【地域密着型介護老人福祉施設入所者生活介護】千葉県木更津市万石146-1", "url2": "https://www.kaigokensaku.mhlw.go.jp/12/index.php?action_kouhyou_detail_004_kani=true&JigyosyoCd=1291100103-00&ServiceCd=540&Type=search" }, "geometry": { "type": "Point", "coordinates": [ 139.933676399999968, 35.4161018 ] } },
{ "type": "Feature", "properties": { "内容": "特別養護老人ホームリバーサイド・ヴィラ【地域密着型介護老人福祉施設入所者生活介護】千葉県松戸市根木内１４９番地", "url2": "https://www.kaigokensaku.mhlw.go.jp/12/index.php?action_kouhyou_detail_004_kani=true&JigyosyoCd=1291200267-00&ServiceCd=540&Type=search" }, "geometry": { "type": "Point", "coordinates": [ 139.944504599999959, 35.8302953 ] } },
{ "type": "Feature", "properties": { "内容": "特別養護老人ホーム　松峰苑【地域密着型介護老人福祉施設入所者生活介護】千葉県松戸市高塚新田４８８－９", "url2": "https://www.kaigokensaku.mhlw.go.jp/12/index.php?action_kouhyou_detail_004_kani=true&JigyosyoCd=1291200176-00&ServiceCd=540&Type=search" }, "geometry": { "type": "Point", "coordinates": [ 139.931964200000039, 35.7608833 ] } },
{ "type": "Feature", "properties": { "内容": "社会福祉法人成未会　特別養護老人ホーム芙蓉園【地域密着型介護老人福祉施設入所者生活介護】千葉県松戸市幸田１５３番地", "url2": "https://www.kaigokensaku.mhlw.go.jp/12/index.php?action_kouhyou_detail_004_kani=true&JigyosyoCd=1290100203-00&ServiceCd=540&Type=search" }, "geometry": { "type": "Point", "coordinates": [ 139.921337104893496, 35.846301425248924 ] } },
{ "type": "Feature", "properties": { "内容": "地域密着型特別養護老人ホーム明尽苑【地域密着型介護老人福祉施設入所者生活介護】千葉県松戸市金ヶ作296-1", "url2": "https://www.kaigokensaku.mhlw.go.jp/12/index.php?action_kouhyou_detail_004_kani=true&JigyosyoCd=1291200416-00&ServiceCd=540&Type=search" }, "geometry": { "type": "Point", "coordinates": [ 139.965884599999981, 35.8024329 ] } },
{ "type": "Feature", "properties": { "内容": "ヴィラ・ほまれの家【地域密着型介護老人福祉施設入所者生活介護】千葉県野田市目吹2011-3", "url2": "https://www.kaigokensaku.mhlw.go.jp/12/index.php?action_kouhyou_detail_004_kani=true&JigyosyoCd=1291300125-00&ServiceCd=540&Type=search" }, "geometry": { "type": "Point", "coordinates": [ 139.876479499999959, 35.966727 ] } },
{ "type": "Feature", "properties": { "内容": "特別養護老人ホーム野田市楽寿園【地域密着型介護老人福祉施設入所者生活介護】千葉県野田市鶴奉２６４番地", "url2": "https://www.kaigokensaku.mhlw.go.jp/12/index.php?action_kouhyou_detail_004_kani=true&JigyosyoCd=1291300018-00&ServiceCd=540&Type=search" }, "geometry": { "type": "Point", "coordinates": [ 139.88513480000006, 35.9592946 ] } },
{ "type": "Feature", "properties": { "内容": "特別養護老人ホーム　あんしん【地域密着型介護老人福祉施設入所者生活介護】千葉県茂原市三ヶ谷1368-1", "url2": "https://www.kaigokensaku.mhlw.go.jp/12/index.php?action_kouhyou_detail_004_kani=true&JigyosyoCd=1291500021-00&ServiceCd=540&Type=search" }, "geometry": { "type": "Point", "coordinates": [ 140.310062733729495, 35.395994701952461 ] } },
{ "type": "Feature", "properties": { "内容": "特別養護老人ホーム第二長生共楽園ひめはる【地域密着型介護老人福祉施設入所者生活介護】千葉県茂原市下永吉2667番地5", "url2": "https://www.kaigokensaku.mhlw.go.jp/12/index.php?action_kouhyou_detail_004_kani=true&JigyosyoCd=1291500054-00&ServiceCd=540&Type=search" }, "geometry": { "type": "Point", "coordinates": [ 140.297594724159239, 35.400816431191394 ] } },
{ "type": "Feature", "properties": { "内容": "特別養護老人ホームあんしん東郷【地域密着型介護老人福祉施設入所者生活介護】千葉県茂原市千町2231-2", "url2": "https://www.kaigokensaku.mhlw.go.jp/12/index.php?action_kouhyou_detail_004_kani=true&JigyosyoCd=1291500138-00&ServiceCd=540&Type=search" }, "geometry": { "type": "Point", "coordinates": [ 140.338916599999948, 35.4475177 ] } },
{ "type": "Feature", "properties": { "内容": "地域密着型特別養護老人ホームしょうじゅの里茂原【地域密着型介護老人福祉施設入所者生活介護】千葉県茂原市高師193-1", "url2": "https://www.kaigokensaku.mhlw.go.jp/12/index.php?action_kouhyou_detail_004_kani=true&JigyosyoCd=1291500203-00&ServiceCd=540&Type=search" }, "geometry": { "type": "Point", "coordinates": [ 140.296751300000011, 35.4395247 ] } },
{ "type": "Feature", "properties": { "内容": "特別養護老人ホーム長寿園（地域密着型）【地域密着型介護老人福祉施設入所者生活介護】千葉県成田市長沼１６００番地", "url2": "https://www.kaigokensaku.mhlw.go.jp/12/index.php?action_kouhyou_detail_004_kani=true&JigyosyoCd=1291600151-00&ServiceCd=540&Type=search" }, "geometry": { "type": "Point", "coordinates": [ 140.300210900000025, 35.8305005 ] } },
{ "type": "Feature", "properties": { "内容": "千年希望の杜佐倉【地域密着型介護老人福祉施設入所者生活介護】千葉県佐倉市下志津214番地１", "url2": "https://www.kaigokensaku.mhlw.go.jp/12/index.php?action_kouhyou_detail_004_kani=true&JigyosyoCd=1291700191-00&ServiceCd=540&Type=search" }, "geometry": { "type": "Point", "coordinates": [ 140.16856513917844, 35.719351509234443 ] } },
{ "type": "Feature", "properties": { "内容": "地域密着型介護老人福祉施設第二やすらぎ園【地域密着型介護老人福祉施設入所者生活介護】千葉県旭市秋田1698番3", "url2": "https://www.kaigokensaku.mhlw.go.jp/12/index.php?action_kouhyou_detail_004_kani=true&JigyosyoCd=1292000039-00&ServiceCd=540&Type=search" }, "geometry": { "type": "Point", "coordinates": [ 140.595181300000036, 35.7412836 ] } },
{ "type": "Feature", "properties": { "内容": "地域密着型介護老人福祉施設やすらぎ園きらめき【地域密着型介護老人福祉施設入所者生活介護】千葉県旭市イの3947番3", "url2": "https://www.kaigokensaku.mhlw.go.jp/12/index.php?action_kouhyou_detail_004_kani=true&JigyosyoCd=1292000088-00&ServiceCd=540&Type=search" }, "geometry": { "type": "Point", "coordinates": [ 140.673008699999968, 35.7260816 ] } },
{ "type": "Feature", "properties": { "内容": "特別養護老人ホーム　東風荘松里館【地域密着型介護老人福祉施設入所者生活介護】千葉県旭市三川字篠堆6143-12", "url2": "https://www.kaigokensaku.mhlw.go.jp/12/index.php?action_kouhyou_detail_004_kani=true&JigyosyoCd=1292000021-00&ServiceCd=540&Type=search" }, "geometry": { "type": "Point", "coordinates": [ 140.6898823, 35.7056085 ] } },
{ "type": "Feature", "properties": { "内容": "ゆいまーる習志野介護老人福祉施設【地域密着型介護老人福祉施設入所者生活介護】千葉県習志野市秋津3-5-1", "url2": "https://www.kaigokensaku.mhlw.go.jp/12/index.php?action_kouhyou_detail_004_kani=true&JigyosyoCd=1292100086-00&ServiceCd=540&Type=search" }, "geometry": { "type": "Point", "coordinates": [ 140.017463, 35.6693809 ] } },
{ "type": "Feature", "properties": { "内容": "特別養護老人ホーム沼南の里【地域密着型介護老人福祉施設入所者生活介護】千葉県柏市藤ヶ谷1086番地7", "url2": "https://www.kaigokensaku.mhlw.go.jp/12/index.php?action_kouhyou_detail_004_kani=true&JigyosyoCd=1292200381-00&ServiceCd=540&Type=search" }, "geometry": { "type": "Point", "coordinates": [ 140.027543363043151, 35.80800232618364 ] } },
{ "type": "Feature", "properties": { "内容": "地域密着型特別養護老人ホームマザーズガーデン【地域密着型介護老人福祉施設入所者生活介護】千葉県柏市布施1106-5", "url2": "https://www.kaigokensaku.mhlw.go.jp/12/index.php?action_kouhyou_detail_004_kani=true&JigyosyoCd=1292200423-00&ServiceCd=540&Type=search" }, "geometry": { "type": "Point", "coordinates": [ 140.00257676790622, 35.886481753656007 ] } },
{ "type": "Feature", "properties": { "内容": "小規模特別養護老人ホーム輝陽園【地域密着型介護老人福祉施設入所者生活介護】千葉県柏市酒井根６９－１", "url2": "https://www.kaigokensaku.mhlw.go.jp/12/index.php?action_kouhyou_detail_004_kani=true&JigyosyoCd=1292200308-00&ServiceCd=540&Type=search" }, "geometry": { "type": "Point", "coordinates": [ 139.963193943902525, 35.82094293538497 ] } },
{ "type": "Feature", "properties": { "内容": "地域密着型特別養護老人ホーム大津川八幡苑【地域密着型介護老人福祉施設入所者生活介護】千葉県柏市藤心２７１－１大津川八幡苑", "url2": "https://www.kaigokensaku.mhlw.go.jp/12/index.php?action_kouhyou_detail_004_kani=true&JigyosyoCd=1292200340-00&ServiceCd=540&Type=search" }, "geometry": { "type": "Point", "coordinates": [ 139.994094, 35.8239082 ] } },
{ "type": "Feature", "properties": { "内容": "特別養護老人ホーム藤心八幡苑ユニット館【地域密着型介護老人福祉施設入所者生活介護】千葉県柏市藤心293-2", "url2": "https://www.kaigokensaku.mhlw.go.jp/12/index.php?action_kouhyou_detail_004_kani=true&JigyosyoCd=1292200290-00&ServiceCd=540&Type=search" }, "geometry": { "type": "Point", "coordinates": [ 139.995954900000015, 35.8243498 ] } },
{ "type": "Feature", "properties": { "内容": "特別養護老人ホーム　グリーンヴィラ【地域密着型介護老人福祉施設入所者生活介護】千葉県柏市逆井１３１０－３", "url2": "https://www.kaigokensaku.mhlw.go.jp/12/index.php?action_kouhyou_detail_004_kani=true&JigyosyoCd=1292200225-00&ServiceCd=540&Type=search" }, "geometry": { "type": "Point", "coordinates": [ 139.974546799999985, 35.8134595 ] } },
{ "type": "Feature", "properties": { "内容": "特別養護老人ホーム第二ふるさと苑里休【地域密着型介護老人福祉施設入所者生活介護】千葉県市原市能満2073-25", "url2": "https://www.kaigokensaku.mhlw.go.jp/12/index.php?action_kouhyou_detail_004_kani=true&JigyosyoCd=1292400155-00&ServiceCd=540&Type=search" }, "geometry": { "type": "Point", "coordinates": [ 140.145193536245756, 35.495916359022807 ] } },
{ "type": "Feature", "properties": { "内容": "特別養護老人ホームポプラの樹【地域密着型介護老人福祉施設入所者生活介護】千葉県市原市二日市場７７３－１", "url2": "https://www.kaigokensaku.mhlw.go.jp/12/index.php?action_kouhyou_detail_004_kani=true&JigyosyoCd=1292400502-00&ServiceCd=540&Type=search" }, "geometry": { "type": "Point", "coordinates": [ 140.11646693609012, 35.443206913216471 ] } },
{ "type": "Feature", "properties": { "内容": "地域密着型介護老人福祉施設　春【地域密着型介護老人福祉施設入所者生活介護】千葉県市原市菊間２６２番地", "url2": "https://www.kaigokensaku.mhlw.go.jp/12/index.php?action_kouhyou_detail_004_kani=true&JigyosyoCd=1292400049-00&ServiceCd=540&Type=search" }, "geometry": { "type": "Point", "coordinates": [ 140.1291794, 35.5304923 ] } },
{ "type": "Feature", "properties": { "内容": "地域密着型特別養護老人ホーム　ぬくもりの家惣社【地域密着型介護老人福祉施設入所者生活介護】千葉県市原市惣社1272番地1", "url2": "https://www.kaigokensaku.mhlw.go.jp/12/index.php?action_kouhyou_detail_004_kani=true&JigyosyoCd=1292400270-00&ServiceCd=540&Type=search" }, "geometry": { "type": "Point", "coordinates": [ 140.106950583422616, 35.497731246782458 ] } },
{ "type": "Feature", "properties": { "内容": "地域密着型特別養護老人ホーム　おおまや【地域密着型介護老人福祉施設入所者生活介護】千葉県市原市山木307-1", "url2": "https://www.kaigokensaku.mhlw.go.jp/12/index.php?action_kouhyou_detail_004_kani=true&JigyosyoCd=1292400478-00&ServiceCd=540&Type=search" }, "geometry": { "type": "Point", "coordinates": [ 140.143374099999988, 35.5172773 ] } },
{ "type": "Feature", "properties": { "内容": "地域密着型特別養護老人ホーム　よろこび【地域密着型介護老人福祉施設入所者生活介護】千葉県市原市喜多893-29", "url2": "https://www.kaigokensaku.mhlw.go.jp/12/index.php?action_kouhyou_detail_004_kani=true&JigyosyoCd=1292400320-00&ServiceCd=540&Type=search" }, "geometry": { "type": "Point", "coordinates": [ 140.185232111114516, 35.493268845937195 ] } },
{ "type": "Feature", "properties": { "内容": "特別養護老人ホーム季の花【地域密着型介護老人福祉施設入所者生活介護】千葉県流山市おおたかの森西4-17-1", "url2": "https://www.kaigokensaku.mhlw.go.jp/12/index.php?action_kouhyou_detail_004_kani=true&JigyosyoCd=1292500194-00&ServiceCd=540&Type=search" }, "geometry": { "type": "Point", "coordinates": [ 139.918635900000027, 35.8768536 ] } },
{ "type": "Feature", "properties": { "内容": "特別養護老人ホーム春の苑【地域密着型介護老人福祉施設入所者生活介護】千葉県流山市東深井５１８－１", "url2": "https://www.kaigokensaku.mhlw.go.jp/12/index.php?action_kouhyou_detail_004_kani=true&JigyosyoCd=1292500087-00&ServiceCd=540&Type=search" }, "geometry": { "type": "Point", "coordinates": [ 139.9136598, 35.9161472 ] } },
{ "type": "Feature", "properties": { "内容": "特別養護老人ホーム　むらかみの郷【地域密着型介護老人福祉施設入所者生活介護】千葉県八千代市村上1113-36", "url2": "https://www.kaigokensaku.mhlw.go.jp/12/index.php?action_kouhyou_detail_004_kani=true&JigyosyoCd=1292600416-00&ServiceCd=540&Type=search" }, "geometry": { "type": "Point", "coordinates": [ 140.122535845052312, 35.730323172570579 ] } },
{ "type": "Feature", "properties": { "内容": "地域密着型特別養護老人ホームひばりの郷【地域密着型介護老人福祉施設入所者生活介護】千葉県八千代市大和田53", "url2": "https://www.kaigokensaku.mhlw.go.jp/12/index.php?action_kouhyou_detail_004_kani=true&JigyosyoCd=1292600093-00&ServiceCd=540&Type=search" }, "geometry": { "type": "Point", "coordinates": [ 140.100143647845243, 35.716766199526297 ] } },
{ "type": "Feature", "properties": { "内容": "特別養護老人ホーム　グリーンヒル八千代台【地域密着型介護老人福祉施設入所者生活介護】千葉県八千代市八千代台西7-2-69高齢者複合ケア施設グリーンヒル八千代台", "url2": "https://www.kaigokensaku.mhlw.go.jp/12/index.php?action_kouhyou_detail_004_kani=true&JigyosyoCd=1292600044-00&ServiceCd=540&Type=search" }, "geometry": { "type": "Point", "coordinates": [ 140.085217100000023, 35.7026066 ] } },
{ "type": "Feature", "properties": { "内容": "特別養護老人ホームつくし野荘【地域密着型介護老人福祉施設入所者生活介護】千葉県我孫子市久寺家３６１－１２", "url2": "https://www.kaigokensaku.mhlw.go.jp/12/index.php?action_kouhyou_detail_004_kani=true&JigyosyoCd=1292700117-00&ServiceCd=540&Type=search" }, "geometry": { "type": "Point", "coordinates": [ 140.01490130000002, 35.8834525 ] } },
{ "type": "Feature", "properties": { "内容": "特別養護老人ホームおはら【地域密着型介護老人福祉施設入所者生活介護】千葉県我孫子市岡発戸字一本松1500-2", "url2": "https://www.kaigokensaku.mhlw.go.jp/12/index.php?action_kouhyou_detail_004_kani=true&JigyosyoCd=1292700174-00&ServiceCd=540&Type=search" }, "geometry": { "type": "Point", "coordinates": [ 140.060291393254147, 35.860607990257193 ] } },
{ "type": "Feature", "properties": { "内容": "特別養護老人ホームめぐみの里（ユニット型）【地域密着型介護老人福祉施設入所者生活介護】千葉県鴨川市大幡1222-1", "url2": "https://www.kaigokensaku.mhlw.go.jp/12/index.php?action_kouhyou_detail_004_kani=true&JigyosyoCd=1292800065-00&ServiceCd=540&Type=search" }, "geometry": { "type": "Point", "coordinates": [ 139.988457199999971, 35.1363734 ] } },
{ "type": "Feature", "properties": { "内容": "特別養護老人ホーム　初富の里１【地域密着型介護老人福祉施設入所者生活介護】千葉県鎌ヶ谷市東初富一丁目４番３号", "url2": "https://www.kaigokensaku.mhlw.go.jp/12/index.php?action_kouhyou_detail_004_kani=true&JigyosyoCd=1292900055-00&ServiceCd=540&Type=search" }, "geometry": { "type": "Point", "coordinates": [ 140.012308699999949, 35.7730258 ] } },
{ "type": "Feature", "properties": { "内容": "やすらぎの里・尾車【地域密着型介護老人福祉施設入所者生活介護】千葉県君津市尾車619-1", "url2": "https://www.kaigokensaku.mhlw.go.jp/12/index.php?action_kouhyou_detail_004_kani=true&JigyosyoCd=1293000137-00&ServiceCd=540&Type=search" }, "geometry": { "type": "Point", "coordinates": [ 139.944163944305217, 35.281842413140339 ] } },
{ "type": "Feature", "properties": { "内容": "特別養護老人ホームつばさ【地域密着型介護老人福祉施設入所者生活介護】千葉県君津市貞元５１０", "url2": "https://www.kaigokensaku.mhlw.go.jp/12/index.php?action_kouhyou_detail_004_kani=true&JigyosyoCd=1293000046-00&ServiceCd=540&Type=search" }, "geometry": { "type": "Point", "coordinates": [ 139.9112821, 35.3121805 ] } },
{ "type": "Feature", "properties": { "内容": "特別養護老人ホームあんしん君津【地域密着型介護老人福祉施設入所者生活介護】千葉県君津市愛宕162-1", "url2": "https://www.kaigokensaku.mhlw.go.jp/12/index.php?action_kouhyou_detail_004_kani=true&JigyosyoCd=1293000087-00&ServiceCd=540&Type=search" }, "geometry": { "type": "Point", "coordinates": [ 140.056408432818671, 35.291804842693715 ] } },
{ "type": "Feature", "properties": { "内容": "サテライト特養やまぶき苑【地域密着型介護老人福祉施設入所者生活介護】千葉県富津市豊岡1434番地1", "url2": "https://www.kaigokensaku.mhlw.go.jp/12/index.php?action_kouhyou_detail_004_kani=true&JigyosyoCd=1293100036-00&ServiceCd=540&Type=search" }, "geometry": { "type": "Point", "coordinates": [ 139.955055899999934, 35.1871935 ] } },
{ "type": "Feature", "properties": { "内容": "特別養護老人ホーム　わとなーる浦安【地域密着型介護老人福祉施設入所者生活介護】千葉県浦安市富士見３丁目２３－１６特別養護老人ホーム　わとなーる浦安", "url2": "https://www.kaigokensaku.mhlw.go.jp/12/index.php?action_kouhyou_detail_004_kani=true&JigyosyoCd=1293200109-00&ServiceCd=540&Type=search" }, "geometry": { "type": "Point", "coordinates": [ 139.885980099999983, 35.645875600000011 ] } },
{ "type": "Feature", "properties": { "内容": "特別養護老人ホームしずか荘【地域密着型介護老人福祉施設入所者生活介護】千葉県浦安市当代島3丁目10番35号", "url2": "https://www.kaigokensaku.mhlw.go.jp/12/index.php?action_kouhyou_detail_004_kani=true&JigyosyoCd=1293200091-00&ServiceCd=540&Type=search" }, "geometry": { "type": "Point", "coordinates": [ 139.8923565, 35.6719011 ] } },
{ "type": "Feature", "properties": { "内容": "地域密着型特別養護老人ホーム清風荘うらやす【地域密着型介護老人福祉施設入所者生活介護】千葉県浦安市堀江６丁目８－３３", "url2": "https://www.kaigokensaku.mhlw.go.jp/12/index.php?action_kouhyou_detail_004_kani=true&JigyosyoCd=1293200075-00&ServiceCd=540&Type=search" }, "geometry": { "type": "Point", "coordinates": [ 139.897073399999954, 35.6529724 ] } },
{ "type": "Feature", "properties": { "内容": "地域密着型特別養護老人ホーム清風荘舞浜【地域密着型介護老人福祉施設入所者生活介護】千葉県浦安市富士見4丁目14番41号", "url2": "https://www.kaigokensaku.mhlw.go.jp/12/index.php?action_kouhyou_detail_004_kani=true&JigyosyoCd=1293200224-00&ServiceCd=540&Type=search" }, "geometry": { "type": "Point", "coordinates": [ 139.8890461, 35.6462822 ] } },
{ "type": "Feature", "properties": { "内容": "地域密着型特別養護老人ホーム赤かぶ園四街道【地域密着型介護老人福祉施設入所者生活介護】千葉県四街道市亀崎１２６０－１２", "url2": "https://www.kaigokensaku.mhlw.go.jp/12/index.php?action_kouhyou_detail_004_kani=true&JigyosyoCd=1293300024-00&ServiceCd=540&Type=search" }, "geometry": { "type": "Point", "coordinates": [ 140.19487950000007, 35.6964748 ] } },
{ "type": "Feature", "properties": { "内容": "地域密着型特別養護老人ホームリバーサイド【地域密着型介護老人福祉施設入所者生活介護】千葉県四街道市小名木101-9", "url2": "https://www.kaigokensaku.mhlw.go.jp/12/index.php?action_kouhyou_detail_004_kani=true&JigyosyoCd=1293300065-00&ServiceCd=540&Type=search" }, "geometry": { "type": "Point", "coordinates": [ 140.185558899999933, 35.6577216 ] } },
{ "type": "Feature", "properties": { "内容": "特別養護老人ホームみどりの丘【地域密着型介護老人福祉施設入所者生活介護】千葉県袖ケ浦市下泉1424番3", "url2": "https://www.kaigokensaku.mhlw.go.jp/12/index.php?action_kouhyou_detail_004_kani=true&JigyosyoCd=1293400030-00&ServiceCd=540&Type=search" }, "geometry": { "type": "Point", "coordinates": [ 140.0345165, 35.4210806 ] } },
{ "type": "Feature", "properties": { "内容": "特別養護老人ホームみどりの樹【地域密着型介護老人福祉施設入所者生活介護】千葉県袖ケ浦市下泉１４２６番地", "url2": "https://www.kaigokensaku.mhlw.go.jp/12/index.php?action_kouhyou_detail_004_kani=true&JigyosyoCd=1293400055-00&ServiceCd=540&Type=search" }, "geometry": { "type": "Point", "coordinates": [ 140.034534527682126, 35.420999377211594 ] } },
{ "type": "Feature", "properties": { "内容": "特別養護老人ホーム和心苑【地域密着型介護老人福祉施設入所者生活介護】千葉県袖ヶ浦市神納2840-1", "url2": "https://www.kaigokensaku.mhlw.go.jp/12/index.php?action_kouhyou_detail_004_kani=true&JigyosyoCd=1293400022-00&ServiceCd=540&Type=search" }, "geometry": { "type": "Point", "coordinates": [ 139.97856360000003, 35.4280945 ] } },
{ "type": "Feature", "properties": { "内容": "地域密着型特別養護老人ホームあかつき【地域密着型介護老人福祉施設入所者生活介護】千葉県袖ケ浦市神納2421-3", "url2": "https://www.kaigokensaku.mhlw.go.jp/12/index.php?action_kouhyou_detail_004_kani=true&JigyosyoCd=1293400121-00&ServiceCd=540&Type=search" }, "geometry": { "type": "Point", "coordinates": [ 139.9877726, 35.432786 ] } },
{ "type": "Feature", "properties": { "内容": "特別養護老人ホームアマポーラ【地域密着型介護老人福祉施設入所者生活介護】千葉県印西市内野1-7-1特別養護老人ホームアマポーラ", "url2": "https://www.kaigokensaku.mhlw.go.jp/12/index.php?action_kouhyou_detail_004_kani=true&JigyosyoCd=1293600167-00&ServiceCd=540&Type=search" }, "geometry": { "type": "Point", "coordinates": [ 140.127143100000012, 35.7968595 ] } },
{ "type": "Feature", "properties": { "内容": "特別養護老人ホームサクラビア【地域密着型介護老人福祉施設入所者生活介護】千葉県白井市神々廻１９２７番６", "url2": "https://www.kaigokensaku.mhlw.go.jp/12/index.php?action_kouhyou_detail_004_kani=true&JigyosyoCd=1294200017-00&ServiceCd=540&Type=search" }, "geometry": { "type": "Point", "coordinates": [ 140.082732399999941, 35.8057211 ] } },
{ "type": "Feature", "properties": { "内容": "小規模特別養護老人ホーム「夕凪の郷」【地域密着型介護老人福祉施設入所者生活介護】千葉県南房総市久枝257", "url2": "https://www.kaigokensaku.mhlw.go.jp/12/index.php?action_kouhyou_detail_004_kani=true&JigyosyoCd=1298800143-00&ServiceCd=540&Type=search" }, "geometry": { "type": "Point", "coordinates": [ 139.847461800000019, 35.0944532 ] } },
{ "type": "Feature", "properties": { "内容": "特別養護老人ホーム瑞穂園【地域密着型介護老人福祉施設入所者生活介護】千葉県匝瑳市八日市場ニ８１番地３", "url2": "https://www.kaigokensaku.mhlw.go.jp/12/index.php?action_kouhyou_detail_004_kani=true&JigyosyoCd=1298700046-00&ServiceCd=540&Type=search" }, "geometry": { "type": "Point", "coordinates": [ 140.560977099999945, 35.6902634 ] } },
{ "type": "Feature", "properties": { "内容": "地域密着型特別養護老人ホーム東総あやめ苑【地域密着型介護老人福祉施設入所者生活介護】千葉県香取市佐原イ１２５７番地１", "url2": "https://www.kaigokensaku.mhlw.go.jp/12/index.php?action_kouhyou_detail_004_kani=true&JigyosyoCd=1298900075-00&ServiceCd=540&Type=search" }, "geometry": { "type": "Point", "coordinates": [ 140.48636473240208, 35.882498475549355 ] } },
{ "type": "Feature", "properties": { "内容": "地域密着型特別養護老人ホーム水都苑【地域密着型介護老人福祉施設入所者生活介護】千葉県香取市小見川６７６番地２", "url2": "https://www.kaigokensaku.mhlw.go.jp/12/index.php?action_kouhyou_detail_004_kani=true&JigyosyoCd=1298900091-00&ServiceCd=540&Type=search" }, "geometry": { "type": "Point", "coordinates": [ 140.6152942, 35.8495302 ] } },
{ "type": "Feature", "properties": { "内容": "地域密着型特別養護老人ホーム　茶ノ木台くらぶ【地域密着型介護老人福祉施設入所者生活介護】千葉県いすみ市山田6033-3", "url2": "https://www.kaigokensaku.mhlw.go.jp/12/index.php?action_kouhyou_detail_004_kani=true&JigyosyoCd=1298600030-00&ServiceCd=540&Type=search" }, "geometry": { "type": "Point", "coordinates": [ 140.3156993, 35.2473729 ] } },
{ "type": "Feature", "properties": { "内容": "地域密着型特別養護老人ホーム杜の街【地域密着型介護老人福祉施設入所者生活介護】千葉県大網白里市南飯塚277－1", "url2": "https://www.kaigokensaku.mhlw.go.jp/12/index.php?action_kouhyou_detail_004_kani=true&JigyosyoCd=1295800047-00&ServiceCd=540&Type=search" }, "geometry": { "type": "Point", "coordinates": [ 140.344663699999955, 35.5076772 ] } },
{ "type": "Feature", "properties": { "内容": "特別養護老人ホーム竜神苑【地域密着型介護老人福祉施設入所者生活介護】千葉県香取郡東庄町笹川ろ３２４番地１特別養護老人ホーム竜神苑", "url2": "https://www.kaigokensaku.mhlw.go.jp/12/index.php?action_kouhyou_detail_004_kani=true&JigyosyoCd=1295300022-00&ServiceCd=540&Type=search" }, "geometry": { "type": "Point", "coordinates": [ 140.687554, 35.8309268 ] } },
{ "type": "Feature", "properties": { "内容": "特別養護老人ホーム第二松丘園【地域密着型介護老人福祉施設入所者生活介護】千葉県山武郡横芝光町宮川12103-1", "url2": "https://www.kaigokensaku.mhlw.go.jp/12/index.php?action_kouhyou_detail_004_kani=true&JigyosyoCd=1299100055-00&ServiceCd=540&Type=search" }, "geometry": { "type": "Point", "coordinates": [ 140.503985100000023, 35.6577655 ] } },
{ "type": "Feature", "properties": { "内容": "地域密着型特別養護老人ホームいこいの郷【地域密着型介護老人福祉施設入所者生活介護】千葉県長生郡長生村本郷字北道添5059-1", "url2": "https://www.kaigokensaku.mhlw.go.jp/12/index.php?action_kouhyou_detail_004_kani=true&JigyosyoCd=1296800012-00&ServiceCd=540&Type=search" }, "geometry": { "type": "Point", "coordinates": [ 140.344704670881356, 35.428353532544534 ] } },
{ "type": "Feature", "properties": { "内容": "特別養護老人ホームはなゆう【地域密着型介護老人福祉施設入所者生活介護】千葉県長生郡白子町古所4686", "url2": "https://www.kaigokensaku.mhlw.go.jp/12/index.php?action_kouhyou_detail_004_kani=true&JigyosyoCd=1296900028-00&ServiceCd=540&Type=search" }, "geometry": { "type": "Point", "coordinates": [ 140.385154599999964, 35.4520604 ] } }
]
}
