{
"type": "FeatureCollection",
"name": "geo_12_中等教育学校",
"crs": { "type": "name", "properties": { "name": "urn:ogc:def:crs:EPSG::6668" } },
"features": [
{ "type": "Feature", "properties": { "P29_001": "12106", "P29_002": "D212210000010", "P29_003": "16003", "P29_004": "千葉市立稲毛国際中等教育学校", "P29_005": "千葉県千葉市美浜区高浜3-1-1", "P29_006": "3", "P29_007": "0", "P29_008": "00", "P29_009": null }, "geometry": { "type": "Point", "coordinates": [ 140.068794013971342, 35.620439975527674 ] } },
{ "type": "Feature", "properties": { "P29_001": "12231", "P29_002": "D212310000018", "P29_003": "16003", "P29_004": "時任学園中等教育学校", "P29_005": "千葉県印西市岩戸3315", "P29_006": "4", "P29_007": "0", "P29_008": "00", "P29_009": null }, "geometry": { "type": "Point", "coordinates": [ 140.170885861110889, 35.776836066347101 ] } },
{ "type": "Feature", "properties": { "P29_001": "12441", "P29_002": "D212310000027", "P29_003": "16003", "P29_004": "三育学院中等教育学校", "P29_005": "千葉県夷隅郡大多喜町中野589", "P29_006": "4", "P29_007": "0", "P29_008": "00", "P29_009": null }, "geometry": { "type": "Point", "coordinates": [ 140.203894448975348, 35.250390571145232 ] } }
]
}
