{
"type": "FeatureCollection",
"name": "geo_12_小規模多機能型居宅介護",
"crs": { "type": "name", "properties": { "name": "urn:ogc:def:crs:OGC:1.3:CRS84" } },
"features": [
{ "type": "Feature", "properties": { "内容": "ななゆめの里サテライト　きららホーム【小規模多機能型居宅介護】千葉県千葉市中央区村田町687-3", "url2": "https://www.kaigokensaku.mhlw.go.jp/12/index.php?action_kouhyou_detail_004_kani=true&JigyosyoCd=1290100625-00&ServiceCd=730&Type=search" }, "geometry": { "type": "Point", "coordinates": [ 140.1269936, 35.5494911 ] } },
{ "type": "Feature", "properties": { "内容": "ななゆめの里サテライト　べあほーむ【小規模多機能型居宅介護】千葉市中央区大巌寺町124-1", "url2": "https://www.kaigokensaku.mhlw.go.jp/12/index.php?action_kouhyou_detail_004_kani=true&JigyosyoCd=1290100476-00&ServiceCd=730&Type=search" }, "geometry": { "type": "Point", "coordinates": [ 140.1451987, 35.5726808 ] } },
{ "type": "Feature", "properties": { "内容": "小規模多機能型居宅介護施設「木もれ陽の郷」【小規模多機能型居宅介護】千葉県千葉市中央区花輪町１００－１", "url2": "https://www.kaigokensaku.mhlw.go.jp/12/index.php?action_kouhyou_detail_004_kani=true&JigyosyoCd=1290100260-00&ServiceCd=730&Type=search" }, "geometry": { "type": "Point", "coordinates": [ 140.159777100000042, 35.5762574 ] } },
{ "type": "Feature", "properties": { "内容": "小規模多機能ホーム　ひなたぼっこ・椿森【小規模多機能型居宅介護】椿森2-16-15", "url2": "https://www.kaigokensaku.mhlw.go.jp/12/index.php?action_kouhyou_detail_004_kani=true&JigyosyoCd=1290100401-00&ServiceCd=730&Type=search" }, "geometry": { "type": "Point", "coordinates": [ 140.121148013491819, 35.620158317997927 ] } },
{ "type": "Feature", "properties": { "内容": "小規模多機能型居宅介護「ほとりの家」【小規模多機能型居宅介護】千葉県千葉市中央区星久喜町３６番特別養護老人ホーム恵光園シャイニー中央", "url2": "https://www.kaigokensaku.mhlw.go.jp/12/index.php?action_kouhyou_detail_004_kani=true&JigyosyoCd=1290100435-00&ServiceCd=730&Type=search" }, "geometry": { "type": "Point", "coordinates": [ 140.155607125675459, 35.599652035780203 ] } },
{ "type": "Feature", "properties": { "内容": "小規模多機能アットホームケア【小規模多機能型居宅介護】千葉県千葉市中央区仁戸名町721-13", "url2": "https://www.kaigokensaku.mhlw.go.jp/12/index.php?action_kouhyou_detail_004_kani=true&JigyosyoCd=1290100302-00&ServiceCd=730&Type=search" }, "geometry": { "type": "Point", "coordinates": [ 140.158052600000019, 35.587548 ] } },
{ "type": "Feature", "properties": { "内容": "小規模多機能ホーム２ＮｄＨｏｕｓｅ【小規模多機能型居宅介護】千葉県千葉市花見川区こてはし台5-8-5", "url2": "https://www.kaigokensaku.mhlw.go.jp/12/index.php?action_kouhyou_detail_004_kani=true&JigyosyoCd=1290200227-00&ServiceCd=730&Type=search" }, "geometry": { "type": "Point", "coordinates": [ 140.120300714944818, 35.689749235581765 ] } },
{ "type": "Feature", "properties": { "内容": "小規模多機能ホームゆかりの里【小規模多機能型居宅介護】千葉県千葉市花見川区千種町３８０番６", "url2": "https://www.kaigokensaku.mhlw.go.jp/12/index.php?action_kouhyou_detail_004_kani=true&JigyosyoCd=1290200201-00&ServiceCd=730&Type=search" }, "geometry": { "type": "Point", "coordinates": [ 140.120536499999957, 35.6797872 ] } },
{ "type": "Feature", "properties": { "内容": "小規模多機能がってん！となり組【小規模多機能型居宅介護】千葉県千葉市花見川区花園２－９－９", "url2": "https://www.kaigokensaku.mhlw.go.jp/12/index.php?action_kouhyou_detail_004_kani=true&JigyosyoCd=1290200300-00&ServiceCd=730&Type=search" }, "geometry": { "type": "Point", "coordinates": [ 140.070969800000057, 35.6530978 ] } },
{ "type": "Feature", "properties": { "内容": "小規模多機能型居宅介護事業所　たおやか【小規模多機能型居宅介護】横戸町899-1", "url2": "https://www.kaigokensaku.mhlw.go.jp/12/index.php?action_kouhyou_detail_004_kani=true&JigyosyoCd=1290200144-00&ServiceCd=730&Type=search" }, "geometry": { "type": "Point", "coordinates": [ 140.120810799999987, 35.693154 ] } },
{ "type": "Feature", "properties": { "内容": "うめの香【小規模多機能型居宅介護】幕張町３丁目２２７３番地うめの香", "url2": "https://www.kaigokensaku.mhlw.go.jp/12/index.php?action_kouhyou_detail_004_kani=true&JigyosyoCd=1290200177-00&ServiceCd=730&Type=search" }, "geometry": { "type": "Point", "coordinates": [ 140.056545599999936, 35.6724566 ] } },
{ "type": "Feature", "properties": { "内容": "たちばな倶楽部【小規模多機能型居宅介護】千葉県千葉市稲毛区宮野木町1025-11", "url2": "https://www.kaigokensaku.mhlw.go.jp/12/index.php?action_kouhyou_detail_004_kani=true&JigyosyoCd=1290300159-00&ServiceCd=730&Type=search" }, "geometry": { "type": "Point", "coordinates": [ 140.100528100000048, 35.6520429 ] } },
{ "type": "Feature", "properties": { "内容": "せらび千葉稲毛【小規模多機能型居宅介護】千葉県千葉市稲毛区宮野木町2125-7せらび千葉稲毛", "url2": "https://www.kaigokensaku.mhlw.go.jp/12/index.php?action_kouhyou_detail_004_kani=true&JigyosyoCd=1290300050-00&ServiceCd=730&Type=search" }, "geometry": { "type": "Point", "coordinates": [ 140.1107686, 35.6630001 ] } },
{ "type": "Feature", "properties": { "内容": "生活クラブ風の村小規模多機能ハウス作草部【小規模多機能型居宅介護】千葉県千葉市稲毛区作草部1-15-17", "url2": "https://www.kaigokensaku.mhlw.go.jp/12/index.php?action_kouhyou_detail_004_kani=true&JigyosyoCd=1290300217-00&ServiceCd=730&Type=search" }, "geometry": { "type": "Point", "coordinates": [ 140.115196800000035, 35.6279418 ] } },
{ "type": "Feature", "properties": { "内容": "小規模多機能　ケアセンターひだまりの家【小規模多機能型居宅介護】千葉県千葉市若葉区東寺山町1067-1", "url2": "https://www.kaigokensaku.mhlw.go.jp/12/index.php?action_kouhyou_detail_004_kani=true&JigyosyoCd=1290400322-00&ServiceCd=730&Type=search" }, "geometry": { "type": "Point", "coordinates": [ 140.1387162, 35.6347551 ] } },
{ "type": "Feature", "properties": { "内容": "小規模多機能　ケアセンターひだまりの家東寺山【小規模多機能型居宅介護】千葉市若葉区東寺山町1067-1", "url2": "https://www.kaigokensaku.mhlw.go.jp/12/index.php?action_kouhyou_detail_004_kani=true&JigyosyoCd=1290400405-00&ServiceCd=730&Type=search" }, "geometry": { "type": "Point", "coordinates": [ 140.1387412, 35.6347618 ] } },
{ "type": "Feature", "properties": { "内容": "小規模多機能つどい桜木【小規模多機能型居宅介護】千葉県千葉市若葉区桜木8-13-11", "url2": "https://www.kaigokensaku.mhlw.go.jp/12/index.php?action_kouhyou_detail_004_kani=true&JigyosyoCd=1290400256-00&ServiceCd=730&Type=search" }, "geometry": { "type": "Point", "coordinates": [ 140.1619326, 35.6286749 ] } },
{ "type": "Feature", "properties": { "内容": "ミモザおゆみ野【小規模多機能型居宅介護】千葉県千葉市緑区おゆみ野中央５－３－６", "url2": "https://www.kaigokensaku.mhlw.go.jp/12/index.php?action_kouhyou_detail_004_kani=true&JigyosyoCd=1290500055-00&ServiceCd=730&Type=search" }, "geometry": { "type": "Point", "coordinates": [ 140.170827300000042, 35.558510100000014 ] } },
{ "type": "Feature", "properties": { "内容": "ななゆめの里【小規模多機能型居宅介護】千葉県千葉市緑区古市場町４７４－３３７", "url2": "https://www.kaigokensaku.mhlw.go.jp/12/index.php?action_kouhyou_detail_004_kani=true&JigyosyoCd=1290500071-00&ServiceCd=730&Type=search" }, "geometry": { "type": "Point", "coordinates": [ 140.146768793987235, 35.550249265223215 ] } },
{ "type": "Feature", "properties": { "内容": "小規模多機能ホームかえで【小規模多機能型居宅介護】千葉県千葉市緑区高田町1084番地2小規模多機能ホームかえで", "url2": "https://www.kaigokensaku.mhlw.go.jp/12/index.php?action_kouhyou_detail_004_kani=true&JigyosyoCd=1290500089-00&ServiceCd=730&Type=search" }, "geometry": { "type": "Point", "coordinates": [ 140.222969, 35.5504465 ] } },
{ "type": "Feature", "properties": { "内容": "小規模多機能型居宅介護みどり【小規模多機能型居宅介護】千葉県千葉市緑区平山町2008-1", "url2": "https://www.kaigokensaku.mhlw.go.jp/12/index.php?action_kouhyou_detail_004_kani=true&JigyosyoCd=1290500097-00&ServiceCd=730&Type=search" }, "geometry": { "type": "Point", "coordinates": [ 140.181698800000049, 35.5732847 ] } },
{ "type": "Feature", "properties": { "内容": "小規模多機能ホーム　いきいきの家稲毛海岸【小規模多機能型居宅介護】千葉県千葉市美浜区磯辺1-50-2", "url2": "https://www.kaigokensaku.mhlw.go.jp/12/index.php?action_kouhyou_detail_004_kani=true&JigyosyoCd=1290600046-00&ServiceCd=730&Type=search" }, "geometry": { "type": "Point", "coordinates": [ 140.062734500000033, 35.6274681 ] } },
{ "type": "Feature", "properties": { "内容": "しょうじゅ小規模多機能居宅介護事業所【小規模多機能型居宅介護】千葉県千葉市美浜区幸町２－１２－２しょうじゅレジデンス", "url2": "https://www.kaigokensaku.mhlw.go.jp/12/index.php?action_kouhyou_detail_004_kani=true&JigyosyoCd=1290600095-00&ServiceCd=730&Type=search" }, "geometry": { "type": "Point", "coordinates": [ 140.092656353442408, 35.621165213200541 ] } },
{ "type": "Feature", "properties": { "内容": "小規模多機能型居宅介護事業所　明生苑【小規模多機能型居宅介護】千葉県千葉市美浜区高浜１－１１－４明生苑", "url2": "https://www.kaigokensaku.mhlw.go.jp/12/index.php?action_kouhyou_detail_004_kani=true&JigyosyoCd=1290600020-00&ServiceCd=730&Type=search" }, "geometry": { "type": "Point", "coordinates": [ 140.07499391904912, 35.621565945739746 ] } },
{ "type": "Feature", "properties": { "内容": "小規模多機能ホーム銀河【小規模多機能型居宅介護】千葉県銚子市黒生町７２４９－３", "url2": "https://www.kaigokensaku.mhlw.go.jp/12/index.php?action_kouhyou_detail_004_kani=true&JigyosyoCd=1290700044-00&ServiceCd=730&Type=search" }, "geometry": { "type": "Point", "coordinates": [ 140.862837500000069, 35.7332659 ] } },
{ "type": "Feature", "properties": { "内容": "小規模多機能ホーム銀河橋本【小規模多機能型居宅介護】千葉県銚子市橋本町1978-1", "url2": "https://www.kaigokensaku.mhlw.go.jp/12/index.php?action_kouhyou_detail_004_kani=true&JigyosyoCd=1290700101-00&ServiceCd=730&Type=search" }, "geometry": { "type": "Point", "coordinates": [ 140.847538699999973, 35.7350069 ] } },
{ "type": "Feature", "properties": { "内容": "小規模多機能ホームかすが苑【小規模多機能型居宅介護】千葉県銚子市小浜町2642-1", "url2": "https://www.kaigokensaku.mhlw.go.jp/12/index.php?action_kouhyou_detail_004_kani=true&JigyosyoCd=1290700051-00&ServiceCd=730&Type=search" }, "geometry": { "type": "Point", "coordinates": [ 140.772687, 35.722656 ] } },
{ "type": "Feature", "properties": { "内容": "小規模多機能ホーム双葉【小規模多機能型居宅介護】千葉県銚子市松本町2丁目810-11", "url2": "https://www.kaigokensaku.mhlw.go.jp/12/index.php?action_kouhyou_detail_004_kani=true&JigyosyoCd=1290700028-00&ServiceCd=730&Type=search" }, "geometry": { "type": "Point", "coordinates": [ 140.8165166, 35.7308119 ] } },
{ "type": "Feature", "properties": { "内容": "小規模多機能ホーム　やわら余山町【小規模多機能型居宅介護】千葉県銚子市余山町193", "url2": "https://www.kaigokensaku.mhlw.go.jp/12/index.php?action_kouhyou_detail_004_kani=true&JigyosyoCd=1290700226-00&ServiceCd=730&Type=search" }, "geometry": { "type": "Point", "coordinates": [ 140.776738599999987, 35.7509878 ] } },
{ "type": "Feature", "properties": { "内容": "小規模多機能ホームやわら【小規模多機能型居宅介護】千葉県銚子市後飯町3-18", "url2": "https://www.kaigokensaku.mhlw.go.jp/12/index.php?action_kouhyou_detail_004_kani=true&JigyosyoCd=1290700143-00&ServiceCd=730&Type=search" }, "geometry": { "type": "Point", "coordinates": [ 140.843735290212976, 35.732283422181574 ] } },
{ "type": "Feature", "properties": { "内容": "小規模多機能ホームいきいきの家市川【小規模多機能型居宅介護】千葉県市川市原木2-16-17", "url2": "https://www.kaigokensaku.mhlw.go.jp/12/index.php?action_kouhyou_detail_004_kani=true&JigyosyoCd=1290800885-00&ServiceCd=730&Type=search" }, "geometry": { "type": "Point", "coordinates": [ 139.9448614, 35.6986885 ] } },
{ "type": "Feature", "properties": { "内容": "ヒューマンライフケア市川真間の宿【小規模多機能型居宅介護】千葉県市川市真間5－15－13", "url2": "https://www.kaigokensaku.mhlw.go.jp/12/index.php?action_kouhyou_detail_004_kani=true&JigyosyoCd=1290800604-00&ServiceCd=730&Type=search" }, "geometry": { "type": "Point", "coordinates": [ 139.9105439, 35.7434437 ] } },
{ "type": "Feature", "properties": { "内容": "小規模多機能きらら南行徳【小規模多機能型居宅介護】千葉県市川市南行徳3-18-21１階", "url2": "https://www.kaigokensaku.mhlw.go.jp/12/index.php?action_kouhyou_detail_004_kani=true&JigyosyoCd=1290800091-00&ServiceCd=730&Type=search" }, "geometry": { "type": "Point", "coordinates": [ 139.900022600000057, 35.6704568 ] } },
{ "type": "Feature", "properties": { "内容": "愛・コミュニティホーム市川国府台【小規模多機能型居宅介護】千葉県市川市国府台5-22-2", "url2": "https://www.kaigokensaku.mhlw.go.jp/12/index.php?action_kouhyou_detail_004_kani=true&JigyosyoCd=1290800182-00&ServiceCd=730&Type=search" }, "geometry": { "type": "Point", "coordinates": [ 139.904773992065429, 35.750468581710408 ] } },
{ "type": "Feature", "properties": { "内容": "すがの親愛の家【小規模多機能型居宅介護】千葉県市川市菅野5-2-12", "url2": "https://www.kaigokensaku.mhlw.go.jp/12/index.php?action_kouhyou_detail_004_kani=true&JigyosyoCd=1290800257-00&ServiceCd=730&Type=search" }, "geometry": { "type": "Point", "coordinates": [ 139.925644309787003, 35.733628318724058 ] } },
{ "type": "Feature", "properties": { "内容": "愛・コミュニティホーム市川南【小規模多機能型居宅介護】千葉県市川市市川南4-7-22", "url2": "https://www.kaigokensaku.mhlw.go.jp/12/index.php?action_kouhyou_detail_004_kani=true&JigyosyoCd=1290800158-00&ServiceCd=730&Type=search" }, "geometry": { "type": "Point", "coordinates": [ 139.9016924, 35.7268356 ] } },
{ "type": "Feature", "properties": { "内容": "コンフォートエルバ曽谷【小規模多機能型居宅介護】千葉県市川市曽谷5丁目2番12号コンフォートフィオーレ曽谷・コンフォートエルバ曽谷", "url2": "https://www.kaigokensaku.mhlw.go.jp/12/index.php?action_kouhyou_detail_004_kani=true&JigyosyoCd=1290800687-00&ServiceCd=730&Type=search" }, "geometry": { "type": "Point", "coordinates": [ 139.929401500000012, 35.7450446 ] } },
{ "type": "Feature", "properties": { "内容": "親愛の家【小規模多機能型居宅介護】千葉県市川市曽谷4-4-10", "url2": "https://www.kaigokensaku.mhlw.go.jp/12/index.php?action_kouhyou_detail_004_kani=true&JigyosyoCd=1290800133-00&ServiceCd=730&Type=search" }, "geometry": { "type": "Point", "coordinates": [ 139.930056499999978, 35.7464381 ] } },
{ "type": "Feature", "properties": { "内容": "パナソニック　エイジフリーケアセンター船橋夏見・小規模多機能【小規模多機能型居宅介護】千葉県船橋市夏見3丁目31番40号パナソニックエイジフリーハウス船橋夏見", "url2": "https://www.kaigokensaku.mhlw.go.jp/12/index.php?action_kouhyou_detail_004_kani=true&JigyosyoCd=1290900768-00&ServiceCd=730&Type=search" }, "geometry": { "type": "Point", "coordinates": [ 139.988469799999962, 35.716953 ] } },
{ "type": "Feature", "properties": { "内容": "けあふるタウン日香里【小規模多機能型居宅介護】千葉県船橋市みやぎ台1-13-1", "url2": "https://www.kaigokensaku.mhlw.go.jp/12/index.php?action_kouhyou_detail_004_kani=true&JigyosyoCd=1290900032-00&ServiceCd=730&Type=search" }, "geometry": { "type": "Point", "coordinates": [ 140.0348292, 35.7573806 ] } },
{ "type": "Feature", "properties": { "内容": "小規模多機能居宅介護ソレイユ三山【小規模多機能型居宅介護】千葉県船橋市三山5－42－25", "url2": "https://www.kaigokensaku.mhlw.go.jp/12/index.php?action_kouhyou_detail_004_kani=true&JigyosyoCd=1290901444-00&ServiceCd=730&Type=search" }, "geometry": { "type": "Point", "coordinates": [ 140.0551098, 35.7036588 ] } },
{ "type": "Feature", "properties": { "内容": "小規模多機能居宅介護ソレイユ高根台【小規模多機能型居宅介護】千葉県船橋市高根台3-10-5", "url2": "https://www.kaigokensaku.mhlw.go.jp/12/index.php?action_kouhyou_detail_004_kani=true&JigyosyoCd=1290900842-00&ServiceCd=730&Type=search" }, "geometry": { "type": "Point", "coordinates": [ 140.034648299999986, 35.7318412 ] } },
{ "type": "Feature", "properties": { "内容": "小規模多機能型居宅介護　鶴亀【小規模多機能型居宅介護】千葉県船橋市丸山5-37-7", "url2": "https://www.kaigokensaku.mhlw.go.jp/12/index.php?action_kouhyou_detail_004_kani=true&JigyosyoCd=1290900610-00&ServiceCd=730&Type=search" }, "geometry": { "type": "Point", "coordinates": [ 139.995500828836043, 35.743547811020449 ] } },
{ "type": "Feature", "properties": { "内容": "セントケア夏見【小規模多機能型居宅介護】千葉県船橋市夏見5丁目6番9号", "url2": "https://www.kaigokensaku.mhlw.go.jp/12/index.php?action_kouhyou_detail_004_kani=true&JigyosyoCd=1290900321-00&ServiceCd=730&Type=search" }, "geometry": { "type": "Point", "coordinates": [ 139.994688799999949, 35.70989 ] } },
{ "type": "Feature", "properties": { "内容": "生活クラブ風の村小規模多機能ハウス高根台【小規模多機能型居宅介護】千葉県船橋市高根台２－２－１７1F", "url2": "https://www.kaigokensaku.mhlw.go.jp/12/index.php?action_kouhyou_detail_004_kani=true&JigyosyoCd=1290900214-00&ServiceCd=730&Type=search" }, "geometry": { "type": "Point", "coordinates": [ 140.031656099999964, 35.7345769 ] } },
{ "type": "Feature", "properties": { "内容": "ヒューマンライフケア船橋の宿【小規模多機能型居宅介護】千葉県船橋市夏見台5丁目12－15", "url2": "https://www.kaigokensaku.mhlw.go.jp/12/index.php?action_kouhyou_detail_004_kani=true&JigyosyoCd=1290901196-00&ServiceCd=730&Type=search" }, "geometry": { "type": "Point", "coordinates": [ 139.99318489999996, 35.7262081 ] } },
{ "type": "Feature", "properties": { "内容": "小規模多機能ステーション　ガーデンコート西船橋【小規模多機能型居宅介護】千葉県船橋市西船2-34-20", "url2": "https://www.kaigokensaku.mhlw.go.jp/12/index.php?action_kouhyou_detail_004_kani=true&JigyosyoCd=1290900065-00&ServiceCd=730&Type=search" }, "geometry": { "type": "Point", "coordinates": [ 139.967579399999977, 35.7159952 ] } },
{ "type": "Feature", "properties": { "内容": "小規模多機能ステーション　ガーデンコート船橋三山【小規模多機能型居宅介護】千葉県船橋市三山5-57-12", "url2": "https://www.kaigokensaku.mhlw.go.jp/12/index.php?action_kouhyou_detail_004_kani=true&JigyosyoCd=1290900271-00&ServiceCd=730&Type=search" }, "geometry": { "type": "Point", "coordinates": [ 140.057075, 35.7056304 ] } },
{ "type": "Feature", "properties": { "内容": "コミュニティケアこまくさ【小規模多機能型居宅介護】千葉県館山市佐野３５８", "url2": "https://www.kaigokensaku.mhlw.go.jp/12/index.php?action_kouhyou_detail_004_kani=true&JigyosyoCd=1291000014-00&ServiceCd=730&Type=search" }, "geometry": { "type": "Point", "coordinates": [ 139.8366638, 34.9356516 ] } },
{ "type": "Feature", "properties": { "内容": "小規模多機能型居宅介護ハートケア八幡台館【小規模多機能型居宅介護】千葉県木更津市八幡台４丁目６番１６号", "url2": "https://www.kaigokensaku.mhlw.go.jp/12/index.php?action_kouhyou_detail_004_kani=true&JigyosyoCd=1291100251-00&ServiceCd=730&Type=search" }, "geometry": { "type": "Point", "coordinates": [ 139.947904599999987, 35.3392303 ] } },
{ "type": "Feature", "properties": { "内容": "セントケアいわね【小規模多機能型居宅介護】千葉県木更津市本郷1-5-26", "url2": "https://www.kaigokensaku.mhlw.go.jp/12/index.php?action_kouhyou_detail_004_kani=true&JigyosyoCd=1291100012-00&ServiceCd=730&Type=search" }, "geometry": { "type": "Point", "coordinates": [ 139.936092700000017, 35.4101999 ] } },
{ "type": "Feature", "properties": { "内容": "セントケア木更津おおくぼ【小規模多機能型居宅介護】千葉県木更津市大久保6-12-1", "url2": "https://www.kaigokensaku.mhlw.go.jp/12/index.php?action_kouhyou_detail_004_kani=true&JigyosyoCd=1291100152-00&ServiceCd=730&Type=search" }, "geometry": { "type": "Point", "coordinates": [ 139.938365800000014, 35.3409501 ] } },
{ "type": "Feature", "properties": { "内容": "小規模多機能ホーム馬来田の太陽【小規模多機能型居宅介護】千葉県木更津市真里谷883-1", "url2": "https://www.kaigokensaku.mhlw.go.jp/12/index.php?action_kouhyou_detail_004_kani=true&JigyosyoCd=1291100020-00&ServiceCd=730&Type=search" }, "geometry": { "type": "Point", "coordinates": [ 140.072873, 35.3685299 ] } },
{ "type": "Feature", "properties": { "内容": "せらび小金原公園【小規模多機能型居宅介護】千葉県松戸市小金原4-38-6", "url2": "https://www.kaigokensaku.mhlw.go.jp/12/index.php?action_kouhyou_detail_004_kani=true&JigyosyoCd=1291200713-00&ServiceCd=730&Type=search" }, "geometry": { "type": "Point", "coordinates": [ 139.942577300000011, 35.820527299999981 ] } },
{ "type": "Feature", "properties": { "内容": "胡録台ケアガーデンワカバ【小規模多機能型居宅介護】千葉県松戸市胡録台284-13", "url2": "https://www.kaigokensaku.mhlw.go.jp/12/index.php?action_kouhyou_detail_004_kani=true&JigyosyoCd=1291200051-00&ServiceCd=730&Type=search" }, "geometry": { "type": "Point", "coordinates": [ 139.911614900000018, 35.7813276 ] } },
{ "type": "Feature", "properties": { "内容": "わいわい豊夢栄町【小規模多機能型居宅介護】千葉県松戸市西栄町1丁目851-4", "url2": "https://www.kaigokensaku.mhlw.go.jp/12/index.php?action_kouhyou_detail_004_kani=true&JigyosyoCd=1291200374-00&ServiceCd=730&Type=search" }, "geometry": { "type": "Point", "coordinates": [ 139.899745199999984, 35.808688199999985 ] } },
{ "type": "Feature", "properties": { "内容": "小規模多機能リバーサイド・ヴィラ【小規模多機能型居宅介護】千葉県松戸市根木内149番地", "url2": "https://www.kaigokensaku.mhlw.go.jp/12/index.php?action_kouhyou_detail_004_kani=true&JigyosyoCd=1291200275-00&ServiceCd=730&Type=search" }, "geometry": { "type": "Point", "coordinates": [ 139.944504599999959, 35.8302953 ] } },
{ "type": "Feature", "properties": { "内容": "輝楽の家六実【小規模多機能型居宅介護】千葉県松戸市六実3丁目20-12", "url2": "https://www.kaigokensaku.mhlw.go.jp/12/index.php?action_kouhyou_detail_004_kani=true&JigyosyoCd=1291200143-00&ServiceCd=730&Type=search" }, "geometry": { "type": "Point", "coordinates": [ 139.997592700000041, 35.7926596 ] } },
{ "type": "Feature", "properties": { "内容": "小規模多機能型居宅介護サンパティオ【小規模多機能型居宅介護】千葉県松戸市旭町2丁目271番地の2サンパティオ", "url2": "https://www.kaigokensaku.mhlw.go.jp/12/index.php?action_kouhyou_detail_004_kani=true&JigyosyoCd=1291200507-00&ServiceCd=730&Type=search" }, "geometry": { "type": "Point", "coordinates": [ 139.899815513491802, 35.818060150312938 ] } },
{ "type": "Feature", "properties": { "内容": "小規模多機能ステーションガーデンコート常盤平【小規模多機能型居宅介護】千葉県松戸市常盤平1-13-7", "url2": "https://www.kaigokensaku.mhlw.go.jp/12/index.php?action_kouhyou_detail_004_kani=true&JigyosyoCd=1291200044-00&ServiceCd=730&Type=search" }, "geometry": { "type": "Point", "coordinates": [ 139.9489251, 35.8043293 ] } },
{ "type": "Feature", "properties": { "内容": "エスケアライフ松戸【小規模多機能型居宅介護】千葉県松戸市馬橋2844番", "url2": "https://www.kaigokensaku.mhlw.go.jp/12/index.php?action_kouhyou_detail_004_kani=true&JigyosyoCd=1291200333-00&ServiceCd=730&Type=search" }, "geometry": { "type": "Point", "coordinates": [ 139.922318099999984, 35.812199 ] } },
{ "type": "Feature", "properties": { "内容": "ウェルズ・クレア・リビング【小規模多機能型居宅介護】千葉県松戸市上本郷2551-1", "url2": "https://www.kaigokensaku.mhlw.go.jp/12/index.php?action_kouhyou_detail_004_kani=true&JigyosyoCd=1291200762-00&ServiceCd=730&Type=search" }, "geometry": { "type": "Point", "coordinates": [ 139.9201357441803, 35.792086218485878 ] } },
{ "type": "Feature", "properties": { "内容": "パナソニックエイジフリーケアセンター松戸北小金・小規模多機能【小規模多機能型居宅介護】千葉県松戸市中金杉1丁目75番地", "url2": "https://www.kaigokensaku.mhlw.go.jp/12/index.php?action_kouhyou_detail_004_kani=true&JigyosyoCd=1291200606-00&ServiceCd=730&Type=search" }, "geometry": { "type": "Point", "coordinates": [ 139.923019899999986, 35.8420508 ] } },
{ "type": "Feature", "properties": { "内容": "デイハウスけやきの杜【小規模多機能型居宅介護】千葉県野田市山崎1447-1", "url2": "https://www.kaigokensaku.mhlw.go.jp/12/index.php?action_kouhyou_detail_004_kani=true&JigyosyoCd=1291300091-00&ServiceCd=730&Type=search" }, "geometry": { "type": "Point", "coordinates": [ 139.88012, 35.9311422 ] } },
{ "type": "Feature", "properties": { "内容": "小規模多機能型居宅介護時の村19号館【小規模多機能型居宅介護】千葉県茂原市千町2231-9", "url2": "https://www.kaigokensaku.mhlw.go.jp/12/index.php?action_kouhyou_detail_004_kani=true&JigyosyoCd=1291500070-00&ServiceCd=730&Type=search" }, "geometry": { "type": "Point", "coordinates": [ 140.338769700719183, 35.447506962170962 ] } },
{ "type": "Feature", "properties": { "内容": "小規模多機能型居宅介護時の村20号館【小規模多機能型居宅介護】千葉県茂原市三ヶ谷1301番地2", "url2": "https://www.kaigokensaku.mhlw.go.jp/12/index.php?action_kouhyou_detail_004_kani=true&JigyosyoCd=1291500120-00&ServiceCd=730&Type=search" }, "geometry": { "type": "Point", "coordinates": [ 140.309346, 35.397427 ] } },
{ "type": "Feature", "properties": { "内容": "小規模多機能グレイト【小規模多機能型居宅介護】千葉県茂原市大芝117-5小規模多機能グレイト", "url2": "https://www.kaigokensaku.mhlw.go.jp/12/index.php?action_kouhyou_detail_004_kani=true&JigyosyoCd=1271502807-00&ServiceCd=730&Type=search" }, "geometry": { "type": "Point", "coordinates": [ 140.3203679, 35.4094544 ] } },
{ "type": "Feature", "properties": { "内容": "ケアセンターとこしえ美郷台【小規模多機能型居宅介護】千葉県成田市美郷台3‐8‐1", "url2": "https://www.kaigokensaku.mhlw.go.jp/12/index.php?action_kouhyou_detail_004_kani=true&JigyosyoCd=1291600219-00&ServiceCd=730&Type=search" }, "geometry": { "type": "Point", "coordinates": [ 140.310368372220722, 35.793687440937525 ] } },
{ "type": "Feature", "properties": { "内容": "あい愛クラブ【小規模多機能型居宅介護】千葉県成田市本三里塚１５１", "url2": "https://www.kaigokensaku.mhlw.go.jp/12/index.php?action_kouhyou_detail_004_kani=true&JigyosyoCd=1291600078-00&ServiceCd=730&Type=search" }, "geometry": { "type": "Point", "coordinates": [ 140.3722153, 35.7529309 ] } },
{ "type": "Feature", "properties": { "内容": "生活クラブ風の村小規模多機能ハウスなりた【小規模多機能型居宅介護】千葉県成田市大竹370-5", "url2": "https://www.kaigokensaku.mhlw.go.jp/12/index.php?action_kouhyou_detail_004_kani=true&JigyosyoCd=1291600318-00&ServiceCd=730&Type=search" }, "geometry": { "type": "Point", "coordinates": [ 140.278266699999989, 35.8091601 ] } },
{ "type": "Feature", "properties": { "内容": "さわやかリビング成田【小規模多機能型居宅介護】千葉県成田市本町590", "url2": "https://www.kaigokensaku.mhlw.go.jp/12/index.php?action_kouhyou_detail_004_kani=true&JigyosyoCd=1291600037-00&ServiceCd=730&Type=search" }, "geometry": { "type": "Point", "coordinates": [ 140.3180906, 35.7826487 ] } },
{ "type": "Feature", "properties": { "内容": "まんざきの家玲光苑【小規模多機能型居宅介護】千葉県成田市松崎２５９", "url2": "https://www.kaigokensaku.mhlw.go.jp/12/index.php?action_kouhyou_detail_004_kani=true&JigyosyoCd=1291600060-00&ServiceCd=730&Type=search" }, "geometry": { "type": "Point", "coordinates": [ 140.29029689999993, 35.8067059 ] } },
{ "type": "Feature", "properties": { "内容": "セントケア公津の杜【小規模多機能型居宅介護】千葉県成田市公津の杜2-31-3", "url2": "https://www.kaigokensaku.mhlw.go.jp/12/index.php?action_kouhyou_detail_004_kani=true&JigyosyoCd=1291600136-00&ServiceCd=730&Type=search" }, "geometry": { "type": "Point", "coordinates": [ 140.3003642, 35.7586861 ] } },
{ "type": "Feature", "properties": { "内容": "千年希望の杜　佐倉【小規模多機能型居宅介護】千葉県佐倉市下志津214番地１", "url2": "https://www.kaigokensaku.mhlw.go.jp/12/index.php?action_kouhyou_detail_004_kani=true&JigyosyoCd=1291700191-00&ServiceCd=730&Type=search" }, "geometry": { "type": "Point", "coordinates": [ 140.1652392, 35.7138288 ] } },
{ "type": "Feature", "properties": { "内容": "ういず・ユー志津ホーム【小規模多機能型居宅介護】千葉県佐倉市西志津4-6-7", "url2": "https://www.kaigokensaku.mhlw.go.jp/12/index.php?action_kouhyou_detail_004_kani=true&JigyosyoCd=1291700258-00&ServiceCd=730&Type=search" }, "geometry": { "type": "Point", "coordinates": [ 140.1392282, 35.7118095 ] } },
{ "type": "Feature", "properties": { "内容": "五根の家・小規模多機能ホーム【小規模多機能型居宅介護】千葉県東金市台方1034番地1", "url2": "https://www.kaigokensaku.mhlw.go.jp/12/index.php?action_kouhyou_detail_004_kani=true&JigyosyoCd=1291800140-00&ServiceCd=730&Type=search" }, "geometry": { "type": "Point", "coordinates": [ 140.3492923, 35.5493418 ] } },
{ "type": "Feature", "properties": { "内容": "東金なごみ館【小規模多機能型居宅介護】千葉県東金市田間757-1", "url2": "https://www.kaigokensaku.mhlw.go.jp/12/index.php?action_kouhyou_detail_004_kani=true&JigyosyoCd=1291800017-00&ServiceCd=730&Type=search" }, "geometry": { "type": "Point", "coordinates": [ 140.376493100000062, 35.570948 ] } },
{ "type": "Feature", "properties": { "内容": "小規模多機能・グループホーム楽家習志野【小規模多機能型居宅介護】習志野市東習志野5-5-5", "url2": "https://www.kaigokensaku.mhlw.go.jp/12/index.php?action_kouhyou_detail_004_kani=true&JigyosyoCd=1292100177-00&ServiceCd=730&Type=search" }, "geometry": { "type": "Point", "coordinates": [ 140.0775542, 35.6903215 ] } },
{ "type": "Feature", "properties": { "内容": "愛・小規模多機能奏の杜【小規模多機能型居宅介護】千葉県習志野市奏の杜2丁目16番8号", "url2": "https://www.kaigokensaku.mhlw.go.jp/12/index.php?action_kouhyou_detail_004_kani=true&JigyosyoCd=1292100243-00&ServiceCd=730&Type=search" }, "geometry": { "type": "Point", "coordinates": [ 140.011787799999979, 35.6903363 ] } },
{ "type": "Feature", "properties": { "内容": "愛・小規模多機能鷺沼台【小規模多機能型居宅介護】千葉県習志野市鷺沼台4-7-18", "url2": "https://www.kaigokensaku.mhlw.go.jp/12/index.php?action_kouhyou_detail_004_kani=true&JigyosyoCd=1292100144-00&ServiceCd=730&Type=search" }, "geometry": { "type": "Point", "coordinates": [ 140.039793313207042, 35.677812375830719 ] } },
{ "type": "Feature", "properties": { "内容": "小規模多機能型居宅介護なごみ【小規模多機能型居宅介護】千葉県柏市豊四季台1丁目3番1号ココファン柏豊四季台内", "url2": "https://www.kaigokensaku.mhlw.go.jp/12/index.php?action_kouhyou_detail_004_kani=true&JigyosyoCd=1292200316-00&ServiceCd=730&Type=search" }, "geometry": { "type": "Point", "coordinates": [ 139.957485499999962, 35.866176 ] } },
{ "type": "Feature", "properties": { "内容": "生活クラブ風の村小規模多機能ハウス光ヶ丘【小規模多機能型居宅介護】千葉県柏市東中新宿４－５－７", "url2": "https://www.kaigokensaku.mhlw.go.jp/12/index.php?action_kouhyou_detail_004_kani=true&JigyosyoCd=1292200217-00&ServiceCd=730&Type=search" }, "geometry": { "type": "Point", "coordinates": [ 139.961433400000033, 35.8308376 ] } },
{ "type": "Feature", "properties": { "内容": "マザアスホーム憩・増尾台【小規模多機能型居宅介護】千葉県柏市増尾台２－３１－７０", "url2": "https://www.kaigokensaku.mhlw.go.jp/12/index.php?action_kouhyou_detail_004_kani=true&JigyosyoCd=1292200191-00&ServiceCd=730&Type=search" }, "geometry": { "type": "Point", "coordinates": [ 139.968957700000033, 35.8233533 ] } },
{ "type": "Feature", "properties": { "内容": "ニチイケアセンター藤心【小規模多機能型居宅介護】千葉県柏市藤心1-26-28", "url2": "https://www.kaigokensaku.mhlw.go.jp/12/index.php?action_kouhyou_detail_004_kani=true&JigyosyoCd=1292200175-00&ServiceCd=730&Type=search" }, "geometry": { "type": "Point", "coordinates": [ 139.9926838, 35.8276051 ] } },
{ "type": "Feature", "properties": { "内容": "ミアヘルサ小規模多機能ホーム柏酒井根【小規模多機能型居宅介護】千葉県柏市酒井根21-2", "url2": "https://www.kaigokensaku.mhlw.go.jp/12/index.php?action_kouhyou_detail_004_kani=true&JigyosyoCd=1292200688-00&ServiceCd=730&Type=search" }, "geometry": { "type": "Point", "coordinates": [ 139.961020288066777, 35.819089921532203 ] } },
{ "type": "Feature", "properties": { "内容": "小規模多機能型居宅介護ホーム大津川八幡苑【小規模多機能型居宅介護】千葉県柏市藤心271-1", "url2": "https://www.kaigokensaku.mhlw.go.jp/12/index.php?action_kouhyou_detail_004_kani=true&JigyosyoCd=1292200399-00&ServiceCd=730&Type=search" }, "geometry": { "type": "Point", "coordinates": [ 139.994103809678677, 35.823975424698375 ] } },
{ "type": "Feature", "properties": { "内容": "小規模多機能型居宅介護施設ゆかりの家【小規模多機能型居宅介護】千葉県柏市大青田1604-1", "url2": "https://www.kaigokensaku.mhlw.go.jp/12/index.php?action_kouhyou_detail_004_kani=true&JigyosyoCd=1292200084-00&ServiceCd=730&Type=search" }, "geometry": { "type": "Point", "coordinates": [ 139.941143099999977, 35.9161068 ] } },
{ "type": "Feature", "properties": { "内容": "小規模多機能つどいちはら台【小規模多機能型居宅介護】千葉県市原市ちはら台西1-20-5", "url2": "https://www.kaigokensaku.mhlw.go.jp/12/index.php?action_kouhyou_detail_004_kani=true&JigyosyoCd=1292400213-00&ServiceCd=730&Type=search" }, "geometry": { "type": "Point", "coordinates": [ 140.165568, 35.5342394 ] } },
{ "type": "Feature", "properties": { "内容": "やさしい手京葉【小規模多機能型居宅介護】千葉県市原市能満2-10", "url2": "https://www.kaigokensaku.mhlw.go.jp/12/index.php?action_kouhyou_detail_004_kani=true&JigyosyoCd=1292400023-00&ServiceCd=730&Type=search" }, "geometry": { "type": "Point", "coordinates": [ 140.129618599999958, 35.522035 ] } },
{ "type": "Feature", "properties": { "内容": "麦の家【小規模多機能型居宅介護】千葉県市原市国分寺台中央３－１２－３", "url2": "https://www.kaigokensaku.mhlw.go.jp/12/index.php?action_kouhyou_detail_004_kani=true&JigyosyoCd=1292400031-00&ServiceCd=730&Type=search" }, "geometry": { "type": "Point", "coordinates": [ 140.11971159999996, 35.4999042 ] } },
{ "type": "Feature", "properties": { "内容": "小規模多機能型居宅介護明日花【小規模多機能型居宅介護】千葉県市原市能満1532-260", "url2": "https://www.kaigokensaku.mhlw.go.jp/12/index.php?action_kouhyou_detail_004_kani=true&JigyosyoCd=1292400296-00&ServiceCd=730&Type=search" }, "geometry": { "type": "Point", "coordinates": [ 140.1375908, 35.4924434 ] } },
{ "type": "Feature", "properties": { "内容": "相川ケアりんどう【小規模多機能型居宅介護】千葉県市原市五井中央東２－２３－１５", "url2": "https://www.kaigokensaku.mhlw.go.jp/12/index.php?action_kouhyou_detail_004_kani=true&JigyosyoCd=1292400015-00&ServiceCd=730&Type=search" }, "geometry": { "type": "Point", "coordinates": [ 140.094808, 35.5118826 ] } },
{ "type": "Feature", "properties": { "内容": "小規模多機能型居宅介護事業所春【小規模多機能型居宅介護】千葉県市原市菊間262番地", "url2": "https://www.kaigokensaku.mhlw.go.jp/12/index.php?action_kouhyou_detail_004_kani=true&JigyosyoCd=1292400064-00&ServiceCd=730&Type=search" }, "geometry": { "type": "Point", "coordinates": [ 140.1291794, 35.5304923 ] } },
{ "type": "Feature", "properties": { "内容": "あけぼの小規模多機能事業所【小規模多機能型居宅介護】千葉県市原市野毛112-1", "url2": "https://www.kaigokensaku.mhlw.go.jp/12/index.php?action_kouhyou_detail_004_kani=true&JigyosyoCd=1292400460-00&ServiceCd=730&Type=search" }, "geometry": { "type": "Point", "coordinates": [ 140.07958787696839, 35.492443972041499 ] } },
{ "type": "Feature", "properties": { "内容": "ミモザ市原【小規模多機能型居宅介護】千葉県市原市東国分寺台一丁目11番7", "url2": "https://www.kaigokensaku.mhlw.go.jp/12/index.php?action_kouhyou_detail_004_kani=true&JigyosyoCd=1292400197-00&ServiceCd=730&Type=search" }, "geometry": { "type": "Point", "coordinates": [ 140.119363100069421, 35.494140841950625 ] } },
{ "type": "Feature", "properties": { "内容": "多機能ホーム春の苑【小規模多機能型居宅介護】千葉県流山市東深井518-1", "url2": "https://www.kaigokensaku.mhlw.go.jp/12/index.php?action_kouhyou_detail_004_kani=true&JigyosyoCd=1292500111-00&ServiceCd=730&Type=search" }, "geometry": { "type": "Point", "coordinates": [ 139.9136598, 35.9161472 ] } },
{ "type": "Feature", "properties": { "内容": "小規模多機能サービス　ひまわりの家【小規模多機能型居宅介護】千葉県流山市三輪野山1丁目987番", "url2": "https://www.kaigokensaku.mhlw.go.jp/12/index.php?action_kouhyou_detail_004_kani=true&JigyosyoCd=1292500335-00&ServiceCd=730&Type=search" }, "geometry": { "type": "Point", "coordinates": [ 139.9043194, 35.8662199 ] } },
{ "type": "Feature", "properties": { "内容": "小規模多機能居宅介護ソラスト流山【小規模多機能型居宅介護】千葉県流山市名都借1068-2", "url2": "https://www.kaigokensaku.mhlw.go.jp/12/index.php?action_kouhyou_detail_004_kani=true&JigyosyoCd=1292500236-00&ServiceCd=730&Type=search" }, "geometry": { "type": "Point", "coordinates": [ 139.9409071, 35.8467677 ] } },
{ "type": "Feature", "properties": { "内容": "小規模多機能ホームほのぼのかん【小規模多機能型居宅介護】千葉県流山市大畔５３７番地", "url2": "https://www.kaigokensaku.mhlw.go.jp/12/index.php?action_kouhyou_detail_004_kani=true&JigyosyoCd=1292500103-00&ServiceCd=730&Type=search" }, "geometry": { "type": "Point", "coordinates": [ 139.9150919, 35.8739597 ] } },
{ "type": "Feature", "properties": { "内容": "小規模多機能居宅介護なごみ【小規模多機能型居宅介護】千葉県八千代市緑が丘2-17-1", "url2": "https://www.kaigokensaku.mhlw.go.jp/12/index.php?action_kouhyou_detail_004_kani=true&JigyosyoCd=1292600200-00&ServiceCd=730&Type=search" }, "geometry": { "type": "Point", "coordinates": [ 140.068575226983626, 35.722300279454679 ] } },
{ "type": "Feature", "properties": { "内容": "小規模多機能ケアひばりの郷【小規模多機能型居宅介護】千葉県八千代市大和田53", "url2": "https://www.kaigokensaku.mhlw.go.jp/12/index.php?action_kouhyou_detail_004_kani=true&JigyosyoCd=1292600085-00&ServiceCd=730&Type=search" }, "geometry": { "type": "Point", "coordinates": [ 140.100141910597472, 35.716760927457742 ] } },
{ "type": "Feature", "properties": { "内容": "小規模多機能型居宅介護グリーンヒル八千代台【小規模多機能型居宅介護】千葉県八千代市八千代台西7-2-69高齢者複合ケア施設　グリーンヒル八千代台", "url2": "https://www.kaigokensaku.mhlw.go.jp/12/index.php?action_kouhyou_detail_004_kani=true&JigyosyoCd=1292600051-00&ServiceCd=730&Type=search" }, "geometry": { "type": "Point", "coordinates": [ 140.085217100000023, 35.7026066 ] } },
{ "type": "Feature", "properties": { "内容": "小規模多機能型居宅介護サテライト　グリーンヒル勝田台【小規模多機能型居宅介護】千葉県八千代市勝田台1-7京成サンコーポ勝田台Ｄ棟205・208号室", "url2": "https://www.kaigokensaku.mhlw.go.jp/12/index.php?action_kouhyou_detail_004_kani=true&JigyosyoCd=1292600150-00&ServiceCd=730&Type=search" }, "geometry": { "type": "Point", "coordinates": [ 140.125808600000028, 35.7149418 ] } },
{ "type": "Feature", "properties": { "内容": "小規模多機能ホームアゼリアガーデン【小規模多機能型居宅介護】千葉県八千代市村上1248-6", "url2": "https://www.kaigokensaku.mhlw.go.jp/12/index.php?action_kouhyou_detail_004_kani=true&JigyosyoCd=1292600218-00&ServiceCd=730&Type=search" }, "geometry": { "type": "Point", "coordinates": [ 140.129157500000019, 35.7233912 ] } },
{ "type": "Feature", "properties": { "内容": "湖北台ケアガーデンワカバ【小規模多機能型居宅介護】千葉県我孫子市湖北台10-9-21", "url2": "https://www.kaigokensaku.mhlw.go.jp/12/index.php?action_kouhyou_detail_004_kani=true&JigyosyoCd=1292700133-00&ServiceCd=730&Type=search" }, "geometry": { "type": "Point", "coordinates": [ 140.0633967, 35.8679814 ] } },
{ "type": "Feature", "properties": { "内容": "めいとケアステーションこほく【小規模多機能型居宅介護】千葉県我孫子市中峠２９６４番地の１", "url2": "https://www.kaigokensaku.mhlw.go.jp/12/index.php?action_kouhyou_detail_004_kani=true&JigyosyoCd=1292700083-00&ServiceCd=730&Type=search" }, "geometry": { "type": "Point", "coordinates": [ 140.079942100000039, 35.8734668 ] } },
{ "type": "Feature", "properties": { "内容": "めいとケアステーションふさ【小規模多機能型居宅介護】千葉県我孫子市布佐２１９８番地", "url2": "https://www.kaigokensaku.mhlw.go.jp/12/index.php?action_kouhyou_detail_004_kani=true&JigyosyoCd=1292700059-00&ServiceCd=730&Type=search" }, "geometry": { "type": "Point", "coordinates": [ 140.130538, 35.8512342 ] } },
{ "type": "Feature", "properties": { "内容": "ケアプラザ寿【小規模多機能型居宅介護】千葉県我孫子市寿２－１６－５", "url2": "https://www.kaigokensaku.mhlw.go.jp/12/index.php?action_kouhyou_detail_004_kani=true&JigyosyoCd=1292700034-00&ServiceCd=730&Type=search" }, "geometry": { "type": "Point", "coordinates": [ 140.025142100000039, 35.8677104 ] } },
{ "type": "Feature", "properties": { "内容": "小規模多機能ステーションガーデンコート天王台【小規模多機能型居宅介護】千葉県我孫子市柴崎台3-9-19", "url2": "https://www.kaigokensaku.mhlw.go.jp/12/index.php?action_kouhyou_detail_004_kani=true&JigyosyoCd=1292700075-00&ServiceCd=730&Type=search" }, "geometry": { "type": "Point", "coordinates": [ 140.042770799999971, 35.8775406 ] } },
{ "type": "Feature", "properties": { "内容": "宅老所虹の家【小規模多機能型居宅介護】千葉県我孫子市新木野3丁目32番15号", "url2": "https://www.kaigokensaku.mhlw.go.jp/12/index.php?action_kouhyou_detail_004_kani=true&JigyosyoCd=1292700158-00&ServiceCd=730&Type=search" }, "geometry": { "type": "Point", "coordinates": [ 140.113953298776636, 35.867872864120336 ] } },
{ "type": "Feature", "properties": { "内容": "地域密着型サービス事業所　リーベン鎌ケ谷【小規模多機能型居宅介護】千葉県鎌ケ谷市丸山3-17-18", "url2": "https://www.kaigokensaku.mhlw.go.jp/12/index.php?action_kouhyou_detail_004_kani=true&JigyosyoCd=1292900022-00&ServiceCd=730&Type=search" }, "geometry": { "type": "Point", "coordinates": [ 140.004635300000018, 35.7597296 ] } },
{ "type": "Feature", "properties": { "内容": "セントケア南子安【小規模多機能型居宅介護】千葉県君津市南子安1－23－20セントケア南子安", "url2": "https://www.kaigokensaku.mhlw.go.jp/12/index.php?action_kouhyou_detail_004_kani=true&JigyosyoCd=1293000152-00&ServiceCd=730&Type=search" }, "geometry": { "type": "Point", "coordinates": [ 139.9151812, 35.3306171 ] } },
{ "type": "Feature", "properties": { "内容": "小規模多機能型居宅介護事業所　つばさ小糸の郷【小規模多機能型居宅介護】千葉県君津市上257-1", "url2": "https://www.kaigokensaku.mhlw.go.jp/12/index.php?action_kouhyou_detail_004_kani=true&JigyosyoCd=1293000228-00&ServiceCd=730&Type=search" }, "geometry": { "type": "Point", "coordinates": [ 139.953910007656901, 35.308000538671358 ] } },
{ "type": "Feature", "properties": { "内容": "セントケア佐貫【小規模多機能型居宅介護】千葉県富津市佐貫230-1", "url2": "https://www.kaigokensaku.mhlw.go.jp/12/index.php?action_kouhyou_detail_004_kani=true&JigyosyoCd=1293100044-00&ServiceCd=730&Type=search" }, "geometry": { "type": "Point", "coordinates": [ 139.8853332, 35.26108510000001 ] } },
{ "type": "Feature", "properties": { "内容": "小規模多機能　きらら北栄【小規模多機能型居宅介護】千葉県浦安市北栄２丁目１８番１８号", "url2": "https://www.kaigokensaku.mhlw.go.jp/12/index.php?action_kouhyou_detail_004_kani=true&JigyosyoCd=1293200059-00&ServiceCd=730&Type=search" }, "geometry": { "type": "Point", "coordinates": [ 139.895254, 35.6698405 ] } },
{ "type": "Feature", "properties": { "内容": "小規模多機能型施設きはち【小規模多機能型居宅介護】千葉県浦安市高洲1-2-1", "url2": "https://www.kaigokensaku.mhlw.go.jp/12/index.php?action_kouhyou_detail_004_kani=true&JigyosyoCd=1293200026-00&ServiceCd=730&Type=search" }, "geometry": { "type": "Point", "coordinates": [ 139.914363800000046, 35.6413185 ] } },
{ "type": "Feature", "properties": { "内容": "小規模多機能型居宅介護　清風荘舞浜【小規模多機能型居宅介護】千葉県浦安市富士見4丁目14番41号", "url2": "https://www.kaigokensaku.mhlw.go.jp/12/index.php?action_kouhyou_detail_004_kani=true&JigyosyoCd=1293200232-00&ServiceCd=730&Type=search" }, "geometry": { "type": "Point", "coordinates": [ 139.8890461, 35.6462822 ] } },
{ "type": "Feature", "properties": { "内容": "ふきのとうみんなの家さら【小規模多機能型居宅介護】千葉県四街道市旭が丘４丁目１９－１３", "url2": "https://www.kaigokensaku.mhlw.go.jp/12/index.php?action_kouhyou_detail_004_kani=true&JigyosyoCd=1293300081-00&ServiceCd=730&Type=search" }, "geometry": { "type": "Point", "coordinates": [ 140.187358099999983, 35.666131700000022 ] } },
{ "type": "Feature", "properties": { "内容": "縁側よいしょ【小規模多機能型居宅介護】千葉県袖ケ浦市大鳥居562縁側よいしょ", "url2": "https://www.kaigokensaku.mhlw.go.jp/12/index.php?action_kouhyou_detail_004_kani=true&JigyosyoCd=1293400048-00&ServiceCd=730&Type=search" }, "geometry": { "type": "Point", "coordinates": [ 140.001112199999966, 35.3903726 ] } },
{ "type": "Feature", "properties": { "内容": "ゆかり（愉花里）八街【小規模多機能型居宅介護】千葉県八街市八街ほ２４６－５", "url2": "https://www.kaigokensaku.mhlw.go.jp/12/index.php?action_kouhyou_detail_004_kani=true&JigyosyoCd=1293500011-00&ServiceCd=730&Type=search" }, "geometry": { "type": "Point", "coordinates": [ 140.317796199999947, 35.6607371 ] } },
{ "type": "Feature", "properties": { "内容": "さわやかリビング八街【小規模多機能型居宅介護】千葉県八街市富山1314－1352", "url2": "https://www.kaigokensaku.mhlw.go.jp/12/index.php?action_kouhyou_detail_004_kani=true&JigyosyoCd=1293500045-00&ServiceCd=730&Type=search" }, "geometry": { "type": "Point", "coordinates": [ 140.3015299, 35.67044090000001 ] } },
{ "type": "Feature", "properties": { "内容": "ゆるるか【小規模多機能型居宅介護】千葉県八街市文違３０１－７８２", "url2": "https://www.kaigokensaku.mhlw.go.jp/12/index.php?action_kouhyou_detail_004_kani=true&JigyosyoCd=1293500128-00&ServiceCd=730&Type=search" }, "geometry": { "type": "Point", "coordinates": [ 140.320187199999964, 35.6755967 ] } },
{ "type": "Feature", "properties": { "内容": "生活クラブ風の村なっつらぼ【小規模多機能型居宅介護】千葉県八街市吉倉629番地7", "url2": "https://www.kaigokensaku.mhlw.go.jp/12/index.php?action_kouhyou_detail_004_kani=true&JigyosyoCd=1293500151-00&ServiceCd=730&Type=search" }, "geometry": { "type": "Point", "coordinates": [ 140.2907028, 35.624074 ] } },
{ "type": "Feature", "properties": { "内容": "よりそいホーム【小規模多機能型居宅介護】千葉県印西市小林4095番地1よりそいホーム", "url2": "https://www.kaigokensaku.mhlw.go.jp/12/index.php?action_kouhyou_detail_004_kani=true&JigyosyoCd=1293600035-00&ServiceCd=730&Type=search" }, "geometry": { "type": "Point", "coordinates": [ 140.198622500000056, 35.822662 ] } },
{ "type": "Feature", "properties": { "内容": "あゆみケアハウス【小規模多機能型居宅介護】千葉県印西市大森777-3", "url2": "https://www.kaigokensaku.mhlw.go.jp/12/index.php?action_kouhyou_detail_004_kani=true&JigyosyoCd=1293600092-00&ServiceCd=730&Type=search" }, "geometry": { "type": "Point", "coordinates": [ 140.1368632, 35.8197805 ] } },
{ "type": "Feature", "properties": { "内容": "リハモードケア【小規模多機能型居宅介護】千葉県白井市根235番2号", "url2": "https://www.kaigokensaku.mhlw.go.jp/12/index.php?action_kouhyou_detail_004_kani=true&JigyosyoCd=1294200215-00&ServiceCd=730&Type=search" }, "geometry": { "type": "Point", "coordinates": [ 140.039171300000021, 35.7744646 ] } },
{ "type": "Feature", "properties": { "内容": "介護複合施設　白井の家弐番館【小規模多機能型居宅介護】千葉県白井市白井350-4", "url2": "https://www.kaigokensaku.mhlw.go.jp/12/index.php?action_kouhyou_detail_004_kani=true&JigyosyoCd=1294200074-00&ServiceCd=730&Type=search" }, "geometry": { "type": "Point", "coordinates": [ 140.0645786, 35.8027849 ] } },
{ "type": "Feature", "properties": { "内容": "エミナスの風【小規模多機能型居宅介護】日吉倉239番地12", "url2": "https://www.kaigokensaku.mhlw.go.jp/12/index.php?action_kouhyou_detail_004_kani=true&JigyosyoCd=1294000078-00&ServiceCd=730&Type=search" }, "geometry": { "type": "Point", "coordinates": [ 140.325459836434959, 35.773271739953366 ] } },
{ "type": "Feature", "properties": { "内容": "サルビアホーム【小規模多機能型居宅介護】千葉県富里市御料字葉山1139-41", "url2": "https://www.kaigokensaku.mhlw.go.jp/12/index.php?action_kouhyou_detail_004_kani=true&JigyosyoCd=1294000045-00&ServiceCd=730&Type=search" }, "geometry": { "type": "Point", "coordinates": [ 140.359367, 35.723506 ] } },
{ "type": "Feature", "properties": { "内容": "小規模多機能ホーム　リブスイート千倉【小規模多機能型居宅介護】千葉県南房総市千倉町忽戸737-1", "url2": "https://www.kaigokensaku.mhlw.go.jp/12/index.php?action_kouhyou_detail_004_kani=true&JigyosyoCd=1298800036-00&ServiceCd=730&Type=search" }, "geometry": { "type": "Point", "coordinates": [ 139.961171899999954, 34.9466325 ] } },
{ "type": "Feature", "properties": { "内容": "小規模多機能ホームリブテラス丸山【小規模多機能型居宅介護】千葉県南房総市珠師ヶ谷1545-1", "url2": "https://www.kaigokensaku.mhlw.go.jp/12/index.php?action_kouhyou_detail_004_kani=true&JigyosyoCd=1298800044-00&ServiceCd=730&Type=search" }, "geometry": { "type": "Point", "coordinates": [ 139.961963200000014, 35.043830900000017 ] } },
{ "type": "Feature", "properties": { "内容": "小規模多機能・ろくじろう【小規模多機能型居宅介護】千葉県南房総市白浜町滝口5175-1", "url2": "https://www.kaigokensaku.mhlw.go.jp/12/index.php?action_kouhyou_detail_004_kani=true&JigyosyoCd=1298800101-00&ServiceCd=730&Type=search" }, "geometry": { "type": "Point", "coordinates": [ 139.85898480000003, 34.910182399999989 ] } },
{ "type": "Feature", "properties": { "内容": "小規模多機能型居宅介護　日下部ホーム【小規模多機能型居宅介護】千葉県香取市府馬3490-1", "url2": "https://www.kaigokensaku.mhlw.go.jp/12/index.php?action_kouhyou_detail_004_kani=true&JigyosyoCd=1298900026-00&ServiceCd=730&Type=search" }, "geometry": { "type": "Point", "coordinates": [ 140.607299, 35.7900272 ] } },
{ "type": "Feature", "properties": { "内容": "小規模多機能型居宅介護　ほうらい佐原寮【小規模多機能型居宅介護】千葉県香取市佐原イ693-3", "url2": "https://www.kaigokensaku.mhlw.go.jp/12/index.php?action_kouhyou_detail_004_kani=true&JigyosyoCd=1298900133-00&ServiceCd=730&Type=search" }, "geometry": { "type": "Point", "coordinates": [ 140.492398, 35.88993 ] } },
{ "type": "Feature", "properties": { "内容": "小規模多機能型居宅介護なるとう【小規模多機能型居宅介護】千葉県山武市殿台２７１－１", "url2": "https://www.kaigokensaku.mhlw.go.jp/12/index.php?action_kouhyou_detail_004_kani=true&JigyosyoCd=1299000032-00&ServiceCd=730&Type=search" }, "geometry": { "type": "Point", "coordinates": [ 140.41544220000003, 35.6040581 ] } },
{ "type": "Feature", "properties": { "内容": "ゆかり（愉花里）大原【小規模多機能型居宅介護】千葉県いすみ市大原8763-1", "url2": "https://www.kaigokensaku.mhlw.go.jp/12/index.php?action_kouhyou_detail_004_kani=true&JigyosyoCd=1298600022-00&ServiceCd=730&Type=search" }, "geometry": { "type": "Point", "coordinates": [ 140.389544600000022, 35.2523418 ] } },
{ "type": "Feature", "properties": { "内容": "小規模多機能ホーム杜の街【小規模多機能型居宅介護】千葉県大網白里市南今泉298-1", "url2": "https://www.kaigokensaku.mhlw.go.jp/12/index.php?action_kouhyou_detail_004_kani=true&JigyosyoCd=1295800013-00&ServiceCd=730&Type=search" }, "geometry": { "type": "Point", "coordinates": [ 140.414832499999989, 35.4875727 ] } },
{ "type": "Feature", "properties": { "内容": "小規模多機能型居宅介護事業所　かきつばた【小規模多機能型居宅介護】千葉県大網白里市富田2026-2", "url2": "https://www.kaigokensaku.mhlw.go.jp/12/index.php?action_kouhyou_detail_004_kani=true&JigyosyoCd=1295800039-00&ServiceCd=730&Type=search" }, "geometry": { "type": "Point", "coordinates": [ 140.334377287359388, 35.507020165249415 ] } },
{ "type": "Feature", "properties": { "内容": "特定非営利活動法人葵の森あっとほーむ大網【小規模多機能型居宅介護】千葉県大網白里市南横川3078-16", "url2": "https://www.kaigokensaku.mhlw.go.jp/12/index.php?action_kouhyou_detail_004_kani=true&JigyosyoCd=1295800021-00&ServiceCd=730&Type=search" }, "geometry": { "type": "Point", "coordinates": [ 140.347434, 35.4866576 ] } },
{ "type": "Feature", "properties": { "内容": "小規模多機能型居宅介護ルミナスおたがいさま【小規模多機能型居宅介護】千葉県香取郡多古町多古674番地2", "url2": "https://www.kaigokensaku.mhlw.go.jp/12/index.php?action_kouhyou_detail_004_kani=true&JigyosyoCd=1295100034-00&ServiceCd=730&Type=search" }, "geometry": { "type": "Point", "coordinates": [ 140.468982899999986, 35.7355809 ] } },
{ "type": "Feature", "properties": { "内容": "楽天堂多機能ケア横芝光【小規模多機能型居宅介護】千葉県山武郡横芝光町木戸8204-7", "url2": "https://www.kaigokensaku.mhlw.go.jp/12/index.php?action_kouhyou_detail_004_kani=true&JigyosyoCd=1299100063-00&ServiceCd=730&Type=search" }, "geometry": { "type": "Point", "coordinates": [ 140.520444493288807, 35.636095197241872 ] } },
{ "type": "Feature", "properties": { "内容": "セントケア小規模多機能おおたき【小規模多機能型居宅介護】千葉県夷隅郡大多喜町横山字大久保612-1", "url2": "https://www.kaigokensaku.mhlw.go.jp/12/index.php?action_kouhyou_detail_004_kani=true&JigyosyoCd=1297200030-00&ServiceCd=730&Type=search" }, "geometry": { "type": "Point", "coordinates": [ 140.24039019060109, 35.303904291567513 ] } }
]
}
