{
"type": "FeatureCollection",
"name": "geo_12_特定施設入居者生活介護（軽費老人ホーム）",
"crs": { "type": "name", "properties": { "name": "urn:ogc:def:crs:OGC:1.3:CRS84" } },
"features": [
{ "type": "Feature", "properties": { "内容": "ケアハウスはつらつ浜野【特定施設入居者生活介護（軽費老人ホーム）】千葉県千葉市中央区浜野町３３８番地１", "url": "https://www.kaigokensaku.mhlw.go.jp/12/index.php?action_kouhyou_detail_004_kani=true&JigyosyoCd=1270101031-00&ServiceCd=332&Type=search", "url2": "http://www.haturatu.or.jp/sub4.html" }, "geometry": { "type": "Point", "coordinates": [ 140.140846900000014, 35.5534856 ] } },
{ "type": "Feature", "properties": { "内容": "ケアハウスヴィラ美浜【特定施設入居者生活介護（軽費老人ホーム）】千葉市美浜区磯辺2-21-2", "url": "https://www.kaigokensaku.mhlw.go.jp/12/index.php?action_kouhyou_detail_004_kani=true&JigyosyoCd=1270600297-00&ServiceCd=332&Type=search", "url2": "http://www.seiwaen.com/mihama" }, "geometry": { "type": "Point", "coordinates": [ 140.061389, 35.6263893 ] } },
{ "type": "Feature", "properties": { "内容": "行徳翔裕園【特定施設入居者生活介護（軽費老人ホーム）】千葉県市川市末広1-1-48", "url": "https://www.kaigokensaku.mhlw.go.jp/12/index.php?action_kouhyou_detail_004_kani=true&JigyosyoCd=1270801366-00&ServiceCd=332&Type=search", "url2": "https://www.cyoujyunosato.jp/gyotoku/" }, "geometry": { "type": "Point", "coordinates": [ 139.917151099999955, 35.6863887 ] } }
]
}
