{
"type": "FeatureCollection",
"name": "geo_12_訪問入浴介護",
"crs": { "type": "name", "properties": { "name": "urn:ogc:def:crs:OGC:1.3:CRS84" } },
"features": [
{ "type": "Feature", "properties": { "内容": "アースサポート千葉中央【訪問入浴介護】千葉県千葉市中央区今井2丁目18番17号", "url": "https://www.kaigokensaku.mhlw.go.jp/12/index.php?action_kouhyou_detail_004_kani=true&JigyosyoCd=1270102575-00&ServiceCd=120&Type=search", "url2": "https://www.earthsupport.co.jp/" }, "geometry": { "type": "Point", "coordinates": [ 140.127689199999963, 35.5788983 ] } },
{ "type": "Feature", "properties": { "内容": "アスケア訪問入浴　ちば【訪問入浴介護】千葉市中央区春日2-21-14ザ・ウエスト店舗", "url": "https://www.kaigokensaku.mhlw.go.jp/12/index.php?action_kouhyou_detail_004_kani=true&JigyosyoCd=1270104860-00&ServiceCd=120&Type=search", "url2": "https://www.asahi-sun-clean.co.jp" }, "geometry": { "type": "Point", "coordinates": [ 140.102943922401209, 35.62135604641805 ] } },
{ "type": "Feature", "properties": { "内容": "セントケアちば【訪問入浴介護】千葉県千葉市中央区蘇我2-5-3", "url": "https://www.kaigokensaku.mhlw.go.jp/12/index.php?action_kouhyou_detail_004_kani=true&JigyosyoCd=1270102203-00&ServiceCd=120&Type=search", "url2": "http//:www.saint-care.com" }, "geometry": { "type": "Point", "coordinates": [ 140.132119, 35.573171 ] } },
{ "type": "Feature", "properties": { "内容": "Ｈａｎａ訪問入浴花見川【訪問入浴介護】千葉県千葉市花見川区幕張本郷２丁目４１－５", "url": "https://www.kaigokensaku.mhlw.go.jp/12/index.php?action_kouhyou_detail_004_kani=true&JigyosyoCd=1270202755-00&ServiceCd=120&Type=search", "url2": "https://kt-group.jp" }, "geometry": { "type": "Point", "coordinates": [ 140.0452133, 35.6694261 ] } },
{ "type": "Feature", "properties": { "内容": "アスケア訪問入浴　幕張【訪問入浴介護】千葉市花見川区幕張本郷7-8-5T・Tハイツ102店舗", "url": "https://www.kaigokensaku.mhlw.go.jp/12/index.php?action_kouhyou_detail_004_kani=true&JigyosyoCd=1270203787-00&ServiceCd=120&Type=search", "url2": "https://www.asahi-sun-clean.co.jp/" }, "geometry": { "type": "Point", "coordinates": [ 140.046872643330431, 35.674988135437175 ] } },
{ "type": "Feature", "properties": { "内容": "アースサポート千葉【訪問入浴介護】千葉県千葉市稲毛区稲毛3丁目10番24号", "url": "https://www.kaigokensaku.mhlw.go.jp/12/index.php?action_kouhyou_detail_004_kani=true&JigyosyoCd=1270300468-00&ServiceCd=120&Type=search", "url2": "https://www.earthsupport.co.jp" }, "geometry": { "type": "Point", "coordinates": [ 140.08527730000003, 35.6384051 ] } },
{ "type": "Feature", "properties": { "内容": "エルケア株式会社エルケア若葉訪問入浴センター【訪問入浴介護】千葉県千葉市若葉区西都賀2-20-2第５フェニックスビル１Ｆ", "url": "https://www.kaigokensaku.mhlw.go.jp/12/index.php?action_kouhyou_detail_004_kani=true&JigyosyoCd=1270402561-00&ServiceCd=120&Type=search", "url2": "https://www.l-care.jp/" }, "geometry": { "type": "Point", "coordinates": [ 140.144830700000057, 35.6386563 ] } },
{ "type": "Feature", "properties": { "内容": "アースサポート千葉若葉【訪問入浴介護】千葉県千葉市若葉区西都賀3丁目19番4号", "url": "https://www.kaigokensaku.mhlw.go.jp/12/index.php?action_kouhyou_detail_004_kani=true&JigyosyoCd=1270402272-00&ServiceCd=120&Type=search", "url2": "https://www.earthsupport.co.jp" }, "geometry": { "type": "Point", "coordinates": [ 140.149866699999961, 35.6367543 ] } },
{ "type": "Feature", "properties": { "内容": "みなみ訪問入浴サービス【訪問入浴介護】千葉県千葉市緑区あすみが丘3-51-15あすみが丘5番館204", "url": "https://www.kaigokensaku.mhlw.go.jp/12/index.php?action_kouhyou_detail_004_kani=true&JigyosyoCd=1270501990-00&ServiceCd=120&Type=search", "url2": "http://minami-tc.com" }, "geometry": { "type": "Point", "coordinates": [ 140.264933599999949, 35.5301051 ] } },
{ "type": "Feature", "properties": { "内容": "ニチイケアセンター鎌取【訪問入浴介護】千葉県千葉市緑区おゆみ野3-39-1セントアベニュービル１Ｆ", "url": "https://www.kaigokensaku.mhlw.go.jp/12/index.php?action_kouhyou_detail_004_kani=true&JigyosyoCd=1270500091-00&ServiceCd=120&Type=search", "url2": "http://www.nichiigakkan.co.jp" }, "geometry": { "type": "Point", "coordinates": [ 140.1755971, 35.5582898 ] } },
{ "type": "Feature", "properties": { "内容": "Ｈａｎａ訪問入浴【訪問入浴介護】千葉県千葉市緑区おゆみ野1-21-6", "url": "https://www.kaigokensaku.mhlw.go.jp/12/index.php?action_kouhyou_detail_004_kani=true&JigyosyoCd=1270501198-00&ServiceCd=120&Type=search", "url2": "https://kt-group.jp" }, "geometry": { "type": "Point", "coordinates": [ 140.161780200000067, 35.5614505 ] } },
{ "type": "Feature", "properties": { "内容": "有限会社ウエルネスサービス【訪問入浴介護】千葉県銚子市春日町１７１", "url": "https://www.kaigokensaku.mhlw.go.jp/12/index.php?action_kouhyou_detail_004_kani=true&JigyosyoCd=1270700022-00&ServiceCd=120&Type=search", "url2": "http://www.wellness-s.jp" }, "geometry": { "type": "Point", "coordinates": [ 140.825541, 35.7229629 ] } },
{ "type": "Feature", "properties": { "内容": "みんなハッピー訪問入浴【訪問入浴介護】千葉県市川市曽谷4-26-7", "url": "https://www.kaigokensaku.mhlw.go.jp/12/index.php?action_kouhyou_detail_004_kani=true&JigyosyoCd=1270806332-00&ServiceCd=120&Type=search", "url2": "https://taxa-kango.com" }, "geometry": { "type": "Point", "coordinates": [ 139.9291824, 35.7509223 ] } },
{ "type": "Feature", "properties": { "内容": "特別養護老人ホーム　清山荘【訪問入浴介護】千葉県市川市柏井町４丁目３１４番地", "url": "https://www.kaigokensaku.mhlw.go.jp/12/index.php?action_kouhyou_detail_004_kani=true&JigyosyoCd=1270800202-00&ServiceCd=120&Type=search", "url2": "http://care-net.biz/12/keibikai/" }, "geometry": { "type": "Point", "coordinates": [ 139.9733999, 35.7527323 ] } },
{ "type": "Feature", "properties": { "内容": "セントケア市川【訪問入浴介護】千葉県市川市行徳駅前2-20-9ラグナパーク１０２", "url": "https://www.kaigokensaku.mhlw.go.jp/12/index.php?action_kouhyou_detail_004_kani=true&JigyosyoCd=1270802075-00&ServiceCd=120&Type=search", "url2": "https://www.saint-care.com/" }, "geometry": { "type": "Point", "coordinates": [ 139.912444183285544, 35.683372696732178 ] } },
{ "type": "Feature", "properties": { "内容": "株式会社愛和市川営業所【訪問入浴介護】千葉県市川市東菅野1-19-7", "url": "https://www.kaigokensaku.mhlw.go.jp/12/index.php?action_kouhyou_detail_004_kani=true&JigyosyoCd=1270800475-00&ServiceCd=120&Type=search", "url2": "http://www.aiwa-fukushi.com" }, "geometry": { "type": "Point", "coordinates": [ 139.929640400000039, 35.7297685 ] } },
{ "type": "Feature", "properties": { "内容": "株式会社　愛和　行徳営業所【訪問入浴介護】千葉県市川市末広一丁目9番5号朝日ハイツ　1号室", "url": "https://www.kaigokensaku.mhlw.go.jp/12/index.php?action_kouhyou_detail_004_kani=true&JigyosyoCd=1270803461-00&ServiceCd=120&Type=search", "url2": "http://www.aiwa-fukushi.com/" }, "geometry": { "type": "Point", "coordinates": [ 139.9207897, 35.6851499 ] } },
{ "type": "Feature", "properties": { "内容": "アースサポート市川【訪問入浴介護】千葉県市川市平田2丁目5番20号", "url": "https://www.kaigokensaku.mhlw.go.jp/12/index.php?action_kouhyou_detail_004_kani=true&JigyosyoCd=1270800681-00&ServiceCd=120&Type=search", "url2": "http://www.earthsupport.co.jp" }, "geometry": { "type": "Point", "coordinates": [ 139.921013499999958, 35.7253332 ] } },
{ "type": "Feature", "properties": { "内容": "アスケア訪問入浴　市川【訪問入浴介護】千葉県市川市市川南3-13-2サンライズ鈴木102", "url": "https://www.kaigokensaku.mhlw.go.jp/12/index.php?action_kouhyou_detail_004_kani=true&JigyosyoCd=1270803644-00&ServiceCd=120&Type=search", "url2": "https://www.as-care.co.jp/" }, "geometry": { "type": "Point", "coordinates": [ 139.901687635692582, 35.731260136796806 ] } },
{ "type": "Feature", "properties": { "内容": "アースサポート船橋高根【訪問入浴介護】千葉県船橋市高根台1丁目12番13号", "url": "https://www.kaigokensaku.mhlw.go.jp/12/index.php?action_kouhyou_detail_004_kani=true&JigyosyoCd=1270909870-00&ServiceCd=120&Type=search", "url2": "https://www.earthsupport.co.jp/" }, "geometry": { "type": "Point", "coordinates": [ 140.0290928, 35.7310534 ] } },
{ "type": "Feature", "properties": { "内容": "エルケア芝山訪問入浴センター【訪問入浴介護】千葉県船橋市芝山6-62-2", "url": "https://www.kaigokensaku.mhlw.go.jp/12/index.php?action_kouhyou_detail_004_kani=true&JigyosyoCd=1270906645-00&ServiceCd=120&Type=search", "url2": "https://www.l-care.jp/" }, "geometry": { "type": "Point", "coordinates": [ 140.028922299999977, 35.7258015 ] } },
{ "type": "Feature", "properties": { "内容": "アースサポート西船橋【訪問入浴介護】千葉県船橋市西船5丁目18番19号", "url": "https://www.kaigokensaku.mhlw.go.jp/12/index.php?action_kouhyou_detail_004_kani=true&JigyosyoCd=1270902750-00&ServiceCd=120&Type=search", "url2": "http://www.earthsupport.co.jp" }, "geometry": { "type": "Point", "coordinates": [ 139.9549442, 35.7111045 ] } },
{ "type": "Feature", "properties": { "内容": "セントケア船橋【訪問入浴介護】千葉県船橋市習志野台3-14-4　ニューメトロビル１Ｆ", "url": "https://www.kaigokensaku.mhlw.go.jp/12/index.php?action_kouhyou_detail_004_kani=true&JigyosyoCd=1270903915-00&ServiceCd=120&Type=search", "url2": null }, "geometry": { "type": "Point", "coordinates": [ 140.044497, 35.7192733 ] } },
{ "type": "Feature", "properties": { "内容": "アスケア訪問入浴　船橋【訪問入浴介護】千葉県船橋市行田1-46-21", "url": "https://www.kaigokensaku.mhlw.go.jp/12/index.php?action_kouhyou_detail_004_kani=true&JigyosyoCd=1270904251-00&ServiceCd=120&Type=search", "url2": "https://www.as-care.co.jp/" }, "geometry": { "type": "Point", "coordinates": [ 139.980744611045111, 35.721816717631299 ] } },
{ "type": "Feature", "properties": { "内容": "アスケア訪問入浴　東船橋【訪問入浴介護】千葉県船橋市薬円台4-14-8ソフィー田園2階", "url": "https://www.kaigokensaku.mhlw.go.jp/12/index.php?action_kouhyou_detail_004_kani=true&JigyosyoCd=1270909623-00&ServiceCd=120&Type=search", "url2": "https://www.as-care.co.jp/" }, "geometry": { "type": "Point", "coordinates": [ 140.045096674510859, 35.715455616078337 ] } },
{ "type": "Feature", "properties": { "内容": "セントケア南房総【訪問入浴介護】千葉県館山市正木640-1", "url": "https://www.kaigokensaku.mhlw.go.jp/12/index.php?action_kouhyou_detail_004_kani=true&JigyosyoCd=1271000604-00&ServiceCd=120&Type=search", "url2": null }, "geometry": { "type": "Point", "coordinates": [ 139.872324299999946, 35.0131543 ] } },
{ "type": "Feature", "properties": { "内容": "訪問入浴みどりの風【訪問入浴介護】千葉県木更津市笹子553", "url": "https://www.kaigokensaku.mhlw.go.jp/12/index.php?action_kouhyou_detail_004_kani=true&JigyosyoCd=1271102707-00&ServiceCd=120&Type=search", "url2": "https://kaigo-midorinokaze.com/" }, "geometry": { "type": "Point", "coordinates": [ 139.990077400000018, 35.3899169 ] } },
{ "type": "Feature", "properties": { "内容": "エルケア木更津訪問入浴センター【訪問入浴介護】千葉県木更津市大和２－４－１VIOS木更津B号室", "url": "https://www.kaigokensaku.mhlw.go.jp/12/index.php?action_kouhyou_detail_004_kani=true&JigyosyoCd=1271101998-00&ServiceCd=120&Type=search", "url2": "https://www.l-care.jp/" }, "geometry": { "type": "Point", "coordinates": [ 139.932012, 35.379596200000016 ] } },
{ "type": "Feature", "properties": { "内容": "セントケア木更津【訪問入浴介護】千葉県木更津市畑沢南3-13-19", "url": "https://www.kaigokensaku.mhlw.go.jp/12/index.php?action_kouhyou_detail_004_kani=true&JigyosyoCd=1271101212-00&ServiceCd=120&Type=search", "url2": null }, "geometry": { "type": "Point", "coordinates": [ 139.907203900000013, 35.3414793 ] } },
{ "type": "Feature", "properties": { "内容": "アースサポート木更津【訪問入浴介護】千葉県木更津市木更津2丁目2番41号", "url": "https://www.kaigokensaku.mhlw.go.jp/12/index.php?action_kouhyou_detail_004_kani=true&JigyosyoCd=1271101360-00&ServiceCd=120&Type=search", "url2": "https://www.earthsupport.co.jp/" }, "geometry": { "type": "Point", "coordinates": [ 139.931464900000037, 35.3818598 ] } },
{ "type": "Feature", "properties": { "内容": "セントケア松戸【訪問入浴介護】千葉県松戸市馬橋2436-42F", "url": "https://www.kaigokensaku.mhlw.go.jp/12/index.php?action_kouhyou_detail_004_kani=true&JigyosyoCd=1271203497-00&ServiceCd=120&Type=search", "url2": "http://www.saint-care.com/" }, "geometry": { "type": "Point", "coordinates": [ 139.923540800000012, 35.8135212 ] } },
{ "type": "Feature", "properties": { "内容": "訪問入浴だん【訪問入浴介護】千葉県松戸市上本郷901-1ｽｽﾞｷﾋﾞﾙ401", "url": "https://www.kaigokensaku.mhlw.go.jp/12/index.php?action_kouhyou_detail_004_kani=true&JigyosyoCd=1271209791-00&ServiceCd=120&Type=search", "url2": "https://green070411.studio.site/" }, "geometry": { "type": "Point", "coordinates": [ 139.9123629, 35.8004402 ] } },
{ "type": "Feature", "properties": { "内容": "ニチイケアセンター稔台【訪問入浴介護】千葉県松戸市稔台2-1-17", "url": "https://www.kaigokensaku.mhlw.go.jp/12/index.php?action_kouhyou_detail_004_kani=true&JigyosyoCd=1271200048-00&ServiceCd=120&Type=search", "url2": "http://www.nichiigakkan.co.jp" }, "geometry": { "type": "Point", "coordinates": [ 139.9312549, 35.7859081 ] } },
{ "type": "Feature", "properties": { "内容": "エルケア松戸訪問入浴センター【訪問入浴介護】千葉県松戸市常盤平1-4-1", "url": "https://www.kaigokensaku.mhlw.go.jp/12/index.php?action_kouhyou_detail_004_kani=true&JigyosyoCd=1271206466-00&ServiceCd=120&Type=search", "url2": "http://www.l-care.jp" }, "geometry": { "type": "Point", "coordinates": [ 139.946001160118811, 35.802519973879257 ] } },
{ "type": "Feature", "properties": { "内容": "アースサポート松戸【訪問入浴介護】千葉県松戸市松戸1764番地の1", "url": "https://www.kaigokensaku.mhlw.go.jp/12/index.php?action_kouhyou_detail_004_kani=true&JigyosyoCd=1271204297-00&ServiceCd=120&Type=search", "url2": "http://www.earthsupport.co.jp/" }, "geometry": { "type": "Point", "coordinates": [ 139.896766, 35.7805971 ] } },
{ "type": "Feature", "properties": { "内容": "アスケア訪問入浴　松戸【訪問入浴介護】千葉県松戸市上本郷891－3ロワジール北松戸103号室", "url": "https://www.kaigokensaku.mhlw.go.jp/12/index.php?action_kouhyou_detail_004_kani=true&JigyosyoCd=1271204594-00&ServiceCd=120&Type=search", "url2": "https://www.as-care.co.jp/" }, "geometry": { "type": "Point", "coordinates": [ 139.911549896805838, 35.799724175163043 ] } },
{ "type": "Feature", "properties": { "内容": "アスケア訪問入浴　東松戸【訪問入浴介護】千葉県松戸市常盤平3-9-8常盤平３丁目テナント１階", "url": "https://www.kaigokensaku.mhlw.go.jp/12/index.php?action_kouhyou_detail_004_kani=true&JigyosyoCd=1271209346-00&ServiceCd=120&Type=search", "url2": "https://www.as-care.co.jp/" }, "geometry": { "type": "Point", "coordinates": [ 139.951954494171588, 35.803264265050984 ] } },
{ "type": "Feature", "properties": { "内容": "トータルサポート・ノダ指定訪問入浴介護事業所【訪問入浴介護】千葉県野田市柳沢24番地", "url": "https://www.kaigokensaku.mhlw.go.jp/12/index.php?action_kouhyou_detail_004_kani=true&JigyosyoCd=1271300657-00&ServiceCd=120&Type=search", "url2": "http://www.ts-noda.co.jp" }, "geometry": { "type": "Point", "coordinates": [ 139.867683599999964, 35.9534812 ] } },
{ "type": "Feature", "properties": { "内容": "アースサポート野田【訪問入浴介護】千葉県野田市尾崎837番地の56", "url": "https://www.kaigokensaku.mhlw.go.jp/12/index.php?action_kouhyou_detail_004_kani=true&JigyosyoCd=1271301531-00&ServiceCd=120&Type=search", "url2": "https://www.earthsupport.co.jp/" }, "geometry": { "type": "Point", "coordinates": [ 139.834221800000023, 35.9789662 ] } },
{ "type": "Feature", "properties": { "内容": "MeguruCare訪問入浴介護事業所【訪問入浴介護】千葉県野田市岩名2-2-5エリタージュ・メゾン1号棟", "url": "https://www.kaigokensaku.mhlw.go.jp/12/index.php?action_kouhyou_detail_004_kani=true&JigyosyoCd=1271302620-00&ServiceCd=120&Type=search", "url2": null }, "geometry": { "type": "Point", "coordinates": [ 139.835506, 35.9759201 ] } },
{ "type": "Feature", "properties": { "内容": "セントケア茂原【訪問入浴介護】千葉県茂原市鷲巣706-2", "url": "https://www.kaigokensaku.mhlw.go.jp/12/index.php?action_kouhyou_detail_004_kani=true&JigyosyoCd=1271501163-00&ServiceCd=120&Type=search", "url2": "https://www.saint-care.com/chiba/" }, "geometry": { "type": "Point", "coordinates": [ 140.280246700000021, 35.4242109 ] } },
{ "type": "Feature", "properties": { "内容": "訪問入浴くるみ【訪問入浴介護】千葉県茂原市北塚113", "url": "https://www.kaigokensaku.mhlw.go.jp/12/index.php?action_kouhyou_detail_004_kani=true&JigyosyoCd=1271502765-00&ServiceCd=120&Type=search", "url2": null }, "geometry": { "type": "Point", "coordinates": [ 140.314873744180289, 35.46621009093527 ] } },
{ "type": "Feature", "properties": { "内容": "リンクス訪問入浴茂原【訪問入浴介護】千葉県茂原市東茂原15-13", "url": "https://www.kaigokensaku.mhlw.go.jp/12/index.php?action_kouhyou_detail_004_kani=true&JigyosyoCd=1271502625-00&ServiceCd=120&Type=search", "url2": "https://kt-group.jp" }, "geometry": { "type": "Point", "coordinates": [ 140.3233912, 35.4130975 ] } },
{ "type": "Feature", "properties": { "内容": "アースサポート茂原【訪問入浴介護】千葉県茂原市茂原640番地10", "url": "https://www.kaigokensaku.mhlw.go.jp/12/index.php?action_kouhyou_detail_004_kani=true&JigyosyoCd=1271501551-00&ServiceCd=120&Type=search", "url2": "https://www.earthsupport.co.jp/" }, "geometry": { "type": "Point", "coordinates": [ 140.302407799999969, 35.42347 ] } },
{ "type": "Feature", "properties": { "内容": "ケアスタッフ成田【訪問入浴介護】千葉県成田市公津の杜３－３－１三恵ビル２階", "url": "https://www.kaigokensaku.mhlw.go.jp/12/index.php?action_kouhyou_detail_004_kani=true&JigyosyoCd=1271600767-00&ServiceCd=120&Type=search", "url2": "https://jhsnarita.jimdofree.com/" }, "geometry": { "type": "Point", "coordinates": [ 140.2954866, 35.7576056 ] } },
{ "type": "Feature", "properties": { "内容": "ＳＯＭＰＯケア成田訪問入浴【訪問入浴介護】千葉県成田市飯仲28-18", "url": "https://www.kaigokensaku.mhlw.go.jp/12/index.php?action_kouhyou_detail_004_kani=true&JigyosyoCd=1271601765-00&ServiceCd=120&Type=search", "url2": null }, "geometry": { "type": "Point", "coordinates": [ 140.299987799999968, 35.753317200000026 ] } },
{ "type": "Feature", "properties": { "内容": "訪問入浴介護事業所玲光苑【訪問入浴介護】千葉県成田市新町１０３７－６３", "url": "https://www.kaigokensaku.mhlw.go.jp/12/index.php?action_kouhyou_detail_004_kani=true&JigyosyoCd=1271600130-00&ServiceCd=120&Type=search", "url2": "http://www.reikouen.or.jp" }, "geometry": { "type": "Point", "coordinates": [ 140.311745200000018, 35.7809653 ] } },
{ "type": "Feature", "properties": { "内容": "アースサポート成田【訪問入浴介護】千葉県成田市不動ヶ岡2118番地32", "url": "https://www.kaigokensaku.mhlw.go.jp/12/index.php?action_kouhyou_detail_004_kani=true&JigyosyoCd=1271601054-00&ServiceCd=120&Type=search", "url2": "https://www.earthsupport.co.jp/" }, "geometry": { "type": "Point", "coordinates": [ 140.3119398, 35.7740968 ] } },
{ "type": "Feature", "properties": { "内容": "ケアスタッフ佐倉【訪問入浴介護】千葉県佐倉市角来448-6", "url": "https://www.kaigokensaku.mhlw.go.jp/12/index.php?action_kouhyou_detail_004_kani=true&JigyosyoCd=1271701631-00&ServiceCd=120&Type=search", "url2": "https://jhsnarita.jimdofree.com/" }, "geometry": { "type": "Point", "coordinates": [ 140.20290849081573, 35.731523237078989 ] } },
{ "type": "Feature", "properties": { "内容": "ファーストステージユーカリが丘訪問入浴【訪問入浴介護】千葉県佐倉市中志津3-34-13", "url": "https://www.kaigokensaku.mhlw.go.jp/12/index.php?action_kouhyou_detail_004_kani=true&JigyosyoCd=1271702530-00&ServiceCd=120&Type=search", "url2": "http://www.1st-kaigo.jp" }, "geometry": { "type": "Point", "coordinates": [ 140.158503171163943, 35.713595557246016 ] } },
{ "type": "Feature", "properties": { "内容": "アースサポート佐倉【訪問入浴介護】千葉県佐倉市表町3丁目12番地2", "url": "https://www.kaigokensaku.mhlw.go.jp/12/index.php?action_kouhyou_detail_004_kani=true&JigyosyoCd=1271701367-00&ServiceCd=120&Type=search", "url2": "https://www.earthsupport.co.jp" }, "geometry": { "type": "Point", "coordinates": [ 140.226200100000028, 35.7116348 ] } },
{ "type": "Feature", "properties": { "内容": "セントケア　佐倉【訪問入浴介護】千葉県佐倉市寺崎北4-7-6", "url": "https://www.kaigokensaku.mhlw.go.jp/12/index.php?action_kouhyou_detail_004_kani=true&JigyosyoCd=1271701235-00&ServiceCd=120&Type=search", "url2": "https://www.saint-care.com/" }, "geometry": { "type": "Point", "coordinates": [ 140.215548086446177, 35.711404734529459 ] } },
{ "type": "Feature", "properties": { "内容": "マーチン介護サービス東金【訪問入浴介護】千葉県東金市南上宿４－９", "url": "https://www.kaigokensaku.mhlw.go.jp/12/index.php?action_kouhyou_detail_004_kani=true&JigyosyoCd=1271800276-00&ServiceCd=120&Type=search", "url2": "http://www.medicalmartin.com" }, "geometry": { "type": "Point", "coordinates": [ 140.360593316368863, 35.555133542716945 ] } },
{ "type": "Feature", "properties": { "内容": "訪問入浴介護事業所　かざぐるま【訪問入浴介護】千葉県旭市三川セ４０７７番地", "url": "https://www.kaigokensaku.mhlw.go.jp/12/index.php?action_kouhyou_detail_004_kani=true&JigyosyoCd=1272000926-00&ServiceCd=120&Type=search", "url2": null }, "geometry": { "type": "Point", "coordinates": [ 140.683678522137456, 35.715900688407338 ] } },
{ "type": "Feature", "properties": { "内容": "アースサポート旭【訪問入浴介護】千葉県旭市二1859番地", "url": "https://www.kaigokensaku.mhlw.go.jp/12/index.php?action_kouhyou_detail_004_kani=true&JigyosyoCd=1272000553-00&ServiceCd=120&Type=search", "url2": "https://www.earthsupport.co.jp/" }, "geometry": { "type": "Point", "coordinates": [ 140.644833, 35.724327700000011 ] } },
{ "type": "Feature", "properties": { "内容": "東部訪問入浴事業やすらぎ【訪問入浴介護】千葉県習志野市屋敷５－１２－１１", "url": "https://www.kaigokensaku.mhlw.go.jp/12/index.php?action_kouhyou_detail_004_kani=true&JigyosyoCd=1272100189-00&ServiceCd=120&Type=search", "url2": "http://www.reikouen.or.jp" }, "geometry": { "type": "Point", "coordinates": [ 140.060614399999963, 35.6811528 ] } },
{ "type": "Feature", "properties": { "内容": "アースサポート習志野【訪問入浴介護】千葉県習志野市本大久保5丁目4番9", "url": "https://www.kaigokensaku.mhlw.go.jp/12/index.php?action_kouhyou_detail_004_kani=true&JigyosyoCd=1272101872-00&ServiceCd=120&Type=search", "url2": "http://www.earthsupport.co.jp/" }, "geometry": { "type": "Point", "coordinates": [ 140.0524011, 35.6857382 ] } },
{ "type": "Feature", "properties": { "内容": "有限会社あろんぐらいふ【訪問入浴介護】千葉県習志野市大久保４－３－７", "url": "https://www.kaigokensaku.mhlw.go.jp/12/index.php?action_kouhyou_detail_004_kani=true&JigyosyoCd=1272100247-00&ServiceCd=120&Type=search", "url2": null }, "geometry": { "type": "Point", "coordinates": [ 140.05305640000006, 35.6910987 ] } },
{ "type": "Feature", "properties": { "内容": "セントケア柏【訪問入浴介護】千葉県柏市柏4-6-12渋谷ビル２０１号", "url": "https://www.kaigokensaku.mhlw.go.jp/12/index.php?action_kouhyou_detail_004_kani=true&JigyosyoCd=1272202696-00&ServiceCd=120&Type=search", "url2": null }, "geometry": { "type": "Point", "coordinates": [ 139.975168899999971, 35.8592986 ] } },
{ "type": "Feature", "properties": { "内容": "ニチイケアセンター柏【訪問入浴介護】千葉県柏市新柏1-13-9ケアプラザ柏", "url": "https://www.kaigokensaku.mhlw.go.jp/12/index.php?action_kouhyou_detail_004_kani=true&JigyosyoCd=1272200021-00&ServiceCd=120&Type=search", "url2": "https://www.nichiigakkan.co.jp/" }, "geometry": { "type": "Point", "coordinates": [ 139.967804500000057, 35.8400752 ] } },
{ "type": "Feature", "properties": { "内容": "アースサポート柏【訪問入浴介護】千葉県柏市若葉町3番3号", "url": "https://www.kaigokensaku.mhlw.go.jp/12/index.php?action_kouhyou_detail_004_kani=true&JigyosyoCd=1272202829-00&ServiceCd=120&Type=search", "url2": "https://www.earthsupport.co.jp" }, "geometry": { "type": "Point", "coordinates": [ 139.969179100000019, 35.855081 ] } },
{ "type": "Feature", "properties": { "内容": "アスケア訪問入浴　柏【訪問入浴介護】千葉県柏市あけぼの１－６－１９", "url": "https://www.kaigokensaku.mhlw.go.jp/12/index.php?action_kouhyou_detail_004_kani=true&JigyosyoCd=1272204437-00&ServiceCd=120&Type=search", "url2": "https://www.as-care.co.jp/" }, "geometry": { "type": "Point", "coordinates": [ 139.972231888487357, 35.866517093967197 ] } },
{ "type": "Feature", "properties": { "内容": "訪問入浴Toiro【訪問入浴介護】千葉県柏市船戸1705－6", "url": "https://www.kaigokensaku.mhlw.go.jp/12/index.php?action_kouhyou_detail_004_kani=true&JigyosyoCd=1272207851-00&ServiceCd=120&Type=search", "url2": null }, "geometry": { "type": "Point", "coordinates": [ 139.9450996, 35.9135272 ] } },
{ "type": "Feature", "properties": { "内容": "セントケア勝浦【訪問入浴介護】千葉県勝浦市沢倉１６０-２ＭＫ第１ビル２階", "url": "https://www.kaigokensaku.mhlw.go.jp/12/index.php?action_kouhyou_detail_004_kani=true&JigyosyoCd=1272300250-00&ServiceCd=120&Type=search", "url2": null }, "geometry": { "type": "Point", "coordinates": [ 140.323221, 35.1560077 ] } },
{ "type": "Feature", "properties": { "内容": "訪問入浴七福の湯【訪問入浴介護】千葉県市原市喜多768-１ハイツ稲穂201号", "url": "https://www.kaigokensaku.mhlw.go.jp/12/index.php?action_kouhyou_detail_004_kani=true&JigyosyoCd=1272402833-00&ServiceCd=120&Type=search", "url2": null }, "geometry": { "type": "Point", "coordinates": [ 19.550161099999968, 60.2228591 ] } },
{ "type": "Feature", "properties": { "内容": "セントケア市原【訪問入浴介護】千葉県市原市惣社4-3-5", "url": "https://www.kaigokensaku.mhlw.go.jp/12/index.php?action_kouhyou_detail_004_kani=true&JigyosyoCd=1272401835-00&ServiceCd=120&Type=search", "url2": null }, "geometry": { "type": "Point", "coordinates": [ 140.109926399999949, 35.4983903 ] } },
{ "type": "Feature", "properties": { "内容": "アースサポート市原【訪問入浴介護】千葉県市原市五井中央東2丁目14番地13", "url": "https://www.kaigokensaku.mhlw.go.jp/12/index.php?action_kouhyou_detail_004_kani=true&JigyosyoCd=1272401397-00&ServiceCd=120&Type=search", "url2": "http://www.earthsupport.co.jp/" }, "geometry": { "type": "Point", "coordinates": [ 140.091430599999967, 35.5118547 ] } },
{ "type": "Feature", "properties": { "内容": "ムツミ訪問入浴【訪問入浴介護】千葉県市原市山田835番1", "url": "https://www.kaigokensaku.mhlw.go.jp/12/index.php?action_kouhyou_detail_004_kani=true&JigyosyoCd=1272401058-00&ServiceCd=120&Type=search", "url2": "https://kt-group.jp" }, "geometry": { "type": "Point", "coordinates": [ 140.12373718720238, 35.464487645000446 ] } },
{ "type": "Feature", "properties": { "内容": "スマイル訪問入浴【訪問入浴介護】千葉県市原市光風台二丁目380番地3", "url": "https://www.kaigokensaku.mhlw.go.jp/12/index.php?action_kouhyou_detail_004_kani=true&JigyosyoCd=1272402197-00&ServiceCd=120&Type=search", "url2": null }, "geometry": { "type": "Point", "coordinates": [ 140.113265987459272, 35.447166429421465 ] } },
{ "type": "Feature", "properties": { "内容": "アスケア訪問入浴　市原【訪問入浴介護】千葉県市原市姉崎西2-12-6RIVERSIDESQUARE102", "url": "https://www.kaigokensaku.mhlw.go.jp/12/index.php?action_kouhyou_detail_004_kani=true&JigyosyoCd=1272404045-00&ServiceCd=120&Type=search", "url2": "https://www.as-care.co.jp/" }, "geometry": { "type": "Point", "coordinates": [ 140.039626304299134, 35.478890583031593 ] } },
{ "type": "Feature", "properties": { "内容": "アスケア訪問入浴　流山【訪問入浴介護】千葉県流山市南流山4-6-15張替ビル101号室", "url": "https://www.kaigokensaku.mhlw.go.jp/12/index.php?action_kouhyou_detail_004_kani=true&JigyosyoCd=1272501303-00&ServiceCd=120&Type=search", "url2": "https://www.as-care.co.jp/" }, "geometry": { "type": "Point", "coordinates": [ 139.902007882208977, 35.840644497756287 ] } },
{ "type": "Feature", "properties": { "内容": "ファーストステージ居宅介護支援センター【訪問入浴介護】千葉県八千代市緑が丘1丁目1番地1号", "url": "https://www.kaigokensaku.mhlw.go.jp/12/index.php?action_kouhyou_detail_004_kani=true&JigyosyoCd=1272600998-00&ServiceCd=120&Type=search", "url2": "http://www.1st-kaigo.jp" }, "geometry": { "type": "Point", "coordinates": [ 140.07285550000006, 35.729578 ] } },
{ "type": "Feature", "properties": { "内容": "アースサポート八千代【訪問入浴介護】千葉県八千代市ゆりのき台4丁目7番地5", "url": "https://www.kaigokensaku.mhlw.go.jp/12/index.php?action_kouhyou_detail_004_kani=true&JigyosyoCd=1272602028-00&ServiceCd=120&Type=search", "url2": "http://www.earthsupport.co.jp/" }, "geometry": { "type": "Point", "coordinates": [ 140.104685, 35.730326 ] } },
{ "type": "Feature", "properties": { "内容": "エルケア八千代訪問入浴センター【訪問入浴介護】千葉県八千代市勝田台1-35-4ラレーブ勝田台１階", "url": "https://www.kaigokensaku.mhlw.go.jp/12/index.php?action_kouhyou_detail_004_kani=true&JigyosyoCd=1272602440-00&ServiceCd=120&Type=search", "url2": "https://www.l-care.jp/" }, "geometry": { "type": "Point", "coordinates": [ 140.129424865851746, 35.713092115573403 ] } },
{ "type": "Feature", "properties": { "内容": "セントケア八千代【訪問入浴介護】千葉県八千代市緑が丘2-2-10秋葉緑が丘ビル601", "url": "https://www.kaigokensaku.mhlw.go.jp/12/index.php?action_kouhyou_detail_004_kani=true&JigyosyoCd=1272602135-00&ServiceCd=120&Type=search", "url2": "http://www.saint-care.com/service/visit_bathing/" }, "geometry": { "type": "Point", "coordinates": [ 140.070972500000039, 35.7267755 ] } },
{ "type": "Feature", "properties": { "内容": "セントケア我孫子【訪問入浴介護】千葉県我孫子市泉1-17マークテラス天王台103号室", "url": "https://www.kaigokensaku.mhlw.go.jp/12/index.php?action_kouhyou_detail_004_kani=true&JigyosyoCd=1272700921-00&ServiceCd=120&Type=search", "url2": "https://www.saint-care.com/" }, "geometry": { "type": "Point", "coordinates": [ 140.035091299999976, 35.8716469 ] } },
{ "type": "Feature", "properties": { "内容": "ファーストステージ鎌ヶ谷訪問入浴【訪問入浴介護】千葉県鎌ケ谷市鎌ケ谷5-9-56", "url": "https://www.kaigokensaku.mhlw.go.jp/12/index.php?action_kouhyou_detail_004_kani=true&JigyosyoCd=1272901206-00&ServiceCd=120&Type=search", "url2": "http://www.1st-kaigo.jp" }, "geometry": { "type": "Point", "coordinates": [ 140.014737200000013, 35.7549803 ] } },
{ "type": "Feature", "properties": { "内容": "セントケア　鎌ケ谷【訪問入浴介護】千葉県鎌ケ谷市道野辺中央２－１－３３坪沼第２ビル　２０１号", "url": "https://www.kaigokensaku.mhlw.go.jp/12/index.php?action_kouhyou_detail_004_kani=true&JigyosyoCd=1272900596-00&ServiceCd=120&Type=search", "url2": "http://www.saint-care.com" }, "geometry": { "type": "Point", "coordinates": [ 139.996894336631811, 35.763838764328234 ] } },
{ "type": "Feature", "properties": { "内容": "セントケア君津【訪問入浴介護】千葉県君津市久保２－１２－１９", "url": "https://www.kaigokensaku.mhlw.go.jp/12/index.php?action_kouhyou_detail_004_kani=true&JigyosyoCd=1273000685-00&ServiceCd=120&Type=search", "url2": "https://www.saint-care.com/chiba/" }, "geometry": { "type": "Point", "coordinates": [ 139.902651800000058, 35.331014 ] } },
{ "type": "Feature", "properties": { "内容": "サボワール有限会社　ベル訪問入浴介護事業所【訪問入浴介護】千葉県君津市中島270番地１", "url": "https://www.kaigokensaku.mhlw.go.jp/12/index.php?action_kouhyou_detail_004_kani=true&JigyosyoCd=1273000214-00&ServiceCd=120&Type=search", "url2": "https://savwar.jp/" }, "geometry": { "type": "Point", "coordinates": [ 139.955251500000031, 35.3063627 ] } },
{ "type": "Feature", "properties": { "内容": "セントケア富津【訪問入浴介護】千葉県富津市西大和田916", "url": "https://www.kaigokensaku.mhlw.go.jp/12/index.php?action_kouhyou_detail_004_kani=true&JigyosyoCd=1273100543-00&ServiceCd=120&Type=search", "url2": "https://www.saint-care.com/" }, "geometry": { "type": "Point", "coordinates": [ 139.862701499999957, 35.2926747 ] } },
{ "type": "Feature", "properties": { "内容": "アースサポート富津【訪問入浴介護】千葉県富津市湊字長町721-5", "url": "https://www.kaigokensaku.mhlw.go.jp/12/index.php?action_kouhyou_detail_004_kani=true&JigyosyoCd=1273100840-00&ServiceCd=120&Type=search", "url2": "https://www.earthsupport.co.jp/" }, "geometry": { "type": "Point", "coordinates": [ 139.872377, 35.221969 ] } },
{ "type": "Feature", "properties": { "内容": "グッドライフ訪問入浴サービス【訪問入浴介護】千葉県富津市佐貫３２", "url": "https://www.kaigokensaku.mhlw.go.jp/12/index.php?action_kouhyou_detail_004_kani=true&JigyosyoCd=1273100394-00&ServiceCd=120&Type=search", "url2": null }, "geometry": { "type": "Point", "coordinates": [ 139.889875741940102, 35.263201538067371 ] } },
{ "type": "Feature", "properties": { "内容": "アースサポート浦安【訪問入浴介護】千葉県浦安市堀江1丁目30番10", "url": "https://www.kaigokensaku.mhlw.go.jp/12/index.php?action_kouhyou_detail_004_kani=true&JigyosyoCd=1273200871-00&ServiceCd=120&Type=search", "url2": "http://www.earthsupport.co.jp/" }, "geometry": { "type": "Point", "coordinates": [ 139.8963344, 35.6581275 ] } },
{ "type": "Feature", "properties": { "内容": "セントケア　四街道【訪問入浴介護】千葉県四街道市鹿渡1016-柏葉ビル2Ｆ", "url": "https://www.kaigokensaku.mhlw.go.jp/12/index.php?action_kouhyou_detail_004_kani=true&JigyosyoCd=1273300630-00&ServiceCd=120&Type=search", "url2": "https://www.saint-care.com/" }, "geometry": { "type": "Point", "coordinates": [ 140.167188900000014, 35.662777 ] } },
{ "type": "Feature", "properties": { "内容": "訪問入浴サービス夢人【訪問入浴介護】千葉県袖ケ浦市蔵波台2-2-5", "url": "https://www.kaigokensaku.mhlw.go.jp/12/index.php?action_kouhyou_detail_004_kani=true&JigyosyoCd=1273401008-00&ServiceCd=120&Type=search", "url2": "https://yumehito.jp/" }, "geometry": { "type": "Point", "coordinates": [ 139.988264500000014, 35.4406461 ] } },
{ "type": "Feature", "properties": { "内容": "孫の手ワーク八街【訪問入浴介護】千葉県八街市榎戸917-7ＳＫＹビル１Ｆ", "url": "https://www.kaigokensaku.mhlw.go.jp/12/index.php?action_kouhyou_detail_004_kani=true&JigyosyoCd=1273500551-00&ServiceCd=120&Type=search", "url2": "https://magonote-work-corporation.jimdosite.com" }, "geometry": { "type": "Point", "coordinates": [ 140.287711899999977, 35.68411 ] } },
{ "type": "Feature", "properties": { "内容": "ホワイトヴィラ印西指定訪問入浴介護事業者【訪問入浴介護】千葉県印西市内野1-7-1", "url": "https://www.kaigokensaku.mhlw.go.jp/12/index.php?action_kouhyou_detail_004_kani=true&JigyosyoCd=1273600062-00&ServiceCd=120&Type=search", "url2": null }, "geometry": { "type": "Point", "coordinates": [ 140.127124040051115, 35.796872022393515 ] } },
{ "type": "Feature", "properties": { "内容": "介護ステーションSefro【訪問入浴介護】千葉県白井市根125-13", "url": "https://www.kaigokensaku.mhlw.go.jp/12/index.php?action_kouhyou_detail_004_kani=true&JigyosyoCd=1274200532-00&ServiceCd=120&Type=search", "url2": "http://www.iwai-kankou.jp/介護ｽﾃｰｼｮﾝsefro" }, "geometry": { "type": "Point", "coordinates": [ 140.04996170000004, 35.786355899999982 ] } },
{ "type": "Feature", "properties": { "内容": "アースサポート白井【訪問入浴介護】千葉県白井市南山2丁目1番1号2", "url": "https://www.kaigokensaku.mhlw.go.jp/12/index.php?action_kouhyou_detail_004_kani=true&JigyosyoCd=1274200508-00&ServiceCd=120&Type=search", "url2": "https://www.earthsupport.co.jp/" }, "geometry": { "type": "Point", "coordinates": [ 140.0617466, 35.7817595 ] } },
{ "type": "Feature", "properties": { "内容": "ケアスタッフ八日市場【訪問入浴介護】千葉県匝瑳市飯倉1555-1", "url": "https://www.kaigokensaku.mhlw.go.jp/12/index.php?action_kouhyou_detail_004_kani=true&JigyosyoCd=1271900209-00&ServiceCd=120&Type=search", "url2": null }, "geometry": { "type": "Point", "coordinates": [ 140.518495499114664, 35.69983420477454 ] } },
{ "type": "Feature", "properties": { "内容": "ウエルシア介護サービス香取【訪問入浴介護】千葉県香取市北3丁目6-5アイビービル1階", "url": "https://www.kaigokensaku.mhlw.go.jp/12/index.php?action_kouhyou_detail_004_kani=true&JigyosyoCd=1278900889-00&ServiceCd=120&Type=search", "url2": "https://www.welcia-kaigo.co.jp" }, "geometry": { "type": "Point", "coordinates": [ 140.496989, 35.8968608 ] } },
{ "type": "Feature", "properties": { "内容": "ニチイケアセンター北佐原【訪問入浴介護】千葉県香取市篠原ロ字天洲1821-2", "url": "https://www.kaigokensaku.mhlw.go.jp/12/index.php?action_kouhyou_detail_004_kani=true&JigyosyoCd=1271400150-00&ServiceCd=120&Type=search", "url2": "https://www.nichiigakkan.co.jp/" }, "geometry": { "type": "Point", "coordinates": [ 140.517618, 35.91214 ] } },
{ "type": "Feature", "properties": { "内容": "アースサポート香取【訪問入浴介護】千葉県香取市北2丁目8番地1", "url": "https://www.kaigokensaku.mhlw.go.jp/12/index.php?action_kouhyou_detail_004_kani=true&JigyosyoCd=1278900327-00&ServiceCd=120&Type=search", "url2": "https://www.earthsupport.co.jp/" }, "geometry": { "type": "Point", "coordinates": [ 140.492941299999984, 35.8982463 ] } },
{ "type": "Feature", "properties": { "内容": "セントケア成東【訪問入浴介護】千葉県山武市成東499番３IMCⅣビル２階", "url": "https://www.kaigokensaku.mhlw.go.jp/12/index.php?action_kouhyou_detail_004_kani=true&JigyosyoCd=1279000457-00&ServiceCd=120&Type=search", "url2": "https://www.saint-care.com/chiba/" }, "geometry": { "type": "Point", "coordinates": [ 140.407985199999985, 35.60096690000001 ] } },
{ "type": "Feature", "properties": { "内容": "アースサポート山武【訪問入浴介護】千葉県山武市津辺245番地3", "url": "https://www.kaigokensaku.mhlw.go.jp/12/index.php?action_kouhyou_detail_004_kani=true&JigyosyoCd=1279000085-00&ServiceCd=120&Type=search", "url2": "https://www.earthsupport.co.jp/" }, "geometry": { "type": "Point", "coordinates": [ 140.409870700000056, 35.6065109 ] } },
{ "type": "Feature", "properties": { "内容": "合同会社　お風呂やさん【訪問入浴介護】千葉県いすみ市弥正４９２－５", "url": "https://www.kaigokensaku.mhlw.go.jp/12/index.php?action_kouhyou_detail_004_kani=true&JigyosyoCd=1278600497-00&ServiceCd=120&Type=search", "url2": null }, "geometry": { "type": "Point", "coordinates": [ 140.306277200000011, 35.2835323 ] } },
{ "type": "Feature", "properties": { "内容": "セントケア大網【訪問入浴介護】千葉県大網白里市大網128-3セントケア大網", "url": "https://www.kaigokensaku.mhlw.go.jp/12/index.php?action_kouhyou_detail_004_kani=true&JigyosyoCd=1275800520-00&ServiceCd=120&Type=search", "url2": "https://www.saint-care.com/chiba/" }, "geometry": { "type": "Point", "coordinates": [ 140.320173899999986, 35.5229023 ] } },
{ "type": "Feature", "properties": { "内容": "イーサービス大網【訪問入浴介護】千葉県大網白里市みずほ台２丁目１８番１", "url": "https://www.kaigokensaku.mhlw.go.jp/12/index.php?action_kouhyou_detail_004_kani=true&JigyosyoCd=1279200180-00&ServiceCd=120&Type=search", "url2": null }, "geometry": { "type": "Point", "coordinates": [ 140.302461699999981, 35.5120055 ] } },
{ "type": "Feature", "properties": { "内容": "リンクス訪問入浴【訪問入浴介護】千葉県大網白里市細草1170", "url": "https://www.kaigokensaku.mhlw.go.jp/12/index.php?action_kouhyou_detail_004_kani=true&JigyosyoCd=1279200024-00&ServiceCd=120&Type=search", "url2": "https://kt-group.jp" }, "geometry": { "type": "Point", "coordinates": [ 140.389371539347849, 35.49848110116767 ] } },
{ "type": "Feature", "properties": { "内容": "訪問入浴きぼう【訪問入浴介護】千葉県香取郡多古町染井１８３－１１０２号室", "url": "https://www.kaigokensaku.mhlw.go.jp/12/index.php?action_kouhyou_detail_004_kani=true&JigyosyoCd=1275100178-00&ServiceCd=120&Type=search", "url2": "https://sites.google.com/view/kibou-kureyon" }, "geometry": { "type": "Point", "coordinates": [ 140.456814500000064, 35.7366526 ] } },
{ "type": "Feature", "properties": { "内容": "アリィブ・モア睦沢営業所【訪問入浴介護】千葉県長生郡睦沢町小滝450-2リバーサイド101号室", "url": "https://www.kaigokensaku.mhlw.go.jp/12/index.php?action_kouhyou_detail_004_kani=true&JigyosyoCd=1276700075-00&ServiceCd=120&Type=search", "url2": null }, "geometry": { "type": "Point", "coordinates": [ 140.330868799999962, 35.365915199999989 ] } },
{ "type": "Feature", "properties": { "内容": "セントケア　大多喜【訪問入浴介護】千葉県夷隅郡大多喜町横山字大久保612-1", "url": "https://www.kaigokensaku.mhlw.go.jp/12/index.php?action_kouhyou_detail_004_kani=true&JigyosyoCd=1277200075-00&ServiceCd=120&Type=search", "url2": "https://www.saint-care.com/chiba/" }, "geometry": { "type": "Point", "coordinates": [ 140.240402, 35.303688 ] } }
]
}
