{
"type": "FeatureCollection",
"name": "geo_12_特別支援学校",
"crs": { "type": "name", "properties": { "name": "urn:ogc:def:crs:EPSG::6668" } },
"features": [
{ "type": "Feature", "properties": { "P29_001": "12105", "P29_002": "E112210000027", "P29_003": "16012", "P29_004": "千葉県立千葉聾学校", "P29_005": "千葉県千葉市緑区鎌取町65-1", "P29_006": "2", "P29_007": "0", "P29_008": "00", "P29_009": null }, "geometry": { "type": "Point", "coordinates": [ 140.180638600575747, 35.563922556899335 ] } },
{ "type": "Feature", "properties": { "P29_001": "12105", "P29_002": "E112210000045", "P29_003": "16012", "P29_004": "千葉県立袖ケ浦特別支援学校", "P29_005": "千葉県千葉市緑区誉田町1-45-1", "P29_006": "2", "P29_007": "0", "P29_008": "00", "P29_009": null }, "geometry": { "type": "Point", "coordinates": [ 140.193900295242742, 35.556947610808287 ] } },
{ "type": "Feature", "properties": { "P29_001": "12225", "P29_002": "E112210000152", "P29_003": "16012", "P29_004": "千葉県立君津特別支援学校", "P29_005": "千葉県君津市北子安6-14-1", "P29_006": "2", "P29_007": "0", "P29_008": "00", "P29_009": null }, "geometry": { "type": "Point", "coordinates": [ 139.921953438664133, 35.331317400408537 ] } },
{ "type": "Feature", "properties": { "P29_001": "12238", "P29_002": "E112210000205", "P29_003": "16012", "P29_004": "千葉県立夷隅特別支援学校", "P29_005": "千葉県いすみ市楽町30-1", "P29_006": "2", "P29_007": "0", "P29_008": "00", "P29_009": null }, "geometry": { "type": "Point", "coordinates": [ 140.317394456184786, 35.287187247550698 ] } },
{ "type": "Feature", "properties": { "P29_001": "12205", "P29_002": "E112210000287", "P29_003": "16012", "P29_004": "千葉県立安房特別支援学校", "P29_005": "千葉県館山市中里284-1", "P29_006": "2", "P29_007": "0", "P29_008": "01", "P29_009": null }, "geometry": { "type": "Point", "coordinates": [ 139.845947977737183, 34.928444838174848 ] } },
{ "type": "Feature", "properties": { "P29_001": "12239", "P29_002": "E112210000429", "P29_003": "16012", "P29_004": "千葉県立大網白里特別支援学校", "P29_005": "千葉県大網白里市細草1385-5", "P29_006": "2", "P29_007": "0", "P29_008": "00", "P29_009": null }, "geometry": { "type": "Point", "coordinates": [ 140.388008363158491, 35.496312042197381 ] } },
{ "type": "Feature", "properties": { "P29_001": "12104", "P29_002": "E112210000036", "P29_003": "16012", "P29_004": "千葉県立桜が丘特別支援学校", "P29_005": "千葉県千葉市若葉区加曽利町1538", "P29_006": "2", "P29_007": "0", "P29_008": "00", "P29_009": null }, "geometry": { "type": "Point", "coordinates": [ 140.169074733770145, 35.614494101367285 ] } },
{ "type": "Feature", "properties": { "P29_001": "12101", "P29_002": "E112210000054", "P29_003": "16012", "P29_004": "千葉県立仁戸名特別支援学校", "P29_005": "千葉県千葉市中央区仁戸名町673", "P29_006": "2", "P29_007": "0", "P29_008": "00", "P29_009": null }, "geometry": { "type": "Point", "coordinates": [ 140.159251347593283, 35.583850626301093 ] } },
{ "type": "Feature", "properties": { "P29_001": "12228", "P29_002": "E112210000161", "P29_003": "16012", "P29_004": "千葉県立四街道特別支援学校", "P29_005": "千葉県四街道市鹿渡934-45", "P29_006": "2", "P29_007": "0", "P29_008": "00", "P29_009": null }, "geometry": { "type": "Point", "coordinates": [ 140.165794460056702, 35.665056886543184 ] } },
{ "type": "Feature", "properties": { "P29_001": "12104", "P29_002": "E112210000312", "P29_003": "16012", "P29_004": "千葉市立養護学校", "P29_005": "千葉県千葉市若葉区大宮町1066-1", "P29_006": "3", "P29_007": "0", "P29_008": "00", "P29_009": null }, "geometry": { "type": "Point", "coordinates": [ 140.16690783342446, 35.597678347580548 ] } },
{ "type": "Feature", "properties": { "P29_001": "12103", "P29_002": "E112210000321", "P29_003": "16012", "P29_004": "千葉市立第二養護学校", "P29_005": "千葉県千葉市稲毛区轟町3-6-25", "P29_006": "3", "P29_007": "0", "P29_008": "00", "P29_009": null }, "geometry": { "type": "Point", "coordinates": [ 140.109531745144267, 35.631554180791746 ] } },
{ "type": "Feature", "properties": { "P29_001": "12203", "P29_002": "E112110000010", "P29_003": "16012", "P29_004": "筑波大学附属聴覚特別支援学校", "P29_005": "千葉県市川市国府台2-2-1", "P29_006": "1", "P29_007": "0", "P29_008": "00", "P29_009": null }, "geometry": { "type": "Point", "coordinates": [ 139.903011313065747, 35.743399760400052 ] } },
{ "type": "Feature", "properties": { "P29_001": "12204", "P29_002": "E112210000072", "P29_003": "16012", "P29_004": "千葉県立船橋特別支援学校", "P29_005": "千葉県船橋市上山町3-507", "P29_006": "2", "P29_007": "0", "P29_008": "01", "P29_009": "小学部" }, "geometry": { "type": "Point", "coordinates": [ 139.984491781022825, 35.734017660502921 ] } },
{ "type": "Feature", "properties": { "P29_001": "12207", "P29_002": "E112210000081", "P29_003": "16012", "P29_004": "千葉県立松戸特別支援学校", "P29_005": "千葉県松戸市栗ケ沢784-17", "P29_006": "2", "P29_007": "0", "P29_008": "00", "P29_009": null }, "geometry": { "type": "Point", "coordinates": [ 139.956659130152076, 35.81009177949192 ] } },
{ "type": "Feature", "properties": { "P29_001": "12217", "P29_002": "E112210000116", "P29_003": "16012", "P29_004": "千葉県立柏特別支援学校", "P29_005": "千葉県柏市十余二418-5", "P29_006": "2", "P29_007": "0", "P29_008": "00", "P29_009": null }, "geometry": { "type": "Point", "coordinates": [ 139.941626479378272, 35.888692162858227 ] } },
{ "type": "Feature", "properties": { "P29_001": "12222", "P29_002": "E112210000143", "P29_003": "16012", "P29_004": "千葉県立我孫子特別支援学校", "P29_005": "千葉県我孫子市新木字大山下1685", "P29_006": "2", "P29_007": "0", "P29_008": "00", "P29_009": null }, "geometry": { "type": "Point", "coordinates": [ 140.100322869228791, 35.867005734791299 ] } },
{ "type": "Feature", "properties": { "P29_001": "12203", "P29_002": "E112210000223", "P29_003": "16012", "P29_004": "千葉県立市川特別支援学校", "P29_005": "千葉県市川市原木1862", "P29_006": "2", "P29_007": "0", "P29_008": "00", "P29_009": null }, "geometry": { "type": "Point", "coordinates": [ 139.946380573588641, 35.696289271126624 ] } },
{ "type": "Feature", "properties": { "P29_001": "12208", "P29_002": "E112210000250", "P29_003": "16012", "P29_004": "千葉県立野田特別支援学校", "P29_005": "千葉県野田市鶴奉147-1", "P29_006": "2", "P29_007": "0", "P29_008": "00", "P29_009": null }, "geometry": { "type": "Point", "coordinates": [ 139.881976604397892, 35.959894824105483 ] } },
{ "type": "Feature", "properties": { "P29_001": "12220", "P29_002": "E112210000278", "P29_003": "16012", "P29_004": "千葉県立特別支援学校流山高等学園", "P29_005": "千葉県流山市野々下2-496-1", "P29_006": "2", "P29_007": "0", "P29_008": "00", "P29_009": null }, "geometry": { "type": "Point", "coordinates": [ 139.933632092222808, 35.855371881485475 ] } },
{ "type": "Feature", "properties": { "P29_001": "12203", "P29_002": "E112210000296", "P29_003": "16012", "P29_004": "千葉県立特別支援学校市川大野高等学園", "P29_005": "千葉県市川市大野町4-2274", "P29_006": "2", "P29_007": "0", "P29_008": "00", "P29_009": null }, "geometry": { "type": "Point", "coordinates": [ 139.965077430835521, 35.754782098429629 ] } },
{ "type": "Feature", "properties": { "P29_001": "12222", "P29_002": "E112210000303", "P29_003": "16012", "P29_004": "千葉県立湖北特別支援学校", "P29_005": "千葉県我孫子市日秀70", "P29_006": "2", "P29_007": "0", "P29_008": "00", "P29_009": null }, "geometry": { "type": "Point", "coordinates": [ 140.086841525399734, 35.863728213851005 ] } },
{ "type": "Feature", "properties": { "P29_001": "12203", "P29_002": "E112210000330", "P29_003": "16012", "P29_004": "市川市立須和田の丘支援学校", "P29_005": "千葉県市川市須和田2-34-1", "P29_006": "3", "P29_007": "0", "P29_008": "00", "P29_009": null }, "geometry": { "type": "Point", "coordinates": [ 139.913339117722558, 35.738227666903875 ] } },
{ "type": "Feature", "properties": { "P29_001": "12203", "P29_002": "E112210000358", "P29_003": "16012", "P29_004": "市川市立須和田の丘支援学校稲越校舎", "P29_005": "千葉県市川市稲越町518-2", "P29_006": "3", "P29_007": "0", "P29_008": "00", "P29_009": null }, "geometry": { "type": "Point", "coordinates": [ 139.924151391363466, 35.754190411322021 ] } },
{ "type": "Feature", "properties": { "P29_001": "12204", "P29_002": "E112210000394", "P29_003": "16012", "P29_004": "千葉県立船橋夏見特別支援学校", "P29_005": "千葉県船橋市夏見台5-6-1", "P29_006": "2", "P29_007": "0", "P29_008": "00", "P29_009": null }, "geometry": { "type": "Point", "coordinates": [ 139.993051158930598, 35.72922927285699 ] } },
{ "type": "Feature", "properties": { "P29_001": "12207", "P29_002": "E112210000401", "P29_003": "16012", "P29_004": "千葉県立矢切特別支援学校", "P29_005": "千葉県松戸市中矢切54", "P29_006": "2", "P29_007": "0", "P29_008": "00", "P29_009": null }, "geometry": { "type": "Point", "coordinates": [ 139.887303226011113, 35.765783252500128 ] } },
{ "type": "Feature", "properties": { "P29_001": "12221", "P29_002": "E112210000134", "P29_003": "16012", "P29_004": "千葉県立八千代特別支援学校", "P29_005": "千葉県八千代市緑が丘西5-24", "P29_006": "2", "P29_007": "0", "P29_008": "00", "P29_009": null }, "geometry": { "type": "Point", "coordinates": [ 140.066738269701432, 35.742510926131409 ] } },
{ "type": "Feature", "properties": { "P29_001": "12103", "P29_002": "E112110000029", "P29_003": "16012", "P29_004": "千葉大学教育学部附属特別支援学校", "P29_005": "千葉県千葉市稲毛区長沼原町312", "P29_006": "1", "P29_007": "0", "P29_008": "00", "P29_009": null }, "geometry": { "type": "Point", "coordinates": [ 140.131631916494797, 35.668906327431785 ] } },
{ "type": "Feature", "properties": { "P29_001": "12228", "P29_002": "E112210000018", "P29_003": "16012", "P29_004": "千葉県立千葉盲学校", "P29_005": "千葉県四街道市大日468-1", "P29_006": "2", "P29_007": "0", "P29_008": "00", "P29_009": null }, "geometry": { "type": "Point", "coordinates": [ 140.163391783903705, 35.678129922725823 ] } },
{ "type": "Feature", "properties": { "P29_001": "12202", "P29_002": "E112210000063", "P29_003": "16012", "P29_004": "千葉県立銚子特別支援学校", "P29_005": "千葉県銚子市三崎町3-94-1", "P29_006": "2", "P29_007": "0", "P29_008": "00", "P29_009": null }, "geometry": { "type": "Point", "coordinates": [ 140.78398304879488, 35.706901468260646 ] } },
{ "type": "Feature", "properties": { "P29_001": "12231", "P29_002": "E112210000170", "P29_003": "16012", "P29_004": "千葉県立印旛特別支援学校", "P29_005": "千葉県印西市平賀1160-2", "P29_006": "2", "P29_007": "0", "P29_008": "00", "P29_009": null }, "geometry": { "type": "Point", "coordinates": [ 140.247337349216053, 35.753411820468116 ] } },
{ "type": "Feature", "properties": { "P29_001": "12342", "P29_002": "E112210000189", "P29_003": "16012", "P29_004": "千葉県立香取特別支援学校", "P29_005": "千葉県香取郡神崎町大貫383-13", "P29_006": "2", "P29_007": "0", "P29_008": "00", "P29_009": null }, "geometry": { "type": "Point", "coordinates": [ 140.419536568716836, 35.886522613555698 ] } },
{ "type": "Feature", "properties": { "P29_001": "12235", "P29_002": "E112210000232", "P29_003": "16012", "P29_004": "千葉県立八日市場特別支援学校", "P29_005": "千葉県匝瑳市平木930-1", "P29_006": "2", "P29_007": "0", "P29_008": "00", "P29_009": null }, "geometry": { "type": "Point", "coordinates": [ 140.599884815055873, 35.699887313494905 ] } },
{ "type": "Feature", "properties": { "P29_001": "12102", "P29_002": "E112210000269", "P29_003": "16012", "P29_004": "千葉県立千葉特別支援学校", "P29_005": "千葉県千葉市花見川区大日町1410-2", "P29_006": "2", "P29_007": "0", "P29_008": "00", "P29_009": null }, "geometry": { "type": "Point", "coordinates": [ 140.129604263808574, 35.68093107168135 ] } },
{ "type": "Feature", "properties": { "P29_001": "12106", "P29_002": "E112210000376", "P29_003": "16012", "P29_004": "千葉市立高等特別支援学校", "P29_005": "千葉県千葉市美浜区真砂5-18-1", "P29_006": "3", "P29_007": "0", "P29_008": "00", "P29_009": null }, "geometry": { "type": "Point", "coordinates": [ 140.061494306505267, 35.64395903721924 ] } },
{ "type": "Feature", "properties": { "P29_001": "12216", "P29_002": "E112210000385", "P29_003": "16012", "P29_004": "千葉県立習志野特別支援学校", "P29_005": "千葉県習志野市袖ケ浦5-11-1", "P29_006": "2", "P29_007": "0", "P29_008": "00", "P29_009": null }, "geometry": { "type": "Point", "coordinates": [ 140.028102555027232, 35.67039513705258 ] } },
{ "type": "Feature", "properties": { "P29_001": "12235", "P29_002": "E112210000410", "P29_003": "16012", "P29_004": "千葉県立飯高特別支援学校", "P29_005": "千葉県匝瑳市飯高1692", "P29_006": "2", "P29_007": "0", "P29_008": "00", "P29_009": null }, "geometry": { "type": "Point", "coordinates": [ 140.523909464254018, 35.749809023035347 ] } },
{ "type": "Feature", "properties": { "P29_001": "12213", "P29_002": "E112210000107", "P29_003": "16012", "P29_004": "千葉県立東金特別支援学校", "P29_005": "千葉県東金市北之幸谷502", "P29_006": "2", "P29_007": "0", "P29_008": "00", "P29_009": null }, "geometry": { "type": "Point", "coordinates": [ 140.381088730101027, 35.564212410899245 ] } },
{ "type": "Feature", "properties": { "P29_001": "12207", "P29_002": "E112210000090", "P29_003": "16012", "P29_004": "千葉県立つくし特別支援学校", "P29_005": "千葉県松戸市金ケ作292-2", "P29_006": "2", "P29_007": "0", "P29_008": "00", "P29_009": null }, "geometry": { "type": "Point", "coordinates": [ 139.966266017913028, 35.805094432640303 ] } },
{ "type": "Feature", "properties": { "P29_001": "12219", "P29_002": "E112210000125", "P29_003": "16012", "P29_004": "千葉県立市原特別支援学校", "P29_005": "千葉県市原市能満1519-5", "P29_006": "2", "P29_007": "0", "P29_008": "01", "P29_009": null }, "geometry": { "type": "Point", "coordinates": [ 140.129637454813377, 35.499070723715363 ] } },
{ "type": "Feature", "properties": { "P29_001": "12421", "P29_002": "E112210000198", "P29_003": "16012", "P29_004": "千葉県立長生特別支援学校", "P29_005": "千葉県長生郡一宮町東浪見6767-7", "P29_006": "2", "P29_007": "0", "P29_008": "00", "P29_009": null }, "geometry": { "type": "Point", "coordinates": [ 140.386950025619569, 35.359039917528271 ] } },
{ "type": "Feature", "properties": { "P29_001": "12229", "P29_002": "E112210000214", "P29_003": "16012", "P29_004": "千葉県立槇の実特別支援学校", "P29_005": "千葉県袖ケ浦市蔵波3108-113", "P29_006": "2", "P29_007": "0", "P29_008": "00", "P29_009": null }, "geometry": { "type": "Point", "coordinates": [ 140.022232158462543, 35.429465114172473 ] } },
{ "type": "Feature", "properties": { "P29_001": "12233", "P29_002": "E112210000241", "P29_003": "16012", "P29_004": "千葉県立富里特別支援学校", "P29_005": "千葉県富里市七栄483-2", "P29_006": "2", "P29_007": "0", "P29_008": "00", "P29_009": null }, "geometry": { "type": "Point", "coordinates": [ 140.320793889168556, 35.750590853540423 ] } },
{ "type": "Feature", "properties": { "P29_001": "12204", "P29_002": "E112210000349", "P29_003": "16012", "P29_004": "船橋市立船橋特別支援学校", "P29_005": "千葉県船橋市金堀町349-1", "P29_006": "3", "P29_007": "0", "P29_008": "00", "P29_009": null }, "geometry": { "type": "Point", "coordinates": [ 140.056293169726615, 35.758107833981605 ] } },
{ "type": "Feature", "properties": { "P29_001": "12204", "P29_002": "E112210000367", "P29_003": "16012", "P29_004": "船橋市立船橋特別支援学校高根台校舎", "P29_005": "千葉県船橋市高根台2-1-1", "P29_006": "3", "P29_007": "0", "P29_008": "00", "P29_009": null }, "geometry": { "type": "Point", "coordinates": [ 140.029108926954365, 35.73518525578011 ] } },
{ "type": "Feature", "properties": { "P29_001": "12329", "P29_002": "E112210000438", "P29_003": "16012", "P29_004": "千葉県立栄特別支援学校", "P29_005": "千葉県印旛郡栄町龍角寺1112-2", "P29_006": "2", "P29_007": "0", "P29_008": "00", "P29_009": null }, "geometry": { "type": "Point", "coordinates": [ 140.27253211206633, 35.828960409805362 ] } },
{ "type": "Feature", "properties": { "P29_001": "12220", "P29_002": "E112210000447", "P29_003": "16012", "P29_004": "千葉県立東葛の森特別支援学校", "P29_005": "千葉県流山市名都借140-1", "P29_006": "2", "P29_007": "0", "P29_008": "00", "P29_009": null }, "geometry": { "type": "Point", "coordinates": [ 139.938482537072417, 35.84883733709637 ] } },
{ "type": "Feature", "properties": { "P29_001": "12463", "P29_002": "E113212250010", "P29_003": "16012", "P29_004": "葛飾区立保田しおさい学校", "P29_005": "千葉県安房郡鋸南町大六180-2", "P29_006": "3", "P29_007": "0", "P29_008": "00", "P29_009": null }, "geometry": { "type": "Point", "coordinates": [ 139.836376383324733, 35.122756205729431 ] } },
{ "type": "Feature", "properties": { "P29_001": "12219", "P29_002": "E113299940040", "P29_003": "16012", "P29_004": "東京都立しいの木特別支援学校", "P29_005": "千葉県市原市椎津2590-2", "P29_006": "2", "P29_007": "0", "P29_008": "00", "P29_009": null }, "geometry": { "type": "Point", "coordinates": [ 140.039681169540501, 35.446768732277285 ] } },
{ "type": "Feature", "properties": { "P29_001": "12205", "P29_002": "E113211150013", "P29_003": "16012", "P29_004": "大田区立館山さざなみ学校", "P29_005": "千葉県館山市洲宮768-117", "P29_006": "3", "P29_007": "0", "P29_008": "00", "P29_009": null }, "geometry": { "type": "Point", "coordinates": [ 139.829816769591901, 34.951226216079078 ] } },
{ "type": "Feature", "properties": { "P29_001": "12223", "P29_002": "E113211950015", "P29_003": "16012", "P29_004": "板橋区立天津わかしお学校", "P29_005": "千葉県鴨川市天津1990", "P29_006": "3", "P29_007": "0", "P29_008": "00", "P29_009": null }, "geometry": { "type": "Point", "coordinates": [ 140.168640228517205, 35.124185480583613 ] } },
{ "type": "Feature", "properties": { "P29_001": "12204", "P29_002": "E112210000072", "P29_003": "16012", "P29_004": "千葉県立船橋特別支援学校", "P29_005": "千葉県船橋市金堀町349-1", "P29_006": "2", "P29_007": "0", "P29_008": "02", "P29_009": "中学部・高等部" }, "geometry": { "type": "Point", "coordinates": [ 140.056372430856698, 35.758120034716228 ] } },
{ "type": "Feature", "properties": { "P29_001": "12219", "P29_002": "E112210000125", "P29_003": "16012", "P29_004": "千葉県立市原特別支援学校", "P29_005": "千葉県市原市鶴舞1159-1", "P29_006": "2", "P29_007": "0", "P29_008": "02", "P29_009": "つるまい風の丘分校" }, "geometry": { "type": "Point", "coordinates": [ 140.153558195400223, 35.391195612130154 ] } },
{ "type": "Feature", "properties": { "P29_001": "12205", "P29_002": "E112210000287", "P29_003": "16012", "P29_004": "千葉県立安房特別支援学校", "P29_005": "千葉県館山市那古1672-7", "P29_006": "2", "P29_007": "0", "P29_008": "02", "P29_009": "館山聾分校" }, "geometry": { "type": "Point", "coordinates": [ 139.856683478860305, 35.016903675845001 ] } },
{ "type": "Feature", "properties": { "P29_001": "12223", "P29_002": "E112210000287", "P29_003": "16012", "P29_004": "千葉県立安房特別支援学校", "P29_005": "千葉県鴨川市横渚500", "P29_006": "2", "P29_007": "0", "P29_008": "03", "P29_009": "鴨川分教室" }, "geometry": { "type": "Point", "coordinates": [ 140.100834976157927, 35.099499403695923 ] } }
]
}
