{
"type": "FeatureCollection",
"name": "geo_12_大学",
"crs": { "type": "name", "properties": { "name": "urn:ogc:def:crs:EPSG::6668" } },
"features": [
{ "type": "Feature", "properties": { "P29_001": "12206", "P29_002": "F112310102397", "P29_003": "16007", "P29_004": "清和大学", "P29_005": "千葉県木更津市東太田3-4-5", "P29_006": "4", "P29_007": "0", "P29_008": "00", "P29_009": null }, "geometry": { "type": "Point", "coordinates": [ 139.95956442651314, 35.37644808293156 ] } },
{ "type": "Feature", "properties": { "P29_001": "12101", "P29_002": "F112310102413", "P29_003": "16007", "P29_004": "淑徳大学", "P29_005": "千葉県千葉市中央区大巌寺町200", "P29_006": "4", "P29_007": "0", "P29_008": "01", "P29_009": "千葉キャンパス" }, "geometry": { "type": "Point", "coordinates": [ 140.145072526260009, 35.57441084915655 ] } },
{ "type": "Feature", "properties": { "P29_001": "12218", "P29_002": "F112310102486", "P29_003": "16007", "P29_004": "国際武道大学", "P29_005": "千葉県勝浦市新官841", "P29_006": "4", "P29_007": "0", "P29_008": "00", "P29_009": null }, "geometry": { "type": "Point", "coordinates": [ 140.319782880729235, 35.1603188463476 ] } },
{ "type": "Feature", "properties": { "P29_001": "12441", "P29_002": "F112310102592", "P29_003": "16007", "P29_004": "三育学院大学", "P29_005": "千葉県夷隅郡大多喜町久我原1500", "P29_006": "4", "P29_007": "0", "P29_008": "00", "P29_009": null }, "geometry": { "type": "Point", "coordinates": [ 140.263718480980714, 35.241304136447091 ] } },
{ "type": "Feature", "properties": { "P29_001": "12223", "P29_002": "F112310102609", "P29_003": "16007", "P29_004": "亀田医療大学", "P29_005": "千葉県鴨川市横渚462", "P29_006": "4", "P29_007": "0", "P29_008": "00", "P29_009": null }, "geometry": { "type": "Point", "coordinates": [ 140.099993976041475, 35.101913691532616 ] } },
{ "type": "Feature", "properties": { "P29_001": "12103", "P29_002": "F112110102337", "P29_003": "16007", "P29_004": "千葉大学", "P29_005": "千葉県千葉市稲毛区弥生町1-33", "P29_006": "1", "P29_007": "0", "P29_008": "01", "P29_009": "西千葉キャンパス" }, "geometry": { "type": "Point", "coordinates": [ 140.102901241371313, 35.628746830318967 ] } },
{ "type": "Feature", "properties": { "P29_001": "12103", "P29_002": "F112310102422", "P29_003": "16007", "P29_004": "敬愛大学", "P29_005": "千葉県千葉市稲毛区穴川1-5-21", "P29_006": "4", "P29_007": "0", "P29_008": "00", "P29_009": "稲毛キャンパス" }, "geometry": { "type": "Point", "coordinates": [ 140.103870995143865, 35.633370395405223 ] } },
{ "type": "Feature", "properties": { "P29_001": "12103", "P29_002": "F112310102501", "P29_003": "16007", "P29_004": "千葉経済大学", "P29_005": "千葉県千葉市稲毛区轟町3-59-5", "P29_006": "4", "P29_007": "0", "P29_008": "00", "P29_009": null }, "geometry": { "type": "Point", "coordinates": [ 140.110697912829835, 35.628182978132052 ] } },
{ "type": "Feature", "properties": { "P29_001": "12104", "P29_002": "F112310102538", "P29_003": "16007", "P29_004": "東京情報大学", "P29_005": "千葉県千葉市若葉区御成台4-1", "P29_006": "4", "P29_007": "0", "P29_008": "00", "P29_009": null }, "geometry": { "type": "Point", "coordinates": [ 140.203237263163032, 35.637648276011966 ] } },
{ "type": "Feature", "properties": { "P29_001": "12104", "P29_002": "F112310102583", "P29_003": "16007", "P29_004": "植草学園大学", "P29_005": "千葉県千葉市若葉区小倉町1639-3", "P29_006": "4", "P29_007": "0", "P29_008": "00", "P29_009": null }, "geometry": { "type": "Point", "coordinates": [ 140.182462987626053, 35.63470950634202 ] } },
{ "type": "Feature", "properties": { "P29_001": "12217", "P29_002": "F112310102388", "P29_003": "16007", "P29_004": "開智国際大学", "P29_005": "千葉県柏市柏1225-6", "P29_006": "4", "P29_007": "0", "P29_008": "00", "P29_009": null }, "geometry": { "type": "Point", "coordinates": [ 139.988027770705315, 35.862434355428881 ] } },
{ "type": "Feature", "properties": { "P29_001": "12203", "P29_002": "F112310102440", "P29_003": "16007", "P29_004": "千葉商科大学", "P29_005": "千葉県市川市国府台1-3-1", "P29_006": "4", "P29_007": "0", "P29_008": "00", "P29_009": null }, "geometry": { "type": "Point", "coordinates": [ 139.907102122793049, 35.741589031647059 ] } },
{ "type": "Feature", "properties": { "P29_001": "12222", "P29_002": "F112310102459", "P29_003": "16007", "P29_004": "中央学院大学", "P29_005": "千葉県我孫子市久寺家451", "P29_006": "4", "P29_007": "0", "P29_008": "00", "P29_009": null }, "geometry": { "type": "Point", "coordinates": [ 140.018527274846747, 35.88278125847237 ] } },
{ "type": "Feature", "properties": { "P29_001": "12217", "P29_002": "F112310102468", "P29_003": "16007", "P29_004": "麗澤大学", "P29_005": "千葉県柏市光ケ丘2-1-1", "P29_006": "4", "P29_007": "0", "P29_008": "00", "P29_009": null }, "geometry": { "type": "Point", "coordinates": [ 139.95496672713989, 35.83315358058325 ] } },
{ "type": "Feature", "properties": { "P29_001": "12203", "P29_002": "F112310102477", "P29_003": "16007", "P29_004": "和洋女子大学", "P29_005": "千葉県市川市国府台2-3-1", "P29_006": "4", "P29_007": "0", "P29_008": "00", "P29_009": null }, "geometry": { "type": "Point", "coordinates": [ 139.904426237319996, 35.74400254480026 ] } },
{ "type": "Feature", "properties": { "P29_001": "12222", "P29_002": "F112310102529", "P29_003": "16007", "P29_004": "川村学園女子大学", "P29_005": "千葉県我孫子市下ケ戸1133", "P29_006": "4", "P29_007": "0", "P29_008": "00", "P29_009": null }, "geometry": { "type": "Point", "coordinates": [ 140.053132006839689, 35.87467836563409 ] } },
{ "type": "Feature", "properties": { "P29_001": "12207", "P29_002": "F112310102556", "P29_003": "16007", "P29_004": "聖徳大学", "P29_005": "千葉県松戸市岩瀬550", "P29_006": "4", "P29_007": "0", "P29_008": "00", "P29_009": null }, "geometry": { "type": "Point", "coordinates": [ 139.904203381432495, 35.784462748432333 ] } },
{ "type": "Feature", "properties": { "P29_001": "12220", "P29_002": "F112310102565", "P29_003": "16007", "P29_004": "江戸川大学", "P29_005": "千葉県流山市駒木474", "P29_006": "4", "P29_007": "0", "P29_008": "00", "P29_009": null }, "geometry": { "type": "Point", "coordinates": [ 139.938727509828624, 35.876666925430762 ] } },
{ "type": "Feature", "properties": { "P29_001": "12227", "P29_002": "F112310102574", "P29_003": "16007", "P29_004": "了徳寺大学", "P29_005": "千葉県浦安市明海5-8-1", "P29_006": "4", "P29_007": "0", "P29_008": "00", "P29_009": null }, "geometry": { "type": "Point", "coordinates": [ 139.926224065977237, 35.638338611437078 ] } },
{ "type": "Feature", "properties": { "P29_001": "12216", "P29_002": "F112310102431", "P29_003": "16007", "P29_004": "千葉工業大学", "P29_005": "千葉県習志野市津田沼2-17-1", "P29_006": "4", "P29_007": "0", "P29_008": "00", "P29_009": null }, "geometry": { "type": "Point", "coordinates": [ 140.020799031494789, 35.689248600741152 ] } },
{ "type": "Feature", "properties": { "P29_001": "12221", "P29_002": "F112310102510", "P29_003": "16007", "P29_004": "秀明大学", "P29_005": "千葉県八千代市大学町1-1", "P29_006": "4", "P29_007": "0", "P29_008": "00", "P29_009": null }, "geometry": { "type": "Point", "coordinates": [ 140.099286943311029, 35.772109354803156 ] } },
{ "type": "Feature", "properties": { "P29_001": "12231", "P29_002": "F112310102547", "P29_003": "16007", "P29_004": "東京基督教大学", "P29_005": "千葉県印西市内野3-301-5", "P29_006": "4", "P29_007": "0", "P29_008": "00", "P29_009": null }, "geometry": { "type": "Point", "coordinates": [ 140.125551307917476, 35.789857745376246 ] } },
{ "type": "Feature", "properties": { "P29_001": "12106", "P29_002": "F112210102353", "P29_003": "16007", "P29_004": "千葉県立保健医療大学", "P29_005": "千葉県千葉市美浜区若葉2-10-1", "P29_006": "2", "P29_007": "0", "P29_008": "00", "P29_009": null }, "geometry": { "type": "Point", "coordinates": [ 140.051563823019535, 35.652465142237126 ] } },
{ "type": "Feature", "properties": { "P29_001": "12106", "P29_002": "F112310102342", "P29_003": "16007", "P29_004": "放送大学", "P29_005": "千葉県千葉市美浜区若葉町2-11", "P29_006": "4", "P29_007": "0", "P29_008": "00", "P29_009": null }, "geometry": { "type": "Point", "coordinates": [ 140.049685591315352, 35.653223609899833 ] } },
{ "type": "Feature", "properties": { "P29_001": "12202", "P29_002": "F112310102360", "P29_003": "16007", "P29_004": "千葉科学大学", "P29_005": "千葉県銚子市潮見町3", "P29_006": "4", "P29_007": "0", "P29_008": "01", "P29_009": "本部キャンパス" }, "geometry": { "type": "Point", "coordinates": [ 140.846166062095705, 35.701488348830196 ] } },
{ "type": "Feature", "properties": { "P29_001": "12228", "P29_002": "F112310102379", "P29_003": "16007", "P29_004": "愛国学園大学", "P29_005": "千葉県四街道市四街道1532", "P29_006": "4", "P29_007": "0", "P29_008": "00", "P29_009": null }, "geometry": { "type": "Point", "coordinates": [ 140.159940472569161, 35.666382469841196 ] } },
{ "type": "Feature", "properties": { "P29_001": "12106", "P29_002": "F112310102495", "P29_003": "16007", "P29_004": "神田外語大学", "P29_005": "千葉県千葉市美浜区若葉1-4-1", "P29_006": "4", "P29_007": "0", "P29_008": "00", "P29_009": null }, "geometry": { "type": "Point", "coordinates": [ 140.044030152877525, 35.657309250935441 ] } },
{ "type": "Feature", "properties": { "P29_001": "12213", "P29_002": "F112310102404", "P29_003": "16007", "P29_004": "城西国際大学", "P29_005": "千葉県東金市求名1", "P29_006": "4", "P29_007": "0", "P29_008": "01", "P29_009": "千葉東金キャンパス" }, "geometry": { "type": "Point", "coordinates": [ 140.392430402868172, 35.58348474929587 ] } },
{ "type": "Feature", "properties": { "P29_001": "12211", "P29_002": "F109310101598", "P29_003": "16007", "P29_004": "国際医療福祉大学", "P29_005": "千葉県成田市公津の杜4-3", "P29_006": "4", "P29_007": "0", "P29_008": "05", "P29_009": "成田キャンパス" }, "geometry": { "type": "Point", "coordinates": [ 140.295875555791213, 35.76135981484677 ] } },
{ "type": "Feature", "properties": { "P29_001": "12227", "P29_002": "F111310102138", "P29_003": "16007", "P29_004": "明海大学", "P29_005": "千葉県浦安市明海1-2-1", "P29_006": "4", "P29_007": "0", "P29_008": "02", "P29_009": "浦安キャンパス" }, "geometry": { "type": "Point", "coordinates": [ 139.91993050122025, 35.644877290765535 ] } },
{ "type": "Feature", "properties": { "P29_001": "12101", "P29_002": "F112110102337", "P29_003": "16007", "P29_004": "千葉大学", "P29_005": "千葉県千葉市中央区亥鼻1-8-1", "P29_006": "1", "P29_007": "0", "P29_008": "02", "P29_009": "亥鼻キャンパス" }, "geometry": { "type": "Point", "coordinates": [ 140.131666345237363, 35.604035565841848 ] } },
{ "type": "Feature", "properties": { "P29_001": "12207", "P29_002": "F112110102337", "P29_003": "16007", "P29_004": "千葉大学", "P29_005": "千葉県松戸市松戸648", "P29_006": "1", "P29_007": "0", "P29_008": "03", "P29_009": "松戸キャンパス" }, "geometry": { "type": "Point", "coordinates": [ 139.901, 35.776 ] } },
{ "type": "Feature", "properties": { "P29_001": "12217", "P29_002": "F112110102337", "P29_003": "16007", "P29_004": "千葉大学", "P29_005": "千葉県柏市柏の葉6-2-1", "P29_006": "1", "P29_007": "0", "P29_008": "04", "P29_009": "柏の葉キャンパス" }, "geometry": { "type": "Point", "coordinates": [ 139.94817581765443, 35.893635184363426 ] } },
{ "type": "Feature", "properties": { "P29_001": "12202", "P29_002": "F112310102360", "P29_003": "16007", "P29_004": "千葉科学大学", "P29_005": "千葉県銚子市潮見町15-8", "P29_006": "4", "P29_007": "0", "P29_008": "02", "P29_009": "マリーナキャンパス" }, "geometry": { "type": "Point", "coordinates": [ 140.842654682032759, 35.706655980427477 ] } },
{ "type": "Feature", "properties": { "P29_001": "12101", "P29_002": "F112310102413", "P29_003": "16007", "P29_004": "淑徳大学", "P29_005": "千葉県千葉市中央区仁戸名町673", "P29_006": "4", "P29_007": "0", "P29_008": "03", "P29_009": "千葉第二キャンパス" }, "geometry": { "type": "Point", "coordinates": [ 140.159758180510437, 35.582865767832303 ] } },
{ "type": "Feature", "properties": { "P29_001": "12217", "P29_002": "F113110102700", "P29_003": "16007", "P29_004": "東京大学", "P29_005": "千葉県柏市柏の葉5-1-5", "P29_006": "1", "P29_007": "0", "P29_008": "04", "P29_009": "柏キャンパス" }, "geometry": { "type": "Point", "coordinates": [ 139.93649880139219, 35.901827246253369 ] } },
{ "type": "Feature", "properties": { "P29_001": "12203", "P29_002": "F113110102719", "P29_003": "16007", "P29_004": "東京医科歯科大学", "P29_005": "千葉県市川市国府台2-8-30", "P29_006": "1", "P29_007": "0", "P29_008": "02", "P29_009": "国府台キャンパス" }, "geometry": { "type": "Point", "coordinates": [ 139.904198567223119, 35.746067860044221 ] } },
{ "type": "Feature", "properties": { "P29_001": "12219", "P29_002": "F113310102911", "P29_003": "16007", "P29_004": "帝京平成大学", "P29_005": "千葉県市原市うるいど南4-1", "P29_006": "4", "P29_007": "0", "P29_008": "02", "P29_009": "千葉キャンパス" }, "geometry": { "type": "Point", "coordinates": [ 140.172969243970385, 35.504786725575308 ] } },
{ "type": "Feature", "properties": { "P29_001": "12219", "P29_002": "F113310102911", "P29_003": "16007", "P29_004": "帝京平成大学", "P29_005": "千葉県市原市ちはら台西6-19", "P29_006": "4", "P29_007": "0", "P29_008": "04", "P29_009": "ちはら台キャンパス" }, "geometry": { "type": "Point", "coordinates": [ 140.180645552136326, 35.529366639587273 ] } },
{ "type": "Feature", "properties": { "P29_001": "12231", "P29_002": "F113310103055", "P29_003": "16007", "P29_004": "順天堂大学", "P29_005": "千葉県印西市平賀学園台1-1", "P29_006": "4", "P29_007": "0", "P29_008": "02", "P29_009": "さくらキャンパス" }, "geometry": { "type": "Point", "coordinates": [ 140.256198567223123, 35.747794931946586 ] } },
{ "type": "Feature", "properties": { "P29_001": "12227", "P29_002": "F113310103055", "P29_003": "16007", "P29_004": "順天堂大学", "P29_005": "千葉県浦安市高洲2-5-1", "P29_006": "4", "P29_007": "0", "P29_008": "04", "P29_009": "浦安キャンパス" }, "geometry": { "type": "Point", "coordinates": [ 139.909037354230065, 35.636158340103179 ] } },
{ "type": "Feature", "properties": { "P29_001": "12227", "P29_002": "F113310103055", "P29_003": "16007", "P29_004": "順天堂大学", "P29_005": "千葉県浦安市日の出6-8-1", "P29_006": "4", "P29_007": "0", "P29_008": "05", "P29_009": "浦安・日の出キャンパス" }, "geometry": { "type": "Point", "coordinates": [ 139.931, 35.643 ] } },
{ "type": "Feature", "properties": { "P29_001": "12106", "P29_002": "F113310103279", "P29_003": "16007", "P29_004": "東京歯科大学", "P29_005": "千葉県千葉市美浜区真砂1-2-2", "P29_006": "4", "P29_007": "0", "P29_008": "02", "P29_009": "千葉キャンパス" }, "geometry": { "type": "Point", "coordinates": [ 140.070579973572535, 35.637336068790425 ] } },
{ "type": "Feature", "properties": { "P29_001": "12231", "P29_002": "F113310103313", "P29_003": "16007", "P29_004": "東京電機大学", "P29_005": "千葉県印西市武西学園台2-1200", "P29_006": "4", "P29_007": "0", "P29_008": "03", "P29_009": "千葉ニュータウンキャンパス" }, "geometry": { "type": "Point", "coordinates": [ 140.107960679757809, 35.796405416755391 ] } },
{ "type": "Feature", "properties": { "P29_001": "12208", "P29_002": "F113310103340", "P29_003": "16007", "P29_004": "東京理科大学", "P29_005": "千葉県野田市山崎2641", "P29_006": "4", "P29_007": "0", "P29_008": "03", "P29_009": "野田キャンパス" }, "geometry": { "type": "Point", "coordinates": [ 139.907155314956725, 35.918064628613543 ] } },
{ "type": "Feature", "properties": { "P29_001": "12204", "P29_002": "F113310103359", "P29_003": "16007", "P29_004": "東邦大学", "P29_005": "千葉県船橋市三山2-2-1", "P29_006": "4", "P29_007": "0", "P29_008": "02", "P29_009": "習志野キャンパス" }, "geometry": { "type": "Point", "coordinates": [ 140.048838787006957, 35.693421829497957 ] } },
{ "type": "Feature", "properties": { "P29_001": "12217", "P29_002": "F113310103386", "P29_003": "16007", "P29_004": "二松学舎大学", "P29_005": "千葉県柏市大井2590", "P29_006": "4", "P29_007": "0", "P29_008": "02", "P29_009": "柏キャンパス" }, "geometry": { "type": "Point", "coordinates": [ 140.012, 35.852 ] } },
{ "type": "Feature", "properties": { "P29_001": "12204", "P29_002": "F113310103395", "P29_003": "16007", "P29_004": "日本大学", "P29_005": "千葉県船橋市習志野台7-7-1", "P29_006": "4", "P29_007": "0", "P29_008": "04", "P29_009": "薬学部" }, "geometry": { "type": "Point", "coordinates": [ 140.053009830060546, 35.72837807738923 ] } },
{ "type": "Feature", "properties": { "P29_001": "12204", "P29_002": "F113310103395", "P29_003": "16007", "P29_004": "日本大学", "P29_005": "千葉県船橋市習志野台7-24-1", "P29_006": "4", "P29_007": "0", "P29_008": "05", "P29_009": "理工学部（船橋キャンパス）" }, "geometry": { "type": "Point", "coordinates": [ 140.057958713745677, 35.724720609041007 ] } },
{ "type": "Feature", "properties": { "P29_001": "12207", "P29_002": "F113310103395", "P29_003": "16007", "P29_004": "日本大学", "P29_005": "千葉県松戸市栄町西2-870-1", "P29_006": "4", "P29_007": "0", "P29_008": "06", "P29_009": "松戸歯学部" }, "geometry": { "type": "Point", "coordinates": [ 139.899285071755997, 35.81010663721235 ] } },
{ "type": "Feature", "properties": { "P29_001": "12216", "P29_002": "F113310103395", "P29_003": "16007", "P29_004": "日本大学", "P29_005": "千葉県習志野市泉町1-2-1", "P29_006": "4", "P29_007": "0", "P29_008": "07", "P29_009": "生産工学部（津田沼キャンパス）" }, "geometry": { "type": "Point", "coordinates": [ 140.051312595925538, 35.692429780280065 ] } },
{ "type": "Feature", "properties": { "P29_001": "12216", "P29_002": "F113310103395", "P29_003": "16007", "P29_004": "日本大学", "P29_005": "千葉県習志野市新栄2-11-1", "P29_006": "4", "P29_007": "0", "P29_008": "18", "P29_009": "生産工学部（実籾キャンパス）" }, "geometry": { "type": "Point", "coordinates": [ 140.0620334222059, 35.687857817050201 ] } },
{ "type": "Feature", "properties": { "P29_001": "12204", "P29_002": "F113310104009", "P29_003": "16007", "P29_004": "東京医療保健大学", "P29_005": "千葉県船橋市海神町西1-1042-2", "P29_006": "4", "P29_007": "0", "P29_008": "05", "P29_009": "船橋キャンパス" }, "geometry": { "type": "Point", "coordinates": [ 139.969476475094837, 35.703214762345453 ] } },
{ "type": "Feature", "properties": { "P29_001": "12212", "P29_002": "F114110104609", "P29_003": "16007", "P29_004": "総合研究大学院大学", "P29_005": "千葉県佐倉市城内町117", "P29_006": "1", "P29_007": "0", "P29_008": "03", "P29_009": "日本歴史研究コース" }, "geometry": { "type": "Point", "coordinates": [ 140.219371576288836, 35.724287597330267 ] } }
]
}
