{
"type": "FeatureCollection",
"name": "geo_12_通所リハビリテーション",
"crs": { "type": "name", "properties": { "name": "urn:ogc:def:crs:OGC:1.3:CRS84" } },
"features": [
{ "type": "Feature", "properties": { "内容": "柏戸病院【通所リハビリテーション】千葉県千葉市中央区長洲2-21-8", "url": "https://www.kaigokensaku.mhlw.go.jp/12/index.php?action_kouhyou_detail_004_kani=true&JigyosyoCd=1210110197-00&ServiceCd=160&Type=search", "url2": "http://www.kashiwado.com/" }, "geometry": { "type": "Point", "coordinates": [ 140.123276133065843, 35.599884987302794 ] } },
{ "type": "Feature", "properties": { "内容": "医療法人社団福生会　斎藤労災病院【通所リハビリテーション】千葉県千葉市中央区道場南1－12－7", "url": "https://www.kaigokensaku.mhlw.go.jp/12/index.php?action_kouhyou_detail_004_kani=true&JigyosyoCd=1210110700-00&ServiceCd=160&Type=search", "url2": "http://www.saito-rosai.or.jp" }, "geometry": { "type": "Point", "coordinates": [ 140.131091199999986, 35.6123702 ] } },
{ "type": "Feature", "properties": { "内容": "千葉診療所　通所リハビリテーション【通所リハビリテーション】千葉県千葉市中央区院内1-8-122階", "url": "https://www.kaigokensaku.mhlw.go.jp/12/index.php?action_kouhyou_detail_004_kani=true&JigyosyoCd=1210110668-00&ServiceCd=160&Type=search", "url2": "https://www.chibasin.or.jp/" }, "geometry": { "type": "Point", "coordinates": [ 140.123888, 35.6129693 ] } },
{ "type": "Feature", "properties": { "内容": "介護老人保健施設純恵の郷【通所リハビリテーション】千葉県千葉市中央区南生実町590-1", "url": "https://www.kaigokensaku.mhlw.go.jp/12/index.php?action_kouhyou_detail_004_kani=true&JigyosyoCd=1250180257-00&ServiceCd=160&Type=search", "url2": "http://naebafukushikai.com/" }, "geometry": { "type": "Point", "coordinates": [ 140.1489623, 35.5539965 ] } },
{ "type": "Feature", "properties": { "内容": "中村古峡記念病院通所リハビリテーション事業所【通所リハビリテーション】千葉県千葉市中央区千葉寺町188", "url": "https://www.kaigokensaku.mhlw.go.jp/12/index.php?action_kouhyou_detail_004_kani=true&JigyosyoCd=1210110163-00&ServiceCd=160&Type=search", "url2": "http://green-eminence.com/" }, "geometry": { "type": "Point", "coordinates": [ 140.12947250000002, 35.5954166 ] } },
{ "type": "Feature", "properties": { "内容": "千葉みなとリハビリテーション病院【通所リハビリテーション】千葉県千葉市中央区中央港１丁目１７番地１８号", "url": "https://www.kaigokensaku.mhlw.go.jp/12/index.php?action_kouhyou_detail_004_kani=true&JigyosyoCd=1210122895-00&ServiceCd=160&Type=search", "url2": "http://www.minato-reha.com/" }, "geometry": { "type": "Point", "coordinates": [ 140.101153399999987, 35.6034787 ] } },
{ "type": "Feature", "properties": { "内容": "独立行政法人地域医療機能推進機構千葉病院附属介護老人保健施設【通所リハビリテーション】千葉県千葉市中央区仁戸名町682番地", "url": "https://www.kaigokensaku.mhlw.go.jp/12/index.php?action_kouhyou_detail_004_kani=true&JigyosyoCd=1250180109-00&ServiceCd=160&Type=search", "url2": "https://www.chiba.jcho.go.jp/" }, "geometry": { "type": "Point", "coordinates": [ 140.162776, 35.582857 ] } },
{ "type": "Feature", "properties": { "内容": "介護老人保健施設　葵の園・はまの【通所リハビリテーション】千葉県千葉市中央区浜野町４２３番地１", "url": "https://www.kaigokensaku.mhlw.go.jp/12/index.php?action_kouhyou_detail_004_kani=true&JigyosyoCd=1250180190-00&ServiceCd=160&Type=search", "url2": "http://www.aoikai.jp" }, "geometry": { "type": "Point", "coordinates": [ 140.135127600000033, 35.55642 ] } },
{ "type": "Feature", "properties": { "内容": "うらら介護医療院【通所リハビリテーション】千葉県千葉市中央区千葉寺町188", "url": "https://www.kaigokensaku.mhlw.go.jp/12/index.php?action_kouhyou_detail_004_kani=true&JigyosyoCd=12B0100034-00&ServiceCd=160&Type=search", "url2": "http://www.green-eminence.com/urara" }, "geometry": { "type": "Point", "coordinates": [ 140.1297242, 35.5949492 ] } },
{ "type": "Feature", "properties": { "内容": "デイケアセンター和【通所リハビリテーション】千葉県千葉市中央区院内2-15-7", "url": "https://www.kaigokensaku.mhlw.go.jp/12/index.php?action_kouhyou_detail_004_kani=true&JigyosyoCd=1270102435-00&ServiceCd=160&Type=search", "url2": "http://www.myclinic.ne.jp/wada_iin05/pc/" }, "geometry": { "type": "Point", "coordinates": [ 140.124536199999966, 35.611523 ] } },
{ "type": "Feature", "properties": { "内容": "千葉きぼーるクリニック【通所リハビリテーション】千葉県千葉市中央区中央4-5-1Qiball2F", "url": "https://www.kaigokensaku.mhlw.go.jp/12/index.php?action_kouhyou_detail_004_kani=true&JigyosyoCd=1210120667-00&ServiceCd=160&Type=search", "url2": "https://www.josn.jp/chiba/" }, "geometry": { "type": "Point", "coordinates": [ 140.1232042, 35.6074121 ] } },
{ "type": "Feature", "properties": { "内容": "デイケアさつき【通所リハビリテーション】千葉市花見川区朝日ヶ丘1－10－15", "url": "https://www.kaigokensaku.mhlw.go.jp/12/index.php?action_kouhyou_detail_004_kani=true&JigyosyoCd=1270200510-00&ServiceCd=160&Type=search", "url2": "http://www.keiyukai.or.jp/" }, "geometry": { "type": "Point", "coordinates": [ 140.09165669999993, 35.656117 ] } },
{ "type": "Feature", "properties": { "内容": "介護老人保健施設まくはりの郷【通所リハビリテーション】千葉県千葉市花見川区幕張町5-405-2", "url": "https://www.kaigokensaku.mhlw.go.jp/12/index.php?action_kouhyou_detail_004_kani=true&JigyosyoCd=1250180083-00&ServiceCd=160&Type=search", "url2": "http://www.chibamink.jp/makuharinosato/" }, "geometry": { "type": "Point", "coordinates": [ 140.0598625, 35.6539255 ] } },
{ "type": "Feature", "properties": { "内容": "介護老人保健施設　ゆうあい苑【通所リハビリテーション】千葉県千葉市花見川区柏井町１１３２－１", "url": "https://www.kaigokensaku.mhlw.go.jp/12/index.php?action_kouhyou_detail_004_kani=true&JigyosyoCd=1250180208-00&ServiceCd=160&Type=search", "url2": "http://www.yuaien.tums-kaigo.com" }, "geometry": { "type": "Point", "coordinates": [ 140.104337671163847, 35.69853312876068 ] } },
{ "type": "Feature", "properties": { "内容": "宮野木台クリニック（短時間デイケアさつき）【通所リハビリテーション】千葉市花見川区宮野木台2-2-12", "url": "https://www.kaigokensaku.mhlw.go.jp/12/index.php?action_kouhyou_detail_004_kani=true&JigyosyoCd=1210124685-00&ServiceCd=160&Type=search", "url2": "http://www.keiyukai.or.jp/" }, "geometry": { "type": "Point", "coordinates": [ 140.0923996, 35.6566787 ] } },
{ "type": "Feature", "properties": { "内容": "介護老人保健施設ほうゆうの杜【通所リハビリテーション】千葉県千葉市花見川区犢橋町1105番地", "url": "https://www.kaigokensaku.mhlw.go.jp/12/index.php?action_kouhyou_detail_004_kani=true&JigyosyoCd=1250180232-00&ServiceCd=160&Type=search", "url2": "http://www.houyuunomori.jp/" }, "geometry": { "type": "Point", "coordinates": [ 140.1023007, 35.6664786 ] } },
{ "type": "Feature", "properties": { "内容": "タムス介護医療院花見川【通所リハビリテーション】千葉県千葉市花見川区柏井町1132-1", "url": "https://www.kaigokensaku.mhlw.go.jp/12/index.php?action_kouhyou_detail_004_kani=true&JigyosyoCd=12B0100067-00&ServiceCd=160&Type=search", "url2": "https://www.k-hanamigawa.tums-kaigo.com" }, "geometry": { "type": "Point", "coordinates": [ 140.1039844, 35.6987756 ] } },
{ "type": "Feature", "properties": { "内容": "介護老人保健施設　ほうゆう苑【通所リハビリテーション】千葉県千葉市花見川区犢橋町671-3", "url": "https://www.kaigokensaku.mhlw.go.jp/12/index.php?action_kouhyou_detail_004_kani=true&JigyosyoCd=1250180133-00&ServiceCd=160&Type=search", "url2": "http://www.houyuen.or.jp" }, "geometry": { "type": "Point", "coordinates": [ 140.112371, 35.672724 ] } },
{ "type": "Feature", "properties": { "内容": "介護老人保健施設　みどりの家【通所リハビリテーション】千葉市稲毛区天台4丁目１番１６号", "url": "https://www.kaigokensaku.mhlw.go.jp/12/index.php?action_kouhyou_detail_004_kani=true&JigyosyoCd=1250180067-00&ServiceCd=160&Type=search", "url2": "ansin-midori@ae.wakuwaku.com" }, "geometry": { "type": "Point", "coordinates": [ 140.1123997, 35.6379142 ] } },
{ "type": "Feature", "properties": { "内容": "北部診療所【通所リハビリテーション】千葉県千葉市稲毛区天台3-4-5", "url": "https://www.kaigokensaku.mhlw.go.jp/12/index.php?action_kouhyou_detail_004_kani=true&JigyosyoCd=1210111039-00&ServiceCd=160&Type=search", "url2": "http://www.hokubu-clinic.jp" }, "geometry": { "type": "Point", "coordinates": [ 140.116521333729565, 35.632040359740223 ] } },
{ "type": "Feature", "properties": { "内容": "介護老人保健施設アーバンケアセンター【通所リハビリテーション】千葉市稲毛区山王町１６８－８", "url": "https://www.kaigokensaku.mhlw.go.jp/12/index.php?action_kouhyou_detail_004_kani=true&JigyosyoCd=1250180026-00&ServiceCd=160&Type=search", "url2": "http://www.urbancare.jp/" }, "geometry": { "type": "Point", "coordinates": [ 140.13922649999995, 35.6661591 ] } },
{ "type": "Feature", "properties": { "内容": "介護老人保健施設ダンディライオン【通所リハビリテーション】千葉市稲毛区山王町174", "url": "https://www.kaigokensaku.mhlw.go.jp/12/index.php?action_kouhyou_detail_004_kani=true&JigyosyoCd=1250180175-00&ServiceCd=160&Type=search", "url2": "http://souju-kai.or.jp/dandelion/" }, "geometry": { "type": "Point", "coordinates": [ 140.139427699999942, 35.6647237 ] } },
{ "type": "Feature", "properties": { "内容": "若葉整形外科クリニック【通所リハビリテーション】千葉県千葉市若葉区みつわ台2-13-11", "url": "https://www.kaigokensaku.mhlw.go.jp/12/index.php?action_kouhyou_detail_004_kani=true&JigyosyoCd=1210119511-00&ServiceCd=160&Type=search", "url2": "http://www2.tba.t-com.ne.jp/wakaba-seikei/" }, "geometry": { "type": "Point", "coordinates": [ 140.132236599999942, 35.6398133 ] } },
{ "type": "Feature", "properties": { "内容": "医療法人社団共生会高根町整形外科【通所リハビリテーション】千葉県千葉市若葉区高根町979-1", "url": "https://www.kaigokensaku.mhlw.go.jp/12/index.php?action_kouhyou_detail_004_kani=true&JigyosyoCd=1210115279-00&ServiceCd=160&Type=search", "url2": "http://www.kyousei-kai.or.jp/" }, "geometry": { "type": "Point", "coordinates": [ 140.214709800000037, 35.5935055 ] } },
{ "type": "Feature", "properties": { "内容": "介護老人保健施設はつらつリハビリセンター【通所リハビリテーション】千葉県千葉市若葉区小間子町3番地132", "url": "https://www.kaigokensaku.mhlw.go.jp/12/index.php?action_kouhyou_detail_004_kani=true&JigyosyoCd=1250180091-00&ServiceCd=160&Type=search", "url2": "https://www.haturatu.or.jp" }, "geometry": { "type": "Point", "coordinates": [ 140.2545026, 35.6194844 ] } },
{ "type": "Feature", "properties": { "内容": "いずみ苑　リハビリケアセンター【通所リハビリテーション】千葉県千葉市若葉区高根町964-49", "url": "https://www.kaigokensaku.mhlw.go.jp/12/index.php?action_kouhyou_detail_004_kani=true&JigyosyoCd=1250180166-00&ServiceCd=160&Type=search", "url2": "http://homepage2.nifty.com/izumi-chiba/sennjyuHP/senjyu_top.html" }, "geometry": { "type": "Point", "coordinates": [ 140.219095599999946, 35.5943222 ] } },
{ "type": "Feature", "properties": { "内容": "医療法人社団詠冴会　千葉整形外科内科【通所リハビリテーション】千葉県千葉市緑区誉田町1-227-1", "url": "https://www.kaigokensaku.mhlw.go.jp/12/index.php?action_kouhyou_detail_004_kani=true&JigyosyoCd=1210118422-00&ServiceCd=160&Type=search", "url2": null }, "geometry": { "type": "Point", "coordinates": [ 140.194463199999973, 35.5524932 ] } },
{ "type": "Feature", "properties": { "内容": "通所リハビリテーション　坂の上外科【通所リハビリテーション】千葉市緑区土気町３１１", "url": "https://www.kaigokensaku.mhlw.go.jp/12/index.php?action_kouhyou_detail_004_kani=true&JigyosyoCd=1270500562-00&ServiceCd=160&Type=search", "url2": null }, "geometry": { "type": "Point", "coordinates": [ 140.28024860000005, 35.5294393 ] } },
{ "type": "Feature", "properties": { "内容": "千葉南病院【通所リハビリテーション】千葉県千葉市緑区高田町401番地5", "url": "https://www.kaigokensaku.mhlw.go.jp/12/index.php?action_kouhyou_detail_004_kani=true&JigyosyoCd=1210116855-00&ServiceCd=160&Type=search", "url2": "http://www.chibaminami-hp.jp/" }, "geometry": { "type": "Point", "coordinates": [ 140.211700599999972, 35.5543591 ] } },
{ "type": "Feature", "properties": { "内容": "医療法人社団圭恵会すずらんクリニック【通所リハビリテーション】千葉県千葉市緑区おゆみ野４－２－７", "url": "https://www.kaigokensaku.mhlw.go.jp/12/index.php?action_kouhyou_detail_004_kani=true&JigyosyoCd=1210123356-00&ServiceCd=160&Type=search", "url2": "http://suzuranclinic.jp/" }, "geometry": { "type": "Point", "coordinates": [ 140.180638700000031, 35.5600952 ] } },
{ "type": "Feature", "properties": { "内容": "医療法人社団豊心会　中野内科クリニック【通所リハビリテーション】千葉県千葉市緑区あすみが丘7-2-3", "url": "https://www.kaigokensaku.mhlw.go.jp/12/index.php?action_kouhyou_detail_004_kani=true&JigyosyoCd=1270501040-00&ServiceCd=160&Type=search", "url2": "http;//www.myclinic.ne.jp/nakano/pc/" }, "geometry": { "type": "Point", "coordinates": [ 140.265017299999954, 35.5206869 ] } },
{ "type": "Feature", "properties": { "内容": "ケアセンターけやき園通所リハビリテーション【通所リハビリテーション】千葉県千葉市緑区鎌取町81-1", "url": "https://www.kaigokensaku.mhlw.go.jp/12/index.php?action_kouhyou_detail_004_kani=true&JigyosyoCd=1250180141-00&ServiceCd=160&Type=search", "url2": "http://www.keyakien.org" }, "geometry": { "type": "Point", "coordinates": [ 140.178636899999987, 35.5645025 ] } },
{ "type": "Feature", "properties": { "内容": "介護老人保健施設　葵の園・緑区　通所リハビリテーション【通所リハビリテーション】千葉県千葉市緑区高田町2381-2", "url": "https://www.kaigokensaku.mhlw.go.jp/12/index.php?action_kouhyou_detail_004_kani=true&JigyosyoCd=1250180216-00&ServiceCd=160&Type=search", "url2": "https://www.aoikai.jp" }, "geometry": { "type": "Point", "coordinates": [ 140.23338560000002, 35.5450433 ] } },
{ "type": "Feature", "properties": { "内容": "介護老人保健施設総和苑【通所リハビリテーション】千葉県千葉市緑区高田町1084番地", "url": "https://www.kaigokensaku.mhlw.go.jp/12/index.php?action_kouhyou_detail_004_kani=true&JigyosyoCd=1250180117-00&ServiceCd=160&Type=search", "url2": "http://www.sowaen.or.jp" }, "geometry": { "type": "Point", "coordinates": [ 140.223318599999971, 35.5508403 ] } },
{ "type": "Feature", "properties": { "内容": "医療法人社団淳英会　おゆみの中央病院附属在宅クリニック【通所リハビリテーション】千葉市緑区大金沢町364番地1", "url": "https://www.kaigokensaku.mhlw.go.jp/12/index.php?action_kouhyou_detail_004_kani=true&JigyosyoCd=1210118778-00&ServiceCd=160&Type=search", "url2": "https://www.oyumino-central-homecare.jp" }, "geometry": { "type": "Point", "coordinates": [ 140.186083300000064, 35.5402976 ] } },
{ "type": "Feature", "properties": { "内容": "あすみが丘医院デイケアセンター【通所リハビリテーション】千葉県千葉市緑区あすみが丘2-17-5", "url": "https://www.kaigokensaku.mhlw.go.jp/12/index.php?action_kouhyou_detail_004_kani=true&JigyosyoCd=1210124776-00&ServiceCd=160&Type=search", "url2": null }, "geometry": { "type": "Point", "coordinates": [ 140.2698101, 35.5250492 ] } },
{ "type": "Feature", "properties": { "内容": "椎名崎クリニック【通所リハビリテーション】千葉県千葉市緑区おゆみ野南2-11-1", "url": "https://www.kaigokensaku.mhlw.go.jp/12/index.php?action_kouhyou_detail_004_kani=true&JigyosyoCd=1210121178-00&ServiceCd=160&Type=search", "url2": "http://www.kimeikai-kaigo.jp/" }, "geometry": { "type": "Point", "coordinates": [ 140.167325300000016, 35.5522514 ] } },
{ "type": "Feature", "properties": { "内容": "医療法人社団淳英会　おゆみの中央病院【通所リハビリテーション】千葉県千葉市緑区おゆみ野南六丁目49番地９", "url": "https://www.kaigokensaku.mhlw.go.jp/12/index.php?action_kouhyou_detail_004_kani=true&JigyosyoCd=1210122820-00&ServiceCd=160&Type=search", "url2": "http://oyumino-central.jp/" }, "geometry": { "type": "Point", "coordinates": [ 140.182860348934952, 35.539999617598731 ] } },
{ "type": "Feature", "properties": { "内容": "医療法人社団　淳英会　Jメディカルおゆみの【通所リハビリテーション】千葉県千葉市緑区おゆみ野三丁目16番地1ゆみーる鎌取ショッピングセンター5階", "url": "https://www.kaigokensaku.mhlw.go.jp/12/index.php?action_kouhyou_detail_004_kani=true&JigyosyoCd=1210125500-00&ServiceCd=160&Type=search", "url2": "https://www.j-medical-oyumino.jp/" }, "geometry": { "type": "Point", "coordinates": [ 140.1773005, 35.5613885 ] } },
{ "type": "Feature", "properties": { "内容": "介護老人保健施設おゆみの【通所リハビリテーション】千葉市緑区大金沢町３６４－１", "url": "https://www.kaigokensaku.mhlw.go.jp/12/index.php?action_kouhyou_detail_004_kani=true&JigyosyoCd=1250180158-00&ServiceCd=160&Type=search", "url2": "https://www.juneikai.or.jp" }, "geometry": { "type": "Point", "coordinates": [ 140.186083300000064, 35.5402976 ] } },
{ "type": "Feature", "properties": { "内容": "通所リハビリテーション篠崎医院【通所リハビリテーション】千葉県千葉市緑区土気町1632-6", "url": "https://www.kaigokensaku.mhlw.go.jp/12/index.php?action_kouhyou_detail_004_kani=true&JigyosyoCd=1210116293-00&ServiceCd=160&Type=search", "url2": "http://www.shigenseisyuukai.com/index.html" }, "geometry": { "type": "Point", "coordinates": [ 140.272787500000049, 35.5310381 ] } },
{ "type": "Feature", "properties": { "内容": "介護老人保健施設　葵の園・美浜　通所リハビリテーション【通所リハビリテーション】千葉県千葉市美浜区幸町1-38-5", "url": "https://www.kaigokensaku.mhlw.go.jp/12/index.php?action_kouhyou_detail_004_kani=true&JigyosyoCd=1250180224-00&ServiceCd=160&Type=search", "url2": "http://www.aoikai.jp/" }, "geometry": { "type": "Point", "coordinates": [ 140.09855573159939, 35.614829486993685 ] } },
{ "type": "Feature", "properties": { "内容": "幸町中央診療所【通所リハビリテーション】千葉県千葉市美浜区幸町2-12-6", "url": "https://www.kaigokensaku.mhlw.go.jp/12/index.php?action_kouhyou_detail_004_kani=true&JigyosyoCd=1210118570-00&ServiceCd=160&Type=search", "url2": "http://saiwaicho-clinic.com/" }, "geometry": { "type": "Point", "coordinates": [ 140.092971600000027, 35.621844 ] } },
{ "type": "Feature", "properties": { "内容": "吉野クリニック【通所リハビリテーション】千葉県銚子市松岸町4-778-51吉野クリニック2階", "url": "https://www.kaigokensaku.mhlw.go.jp/12/index.php?action_kouhyou_detail_004_kani=true&JigyosyoCd=1211310655-00&ServiceCd=160&Type=search", "url2": "http://yoshinoclinic.a.la9.jp/" }, "geometry": { "type": "Point", "coordinates": [ 140.791999, 35.7403048 ] } },
{ "type": "Feature", "properties": { "内容": "介護老人保健施設慈風苑【通所リハビリテーション】千葉県銚子市長塚町３丁目６０９番地の２", "url": "https://www.kaigokensaku.mhlw.go.jp/12/index.php?action_kouhyou_detail_004_kani=true&JigyosyoCd=1251380013-00&ServiceCd=160&Type=search", "url2": "http://www.jifuuen.jp/" }, "geometry": { "type": "Point", "coordinates": [ 140.801578799999987, 35.7392579 ] } },
{ "type": "Feature", "properties": { "内容": "海村医院本院【通所リハビリテーション】千葉県銚子市双葉町３番地の１９", "url": "https://www.kaigokensaku.mhlw.go.jp/12/index.php?action_kouhyou_detail_004_kani=true&JigyosyoCd=1211310291-00&ServiceCd=160&Type=search", "url2": "https://umimura.jp" }, "geometry": { "type": "Point", "coordinates": [ 140.828529300000014, 35.7329566 ] } },
{ "type": "Feature", "properties": { "内容": "海村医院分院【通所リハビリテーション】千葉県銚子市双葉町6番地の3", "url": "https://www.kaigokensaku.mhlw.go.jp/12/index.php?action_kouhyou_detail_004_kani=true&JigyosyoCd=1211310689-00&ServiceCd=160&Type=search", "url2": "https：//umimura.jp" }, "geometry": { "type": "Point", "coordinates": [ 140.828551599999969, 35.7327482 ] } },
{ "type": "Feature", "properties": { "内容": "介護老人保健施設なぎさ【通所リハビリテーション】千葉県銚子市松岸町4-778-55", "url": "https://www.kaigokensaku.mhlw.go.jp/12/index.php?action_kouhyou_detail_004_kani=true&JigyosyoCd=1251380021-00&ServiceCd=160&Type=search", "url2": "http://yoshinoclinic.a.la9.jp/" }, "geometry": { "type": "Point", "coordinates": [ 140.792376699999977, 35.7403353 ] } },
{ "type": "Feature", "properties": { "内容": "介護老人保健施設とよさと【通所リハビリテーション】千葉県銚子市豊里台１丁目１０４４－７４６", "url": "https://www.kaigokensaku.mhlw.go.jp/12/index.php?action_kouhyou_detail_004_kani=true&JigyosyoCd=1251380039-00&ServiceCd=160&Type=search", "url2": "https://watanabe-hospital.net/publics/index/244/" }, "geometry": { "type": "Point", "coordinates": [ 140.712281500000017, 35.7877493 ] } },
{ "type": "Feature", "properties": { "内容": "介護老人保健施設葵の園・市川【通所リハビリテーション】千葉県市川市大野町三丁目2128番1号", "url": "https://www.kaigokensaku.mhlw.go.jp/12/index.php?action_kouhyou_detail_004_kani=true&JigyosyoCd=1252780054-00&ServiceCd=160&Type=search", "url2": "http://www.aoikai.jp/ichikawa/" }, "geometry": { "type": "Point", "coordinates": [ 139.958720699999958, 35.7504139 ] } },
{ "type": "Feature", "properties": { "内容": "医療法人社団泰正会介護老人保健施設グレースケア市川【通所リハビリテーション】千葉県市川市大町43-3", "url": "https://www.kaigokensaku.mhlw.go.jp/12/index.php?action_kouhyou_detail_004_kani=true&JigyosyoCd=1252780062-00&ServiceCd=160&Type=search", "url2": "https://gracecare-ichikawa.com/" }, "geometry": { "type": "Point", "coordinates": [ 139.953584200000023, 35.7698161 ] } },
{ "type": "Feature", "properties": { "内容": "介護老人保健施設市川ゆうゆう【通所リハビリテーション】千葉県市川市柏井町４丁目２２９番地４", "url": "https://www.kaigokensaku.mhlw.go.jp/12/index.php?action_kouhyou_detail_004_kani=true&JigyosyoCd=1252780104-00&ServiceCd=160&Type=search", "url2": "https://www.ichikawayuuyuu-jadecom.jp/" }, "geometry": { "type": "Point", "coordinates": [ 139.96484780000003, 35.7513296 ] } },
{ "type": "Feature", "properties": { "内容": "らいおんハート内科整形外科リハビリクリニック【通所リハビリテーション】千葉県市川市行徳駅前２－１６－１アルファボックスビル", "url": "https://www.kaigokensaku.mhlw.go.jp/12/index.php?action_kouhyou_detail_004_kani=true&JigyosyoCd=1212717445-00&ServiceCd=160&Type=search", "url2": "https://lion-clinic.com/" }, "geometry": { "type": "Point", "coordinates": [ 139.913185, 35.6824969 ] } },
{ "type": "Feature", "properties": { "内容": "介護老人保健施設サンセール市川【通所リハビリテーション】千葉県市川市原木2丁目13番8号", "url": "https://www.kaigokensaku.mhlw.go.jp/12/index.php?action_kouhyou_detail_004_kani=true&JigyosyoCd=1252780112-00&ServiceCd=160&Type=search", "url2": "http://sin-ichikawa.com/" }, "geometry": { "type": "Point", "coordinates": [ 139.9432878, 35.69854960000005 ] } },
{ "type": "Feature", "properties": { "内容": "介護老人保健施設　市川あさひ荘【通所リハビリテーション】千葉県市川市大町５３７番地１０号", "url": "https://www.kaigokensaku.mhlw.go.jp/12/index.php?action_kouhyou_detail_004_kani=true&JigyosyoCd=1252780096-00&ServiceCd=160&Type=search", "url2": "http://www.asahiso.com/" }, "geometry": { "type": "Point", "coordinates": [ 139.953717800000049, 35.7609644 ] } },
{ "type": "Feature", "properties": { "内容": "大野中央病院【通所リハビリテーション】千葉県市川市下貝塚3-20-3", "url": "https://www.kaigokensaku.mhlw.go.jp/12/index.php?action_kouhyou_detail_004_kani=true&JigyosyoCd=1212714533-00&ServiceCd=160&Type=search", "url2": "https://www.ransen.or.jp" }, "geometry": { "type": "Point", "coordinates": [ 139.948757800000067, 35.7402252 ] } },
{ "type": "Feature", "properties": { "内容": "デイケアすみれ【通所リハビリテーション】千葉県市川市中国分2-11-6", "url": "https://www.kaigokensaku.mhlw.go.jp/12/index.php?action_kouhyou_detail_004_kani=true&JigyosyoCd=1270802711-00&ServiceCd=160&Type=search", "url2": "http://www.uedaiin.or.jp/group-daycare-sumire/" }, "geometry": { "type": "Point", "coordinates": [ 139.910893802516199, 35.75051616407336 ] } },
{ "type": "Feature", "properties": { "内容": "介護老人保健施設　サンシルバー市川【通所リハビリテーション】千葉県市川市北方町4丁目1460", "url": "https://www.kaigokensaku.mhlw.go.jp/12/index.php?action_kouhyou_detail_004_kani=true&JigyosyoCd=1252780070-00&ServiceCd=160&Type=search", "url2": "https://sunsilver-ichikawa.com/" }, "geometry": { "type": "Point", "coordinates": [ 139.954076799999939, 35.7380866 ] } },
{ "type": "Feature", "properties": { "内容": "国際医療福祉大学市川病院デイケアセンター【通所リハビリテーション】千葉県市川市国府台6-1-14", "url": "https://www.kaigokensaku.mhlw.go.jp/12/index.php?action_kouhyou_detail_004_kani=true&JigyosyoCd=1270805110-00&ServiceCd=160&Type=search", "url2": "https://ichikawa.iuhw.ac.jp/clinic/tsushoriha.html" }, "geometry": { "type": "Point", "coordinates": [ 139.902330300000017, 35.7559727 ] } },
{ "type": "Feature", "properties": { "内容": "介護老人保健施設　らいおんハート【通所リハビリテーション】千葉県市川市柏井町4丁目296-2", "url": "https://www.kaigokensaku.mhlw.go.jp/12/index.php?action_kouhyou_detail_004_kani=true&JigyosyoCd=1252780125-00&ServiceCd=160&Type=search", "url2": "https://lion-rouken.com/" }, "geometry": { "type": "Point", "coordinates": [ 139.9718052, 35.7540941 ] } },
{ "type": "Feature", "properties": { "内容": "長浜クリニック【通所リハビリテーション】千葉県市川市若宮2-13-6", "url": "https://www.kaigokensaku.mhlw.go.jp/12/index.php?action_kouhyou_detail_004_kani=true&JigyosyoCd=1212714715-00&ServiceCd=160&Type=search", "url2": "http://www.nagahama-clinic.com/daycare" }, "geometry": { "type": "Point", "coordinates": [ 139.9536551, 35.7225222 ] } },
{ "type": "Feature", "properties": { "内容": "らいおんクリニック押切デイケア【通所リハビリテーション】千葉県市川市押切３－７さとみの郷", "url": "https://www.kaigokensaku.mhlw.go.jp/12/index.php?action_kouhyou_detail_004_kani=true&JigyosyoCd=1212715522-00&ServiceCd=160&Type=search", "url2": null }, "geometry": { "type": "Point", "coordinates": [ 139.912412499999959, 35.6876829 ] } },
{ "type": "Feature", "properties": { "内容": "介護老人保健施設　エスポワール市川【通所リハビリテーション】千葉県市川市高谷３丁目１－２０", "url": "https://www.kaigokensaku.mhlw.go.jp/12/index.php?action_kouhyou_detail_004_kani=true&JigyosyoCd=1252780088-00&ServiceCd=160&Type=search", "url2": "https://www.esp-ichikawa.com/" }, "geometry": { "type": "Point", "coordinates": [ 139.941748599999983, 35.6973788 ] } },
{ "type": "Feature", "properties": { "内容": "吉岡医院　通所リハビリテーション【通所リハビリテーション】千葉県市川市市川2-28-15", "url": "https://www.kaigokensaku.mhlw.go.jp/12/index.php?action_kouhyou_detail_004_kani=true&JigyosyoCd=1212712545-00&ServiceCd=160&Type=search", "url2": null }, "geometry": { "type": "Point", "coordinates": [ 139.90656690000003, 35.7341261 ] } },
{ "type": "Feature", "properties": { "内容": "介護老人保健施設　ハートケア市川【通所リハビリテーション】千葉県市川市奉免町５９－２", "url": "https://www.kaigokensaku.mhlw.go.jp/12/index.php?action_kouhyou_detail_004_kani=true&JigyosyoCd=1252780039-00&ServiceCd=160&Type=search", "url2": "https://amg-hci.jp/" }, "geometry": { "type": "Point", "coordinates": [ 139.957029199999965, 35.7433054 ] } },
{ "type": "Feature", "properties": { "内容": "介護老人保健施設　大穴さくら苑【通所リハビリテーション】千葉県船橋市大穴北8-41-1", "url": "https://www.kaigokensaku.mhlw.go.jp/12/index.php?action_kouhyou_detail_004_kani=true&JigyosyoCd=1252880086-00&ServiceCd=160&Type=search", "url2": "http://care-net.biz/12/sakura-h/" }, "geometry": { "type": "Point", "coordinates": [ 140.041782300000023, 35.7432984 ] } },
{ "type": "Feature", "properties": { "内容": "船橋二和病院【通所リハビリテーション】千葉県船橋市二和東５－１－１", "url": "https://www.kaigokensaku.mhlw.go.jp/12/index.php?action_kouhyou_detail_004_kani=true&JigyosyoCd=1212810943-00&ServiceCd=160&Type=search", "url2": "http://www.futawa-hp.jp" }, "geometry": { "type": "Point", "coordinates": [ 140.021425499999964, 35.7509281 ] } },
{ "type": "Feature", "properties": { "内容": "介護老人保健施設ふなばし光陽【通所リハビリテーション】千葉県船橋市豊富町６４４－１２", "url": "https://www.kaigokensaku.mhlw.go.jp/12/index.php?action_kouhyou_detail_004_kani=true&JigyosyoCd=1252880102-00&ServiceCd=160&Type=search", "url2": "https://yotsuba-kai.or.jp/" }, "geometry": { "type": "Point", "coordinates": [ 140.062967, 35.7654307 ] } },
{ "type": "Feature", "properties": { "内容": "介護老人保健施設フェルマータ船橋【通所リハビリテーション】千葉県船橋市飯山満町1-822", "url": "https://www.kaigokensaku.mhlw.go.jp/12/index.php?action_kouhyou_detail_004_kani=true&JigyosyoCd=1252880060-00&ServiceCd=160&Type=search", "url2": "http://www.fff.or.jp/" }, "geometry": { "type": "Point", "coordinates": [ 140.01049009999997, 35.7093902 ] } },
{ "type": "Feature", "properties": { "内容": "おおすか整形外科【通所リハビリテーション】千葉県船橋市船橋市東船橋1-22-8", "url": "https://www.kaigokensaku.mhlw.go.jp/12/index.php?action_kouhyou_detail_004_kani=true&JigyosyoCd=1212817757-00&ServiceCd=160&Type=search", "url2": "https://reha.osukaseikei.com" }, "geometry": { "type": "Point", "coordinates": [ 140.003874099999962, 35.6974947 ] } },
{ "type": "Feature", "properties": { "内容": "介護老人保健施設船橋うぐいす園【通所リハビリテーション】千葉県船橋市高根町1-1", "url": "https://www.kaigokensaku.mhlw.go.jp/12/index.php?action_kouhyou_detail_004_kani=true&JigyosyoCd=1252880094-00&ServiceCd=160&Type=search", "url2": "https://uguisu-sk.com/" }, "geometry": { "type": "Point", "coordinates": [ 140.010548100000079, 35.7167922 ] } },
{ "type": "Feature", "properties": { "内容": "船橋市リハビリセンタークリニック【通所リハビリテーション】千葉県船橋市飯山満町2-519-3", "url": "https://www.kaigokensaku.mhlw.go.jp/12/index.php?action_kouhyou_detail_004_kani=true&JigyosyoCd=1212817161-00&ServiceCd=160&Type=search", "url2": "http://www.funabashi-rehacen.com" }, "geometry": { "type": "Point", "coordinates": [ 140.0226781, 35.7058378 ] } },
{ "type": "Feature", "properties": { "内容": "介護老人保健施設リハビリケア船橋【通所リハビリテーション】千葉県船橋市本町4-8-30", "url": "https://www.kaigokensaku.mhlw.go.jp/12/index.php?action_kouhyou_detail_004_kani=true&JigyosyoCd=1252880136-00&ServiceCd=160&Type=search", "url2": "https://rc-funabashi.jp/" }, "geometry": { "type": "Point", "coordinates": [ 139.991278400000027, 35.700866 ] } },
{ "type": "Feature", "properties": { "内容": "すこやかデイケアハウス【通所リハビリテーション】千葉県船橋市東船橋2－17－16", "url": "https://www.kaigokensaku.mhlw.go.jp/12/index.php?action_kouhyou_detail_004_kani=true&JigyosyoCd=1270906603-00&ServiceCd=160&Type=search", "url2": "http://ohisama-c.org/" }, "geometry": { "type": "Point", "coordinates": [ 140.003771599999936, 35.7023048 ] } },
{ "type": "Feature", "properties": { "内容": "介護老人保健施設なつみの郷【通所リハビリテーション】千葉県船橋市夏見台4丁目24番1号", "url": "https://www.kaigokensaku.mhlw.go.jp/12/index.php?action_kouhyou_detail_004_kani=true&JigyosyoCd=1250980040-00&ServiceCd=160&Type=search", "url2": "https://youandi.takaminefukushikai.com/高齢者支援/なつみの郷/" }, "geometry": { "type": "Point", "coordinates": [ 139.9891864, 35.715195 ] } },
{ "type": "Feature", "properties": { "内容": "介護老人保健施設船橋ケアセンター【通所リハビリテーション】千葉県船橋市高野台５－７４１－６", "url": "https://www.kaigokensaku.mhlw.go.jp/12/index.php?action_kouhyou_detail_004_kani=true&JigyosyoCd=1252880037-00&ServiceCd=160&Type=search", "url2": "https://funabashi-care.tmg.or.jp/" }, "geometry": { "type": "Point", "coordinates": [ 140.031295300000011, 35.7707877 ] } },
{ "type": "Feature", "properties": { "内容": "船橋市立リハビリテーション病院【通所リハビリテーション】千葉県船橋市夏見台4-26-1", "url": "https://www.kaigokensaku.mhlw.go.jp/12/index.php?action_kouhyou_detail_004_kani=true&JigyosyoCd=1212815777-00&ServiceCd=160&Type=search", "url2": "http://www.funabashi-reha.com/" }, "geometry": { "type": "Point", "coordinates": [ 139.996752, 35.7244162 ] } },
{ "type": "Feature", "properties": { "内容": "介護老人保健施設　はさま徳洲苑【通所リハビリテーション】千葉県船橋市飯山満町2-685-3", "url": "https://www.kaigokensaku.mhlw.go.jp/12/index.php?action_kouhyou_detail_004_kani=true&JigyosyoCd=1250980073-00&ServiceCd=160&Type=search", "url2": "https://www.hasatoku.jp/service/" }, "geometry": { "type": "Point", "coordinates": [ 140.0186516, 35.7092246 ] } },
{ "type": "Feature", "properties": { "内容": "介護老人保健施設オレンジガーデン・ケアセンター【通所リハビリテーション】千葉県船橋市芝山７丁目４１番１号", "url": "https://www.kaigokensaku.mhlw.go.jp/12/index.php?action_kouhyou_detail_004_kani=true&JigyosyoCd=1252880110-00&ServiceCd=160&Type=search", "url2": "http://www.orange-g.or.jp" }, "geometry": { "type": "Point", "coordinates": [ 140.026702, 35.7169063 ] } },
{ "type": "Feature", "properties": { "内容": "介護老人保健施設やすらぎ【通所リハビリテーション】千葉県船橋市市場３－３－１", "url": "https://www.kaigokensaku.mhlw.go.jp/12/index.php?action_kouhyou_detail_004_kani=true&JigyosyoCd=1252880045-00&ServiceCd=160&Type=search", "url2": "https://kaigo-yasuragi.jp/" }, "geometry": { "type": "Point", "coordinates": [ 139.997466700000018, 35.7008633 ] } },
{ "type": "Feature", "properties": { "内容": "介護老人保健施設　ロータスケアセンター【通所リハビリテーション】千葉県船橋市藤原5-23-1", "url": "https://www.kaigokensaku.mhlw.go.jp/12/index.php?action_kouhyou_detail_004_kani=true&JigyosyoCd=1252880078-00&ServiceCd=160&Type=search", "url2": "http://www.lotus-care.jp" }, "geometry": { "type": "Point", "coordinates": [ 139.981974900000068, 35.7404114 ] } },
{ "type": "Feature", "properties": { "内容": "介護老人保健施設千葉徳洲苑【通所リハビリテーション】千葉県船橋市大穴北7-22-1", "url": "https://www.kaigokensaku.mhlw.go.jp/12/index.php?action_kouhyou_detail_004_kani=true&JigyosyoCd=1250980065-00&ServiceCd=160&Type=search", "url2": "https://chiba-tokusyuuen.tokushukai.or.jp/" }, "geometry": { "type": "Point", "coordinates": [ 140.053478, 35.74784 ] } },
{ "type": "Feature", "properties": { "内容": "東船橋病院【通所リハビリテーション】千葉県船橋市高根台4-29-1", "url": "https://www.kaigokensaku.mhlw.go.jp/12/index.php?action_kouhyou_detail_004_kani=true&JigyosyoCd=1212816189-00&ServiceCd=160&Type=search", "url2": "http://www.hfhp.gr.jp" }, "geometry": { "type": "Point", "coordinates": [ 140.041233199999965, 35.7306773 ] } },
{ "type": "Feature", "properties": { "内容": "介護老人保健施設　エスポワール船橋【通所リハビリテーション】千葉県船橋市小野田町1494-1", "url": "https://www.kaigokensaku.mhlw.go.jp/12/index.php?action_kouhyou_detail_004_kani=true&JigyosyoCd=1250980057-00&ServiceCd=160&Type=search", "url2": "https://www.esp-funabashi.com/" }, "geometry": { "type": "Point", "coordinates": [ 140.076039900000012, 35.7831895 ] } },
{ "type": "Feature", "properties": { "内容": "介護医療院みさきの郷　通所リハビリテーション【通所リハビリテーション】千葉県船橋市三咲4-23-15", "url": "https://www.kaigokensaku.mhlw.go.jp/12/index.php?action_kouhyou_detail_004_kani=true&JigyosyoCd=12B2800011-00&ServiceCd=160&Type=search", "url2": "http://www.chibako-misaki.jp" }, "geometry": { "type": "Point", "coordinates": [ 140.039517300000028, 35.7539252 ] } },
{ "type": "Feature", "properties": { "内容": "いけだ病院【通所リハビリテーション】千葉県船橋市前原東1-6-4", "url": "https://www.kaigokensaku.mhlw.go.jp/12/index.php?action_kouhyou_detail_004_kani=true&JigyosyoCd=1212810265-00&ServiceCd=160&Type=search", "url2": "https://www.mutsumi-kai.or.jp/" }, "geometry": { "type": "Point", "coordinates": [ 140.030316199999987, 35.698345 ] } },
{ "type": "Feature", "properties": { "内容": "医療法人社団志高会たてやま整形外科クリニック【通所リハビリテーション】千葉県館山市安布里229", "url": "https://www.kaigokensaku.mhlw.go.jp/12/index.php?action_kouhyou_detail_004_kani=true&JigyosyoCd=1213611027-00&ServiceCd=160&Type=search", "url2": "https://tateyama-seikei.com/" }, "geometry": { "type": "Point", "coordinates": [ 139.883071522090177, 34.989067280008896 ] } },
{ "type": "Feature", "properties": { "内容": "医療法人南陽会介護老人保健施設みやぎの郷【通所リハビリテーション】千葉県館山市宮城1088番地", "url": "https://www.kaigokensaku.mhlw.go.jp/12/index.php?action_kouhyou_detail_004_kani=true&JigyosyoCd=1253680030-00&ServiceCd=160&Type=search", "url2": "http://nanyoukai.info/miyagino/" }, "geometry": { "type": "Point", "coordinates": [ 139.836682200000041, 34.9822933 ] } },
{ "type": "Feature", "properties": { "内容": "デイケア北条【通所リハビリテーション】千葉県館山市北条1096-1", "url": "https://www.kaigokensaku.mhlw.go.jp/12/index.php?action_kouhyou_detail_004_kani=true&JigyosyoCd=1271000554-00&ServiceCd=160&Type=search", "url2": "https://hojo-byoin.jp/group/daycare.html" }, "geometry": { "type": "Point", "coordinates": [ 139.869420900000023, 34.993245 ] } },
{ "type": "Feature", "properties": { "内容": "介護老人保健施設なのはな館みさき【通所リハビリテーション】千葉県館山市浜田110-1番地", "url": "https://www.kaigokensaku.mhlw.go.jp/12/index.php?action_kouhyou_detail_004_kani=true&JigyosyoCd=1253680014-00&ServiceCd=160&Type=search", "url2": "https://www.keishokai.or.jp/" }, "geometry": { "type": "Point", "coordinates": [ 139.808715600000028, 34.9748188 ] } },
{ "type": "Feature", "properties": { "内容": "館山病院　通所リハビリテーション【通所リハビリテーション】千葉県館山市北条字段所520番地1", "url": "https://www.kaigokensaku.mhlw.go.jp/12/index.php?action_kouhyou_detail_004_kani=true&JigyosyoCd=1213611100-00&ServiceCd=160&Type=search", "url2": "https://tateyama-hp.com/related/riha_t" }, "geometry": { "type": "Point", "coordinates": [ 139.867526, 34.9955391 ] } },
{ "type": "Feature", "properties": { "内容": "館山ケアセンター夢くらぶ【通所リハビリテーション】千葉県館山市山本392-1", "url": "https://www.kaigokensaku.mhlw.go.jp/12/index.php?action_kouhyou_detail_004_kani=true&JigyosyoCd=1253680022-00&ServiceCd=160&Type=search", "url2": "http://egao-group.jp/" }, "geometry": { "type": "Point", "coordinates": [ 139.8922966, 34.9859356 ] } },
{ "type": "Feature", "properties": { "内容": "小林病院【通所リハビリテーション】千葉県館山市船形９０９番地", "url": "https://www.kaigokensaku.mhlw.go.jp/12/index.php?action_kouhyou_detail_004_kani=true&JigyosyoCd=1213610193-00&ServiceCd=160&Type=search", "url2": "https://www.kotobuki-kai.com" }, "geometry": { "type": "Point", "coordinates": [ 139.844061099999976, 35.0282927 ] } },
{ "type": "Feature", "properties": { "内容": "安房地域医療センター【通所リハビリテーション】千葉県館山市山本1155番地", "url": "https://www.kaigokensaku.mhlw.go.jp/12/index.php?action_kouhyou_detail_004_kani=true&JigyosyoCd=1213610920-00&ServiceCd=160&Type=search", "url2": "https://www.awairyo.jp/ja/" }, "geometry": { "type": "Point", "coordinates": [ 139.8916858, 35.0000259 ] } },
{ "type": "Feature", "properties": { "内容": "介護老人保健施設かもめメディカルケアセンター【通所リハビリテーション】千葉県木更津市菅生689", "url": "https://www.kaigokensaku.mhlw.go.jp/12/index.php?action_kouhyou_detail_004_kani=true&JigyosyoCd=1251080043-00&ServiceCd=160&Type=search", "url2": null }, "geometry": { "type": "Point", "coordinates": [ 139.968189700000039, 35.392280400000011 ] } },
{ "type": "Feature", "properties": { "内容": "介護老人保健施設ケアセンターきさらづ【通所リハビリテーション】千葉県木更津市長須賀1239番地", "url": "https://www.kaigokensaku.mhlw.go.jp/12/index.php?action_kouhyou_detail_004_kani=true&JigyosyoCd=1251080019-00&ServiceCd=160&Type=search", "url2": "http://cck.ootorikai.jp" }, "geometry": { "type": "Point", "coordinates": [ 139.933959400000049, 35.3979962 ] } },
{ "type": "Feature", "properties": { "内容": "上総記念病院デイケアセンター【通所リハビリテーション】千葉県木更津市新田１丁目１１番２５号", "url": "https://www.kaigokensaku.mhlw.go.jp/12/index.php?action_kouhyou_detail_004_kani=true&JigyosyoCd=1271100941-00&ServiceCd=160&Type=search", "url2": "http://kazusa-mhp.or.jp" }, "geometry": { "type": "Point", "coordinates": [ 139.922932299999957, 35.3771882 ] } },
{ "type": "Feature", "properties": { "内容": "介護老人保健施設メディケアーさざなみ【通所リハビリテーション】千葉県木更津市中島2366-1", "url": "https://www.kaigokensaku.mhlw.go.jp/12/index.php?action_kouhyou_detail_004_kani=true&JigyosyoCd=1251080035-00&ServiceCd=160&Type=search", "url2": "https://koukyu-kai.com/" }, "geometry": { "type": "Point", "coordinates": [ 139.91935280000007, 35.437357 ] } },
{ "type": "Feature", "properties": { "内容": "木更津内科クリニック【通所リハビリテーション】千葉県木更津市請西1-18-22", "url": "https://www.kaigokensaku.mhlw.go.jp/12/index.php?action_kouhyou_detail_004_kani=true&JigyosyoCd=1211011956-00&ServiceCd=160&Type=search", "url2": "https://www.chishinkai-group.jp/facilities/kisarazu-clinic" }, "geometry": { "type": "Point", "coordinates": [ 139.931861220762585, 35.371308758790271 ] } },
{ "type": "Feature", "properties": { "内容": "医療法人新都市医療研究会「君津」会玄々堂木更津クリニック【通所リハビリテーション】千葉県木更津市中里231-1", "url": "https://www.kaigokensaku.mhlw.go.jp/12/index.php?action_kouhyou_detail_004_kani=true&JigyosyoCd=1211012178-00&ServiceCd=160&Type=search", "url2": "http://www.gengendo.jp/kisarazu/index.html" }, "geometry": { "type": "Point", "coordinates": [ 139.925206175671377, 35.39996512089148 ] } },
{ "type": "Feature", "properties": { "内容": "さくらクリニック・松戸【通所リハビリテーション】千葉県松戸市和名ヶ谷1424-22さくらクリニック・松戸", "url": "https://www.kaigokensaku.mhlw.go.jp/12/index.php?action_kouhyou_detail_004_kani=true&JigyosyoCd=1212414209-00&ServiceCd=160&Type=search", "url2": "http://care-net.biz/12/sakura-h/" }, "geometry": { "type": "Point", "coordinates": [ 139.917033270569618, 35.774029129423958 ] } },
{ "type": "Feature", "properties": { "内容": "介護医療院あきやまの郷【通所リハビリテーション】千葉県松戸市高塚新田484-1", "url": "https://www.kaigokensaku.mhlw.go.jp/12/index.php?action_kouhyou_detail_004_kani=true&JigyosyoCd=12B2400093-00&ServiceCd=160&Type=search", "url2": "https://www.chibako.or.jp/akiyamanosato/" }, "geometry": { "type": "Point", "coordinates": [ 139.933048, 35.7612942 ] } },
{ "type": "Feature", "properties": { "内容": "医療法人社団鼎会三和病院通所リハビリテーション【通所リハビリテーション】千葉県松戸市日暮7丁目379番", "url": "https://www.kaigokensaku.mhlw.go.jp/12/index.php?action_kouhyou_detail_004_kani=true&JigyosyoCd=1271206730-00&ServiceCd=160&Type=search", "url2": "https://sanwa-hp.jp/" }, "geometry": { "type": "Point", "coordinates": [ 139.945489892451491, 35.787008188795504 ] } },
{ "type": "Feature", "properties": { "内容": "恩田メディカルクリニックデイケア【通所リハビリテーション】千葉県松戸市馬橋1828", "url": "https://www.kaigokensaku.mhlw.go.jp/12/index.php?action_kouhyou_detail_004_kani=true&JigyosyoCd=1271201855-00&ServiceCd=160&Type=search", "url2": "http://onda-medical.com/" }, "geometry": { "type": "Point", "coordinates": [ 139.918565462565653, 35.809456086209849 ] } },
{ "type": "Feature", "properties": { "内容": "医療法人社団実幸会　いらはら診療所【通所リハビリテーション】千葉県松戸市小金原４－３－２", "url": "https://www.kaigokensaku.mhlw.go.jp/12/index.php?action_kouhyou_detail_004_kani=true&JigyosyoCd=1212415024-00&ServiceCd=160&Type=search", "url2": "http://www.irahara.or.jp" }, "geometry": { "type": "Point", "coordinates": [ 139.93901649999998, 35.8232236 ] } },
{ "type": "Feature", "properties": { "内容": "医療法人社団のぞみ会梨香台診療所【通所リハビリテーション】千葉県松戸市高塚新田４８８－２５", "url": "https://www.kaigokensaku.mhlw.go.jp/12/index.php?action_kouhyou_detail_004_kani=true&JigyosyoCd=1212414019-00&ServiceCd=160&Type=search", "url2": "http://rikoudai.com" }, "geometry": { "type": "Point", "coordinates": [ 139.931103200000052, 35.7609778 ] } },
{ "type": "Feature", "properties": { "内容": "松戸リハビリテーション病院【通所リハビリテーション】千葉県松戸市和名ヶ谷1009-1", "url": "https://www.kaigokensaku.mhlw.go.jp/12/index.php?action_kouhyou_detail_004_kani=true&JigyosyoCd=1212416014-00&ServiceCd=160&Type=search", "url2": "http://matsudo-reha.com/" }, "geometry": { "type": "Point", "coordinates": [ 139.9215075, 35.7804076 ] } },
{ "type": "Feature", "properties": { "内容": "介護老人保健施設　エスポワール松戸【通所リハビリテーション】千葉県松戸市五香西4-26-10", "url": "https://www.kaigokensaku.mhlw.go.jp/12/index.php?action_kouhyou_detail_004_kani=true&JigyosyoCd=1252480093-00&ServiceCd=160&Type=search", "url2": "https://www.esp-matsudo.com/" }, "geometry": { "type": "Point", "coordinates": [ 139.960221899999965, 35.7874286 ] } },
{ "type": "Feature", "properties": { "内容": "医療法人社団誠高会小金原診療所【通所リハビリテーション】千葉県松戸市小金原6-1-2", "url": "https://www.kaigokensaku.mhlw.go.jp/12/index.php?action_kouhyou_detail_004_kani=true&JigyosyoCd=1212416188-00&ServiceCd=160&Type=search", "url2": "http://koganehara-gh.com" }, "geometry": { "type": "Point", "coordinates": [ 139.944149599999946, 35.8194577 ] } },
{ "type": "Feature", "properties": { "内容": "介護老人保健施設　千の星・松戸【通所リハビリテーション】千葉県松戸市串崎新田189-4", "url": "https://www.kaigokensaku.mhlw.go.jp/12/index.php?action_kouhyou_detail_004_kani=true&JigyosyoCd=1252480051-00&ServiceCd=160&Type=search", "url2": "http://www.toseikai.or.jp/matsudo" }, "geometry": { "type": "Point", "coordinates": [ 139.981978499999968, 35.7765469 ] } },
{ "type": "Feature", "properties": { "内容": "介護老人保健施設　葵の園・松戸【通所リハビリテーション】千葉県松戸市千駄堀1103-1", "url": "https://www.kaigokensaku.mhlw.go.jp/12/index.php?action_kouhyou_detail_004_kani=true&JigyosyoCd=1252480127-00&ServiceCd=160&Type=search", "url2": "http://www.aoikai.jp" }, "geometry": { "type": "Point", "coordinates": [ 139.928755982109124, 35.803062103353433 ] } },
{ "type": "Feature", "properties": { "内容": "東京おりーぶ苑【通所リハビリテーション】千葉県松戸市金ヶ作２７６－２８", "url": "https://www.kaigokensaku.mhlw.go.jp/12/index.php?action_kouhyou_detail_004_kani=true&JigyosyoCd=1252480077-00&ServiceCd=160&Type=search", "url2": "http://www.shizutanikai.com" }, "geometry": { "type": "Point", "coordinates": [ 139.962612400000012, 35.8083155 ] } },
{ "type": "Feature", "properties": { "内容": "介護老人保健施設　偕楽園【通所リハビリテーション】千葉県松戸市西馬橋幸町23", "url": "https://www.kaigokensaku.mhlw.go.jp/12/index.php?action_kouhyou_detail_004_kani=true&JigyosyoCd=1252480036-00&ServiceCd=160&Type=search", "url2": "https://care-net.biz/12/kairakuen/" }, "geometry": { "type": "Point", "coordinates": [ 139.915643700000032, 35.8121267 ] } },
{ "type": "Feature", "properties": { "内容": "大倉記念デイケア【通所リハビリテーション】千葉県松戸市大谷口133-1", "url": "https://www.kaigokensaku.mhlw.go.jp/12/index.php?action_kouhyou_detail_004_kani=true&JigyosyoCd=1271200667-00&ServiceCd=160&Type=search", "url2": "https://seishikai.net/" }, "geometry": { "type": "Point", "coordinates": [ 139.924758900000029, 35.8345742 ] } },
{ "type": "Feature", "properties": { "内容": "医療法人徳洲会介護老人保健施設シルバーケア松戸【通所リハビリテーション】千葉県松戸市串崎新田172-1", "url": "https://www.kaigokensaku.mhlw.go.jp/12/index.php?action_kouhyou_detail_004_kani=true&JigyosyoCd=1252480155-00&ServiceCd=160&Type=search", "url2": "https://www.silvercare-matsudo.jp/" }, "geometry": { "type": "Point", "coordinates": [ 139.976190800000012, 35.7757564 ] } },
{ "type": "Feature", "properties": { "内容": "介護老人保健施設　まつど徳州苑【通所リハビリテーション】千葉県松戸市幸田180-1", "url": "https://www.kaigokensaku.mhlw.go.jp/12/index.php?action_kouhyou_detail_004_kani=true&JigyosyoCd=1252480148-00&ServiceCd=160&Type=search", "url2": "https://matsudo.tokushukai.or.jp/" }, "geometry": { "type": "Point", "coordinates": [ 139.922507200000013, 35.8484901 ] } },
{ "type": "Feature", "properties": { "内容": "医療法人徳洲会介護老人保健施設シルバーケア常盤平【通所リハビリテーション】千葉県松戸市五香西5-28", "url": "https://www.kaigokensaku.mhlw.go.jp/12/index.php?action_kouhyou_detail_004_kani=true&JigyosyoCd=1252480163-00&ServiceCd=160&Type=search", "url2": "http://shirutoki.com/" }, "geometry": { "type": "Point", "coordinates": [ 139.9527115, 35.7864289 ] } },
{ "type": "Feature", "properties": { "内容": "新八柱整形外科内科【通所リハビリテーション】千葉県松戸市常盤平陣屋前17-12", "url": "https://www.kaigokensaku.mhlw.go.jp/12/index.php?action_kouhyou_detail_004_kani=true&JigyosyoCd=1212416824-00&ServiceCd=160&Type=search", "url2": "https://www.shinyahashira.com/" }, "geometry": { "type": "Point", "coordinates": [ 139.942009500000012, 35.7928926 ] } },
{ "type": "Feature", "properties": { "内容": "介護老人保健施設島村洗心苑【通所リハビリテーション】千葉県松戸市和名ケ谷660介護老人保健施設　島村洗心苑", "url": "https://www.kaigokensaku.mhlw.go.jp/12/index.php?action_kouhyou_detail_004_kani=true&JigyosyoCd=1252480119-00&ServiceCd=160&Type=search", "url2": "http://senshin-g.jp/senshinen/" }, "geometry": { "type": "Point", "coordinates": [ 139.932460799999944, 35.7756592 ] } },
{ "type": "Feature", "properties": { "内容": "介護老人保健施設野田ライフケアセンター【通所リハビリテーション】千葉県野田市野田８４０", "url": "https://www.kaigokensaku.mhlw.go.jp/12/index.php?action_kouhyou_detail_004_kani=true&JigyosyoCd=1252080026-00&ServiceCd=160&Type=search", "url2": "http://www.nlcc.or.jp/" }, "geometry": { "type": "Point", "coordinates": [ 139.865850300000034, 35.9563642 ] } },
{ "type": "Feature", "properties": { "内容": "東葛飾病院【通所リハビリテーション】千葉県野田市中戸13番地", "url": "https://www.kaigokensaku.mhlw.go.jp/12/index.php?action_kouhyou_detail_004_kani=true&JigyosyoCd=1212010940-00&ServiceCd=160&Type=search", "url2": "http://www.fukuju-kai.jp" }, "geometry": { "type": "Point", "coordinates": [ 139.802363399999962, 36.0559826 ] } },
{ "type": "Feature", "properties": { "内容": "福聚苑老人保健施設【通所リハビリテーション】千葉県野田市中戸20番地", "url": "https://www.kaigokensaku.mhlw.go.jp/12/index.php?action_kouhyou_detail_004_kani=true&JigyosyoCd=1252280014-00&ServiceCd=160&Type=search", "url2": "https://rouken-fukujuen.jp/" }, "geometry": { "type": "Point", "coordinates": [ 139.801927400000068, 36.0553465 ] } },
{ "type": "Feature", "properties": { "内容": "梅郷整形外科クリニック【通所リハビリテーション】千葉県野田市山崎2785番地", "url": "https://www.kaigokensaku.mhlw.go.jp/12/index.php?action_kouhyou_detail_004_kani=true&JigyosyoCd=1212010635-00&ServiceCd=160&Type=search", "url2": "https://umesato-nc.com/seikei/" }, "geometry": { "type": "Point", "coordinates": [ 139.8935854, 35.9366774 ] } },
{ "type": "Feature", "properties": { "内容": "介護老人保健施設梅郷ナーシングセンター【通所リハビリテーション】千葉県野田市山崎2785番地", "url": "https://www.kaigokensaku.mhlw.go.jp/12/index.php?action_kouhyou_detail_004_kani=true&JigyosyoCd=1252080018-00&ServiceCd=160&Type=search", "url2": "https://umesato-nc.com/" }, "geometry": { "type": "Point", "coordinates": [ 139.8935854, 35.9366774 ] } },
{ "type": "Feature", "properties": { "内容": "医療法人社団真療会野田病院【通所リハビリテーション】千葉県野田市中里1554-1", "url": "https://www.kaigokensaku.mhlw.go.jp/12/index.php?action_kouhyou_detail_004_kani=true&JigyosyoCd=1212010833-00&ServiceCd=160&Type=search", "url2": "https://www.nodahosp.or.jp/" }, "geometry": { "type": "Point", "coordinates": [ 139.847461599999974, 36.0006536 ] } },
{ "type": "Feature", "properties": { "内容": "介護老人保健施設葵の園・野田【通所リハビリテーション】千葉県野田市中里1389番地", "url": "https://www.kaigokensaku.mhlw.go.jp/12/index.php?action_kouhyou_detail_004_kani=true&JigyosyoCd=1252080034-00&ServiceCd=160&Type=search", "url2": "http://www.aoikai.jp/noda/" }, "geometry": { "type": "Point", "coordinates": [ 139.851217, 35.9966235 ] } },
{ "type": "Feature", "properties": { "内容": "医療法人社団柏誠会　川間春日町整形外科小児科クリニック【通所リハビリテーション】千葉県野田市春日町25-30", "url": "https://www.kaigokensaku.mhlw.go.jp/12/index.php?action_kouhyou_detail_004_kani=true&JigyosyoCd=1212011427-00&ServiceCd=160&Type=search", "url2": null }, "geometry": { "type": "Point", "coordinates": [ 139.8422885, 35.9766348 ] } },
{ "type": "Feature", "properties": { "内容": "茂原中央病院【通所リハビリテーション】千葉県茂原市下永吉796", "url": "https://www.kaigokensaku.mhlw.go.jp/12/index.php?action_kouhyou_detail_004_kani=true&JigyosyoCd=1213110251-00&ServiceCd=160&Type=search", "url2": "https://mobarachuobyoin.jp/" }, "geometry": { "type": "Point", "coordinates": [ 140.309307100000069, 35.4122719 ] } },
{ "type": "Feature", "properties": { "内容": "介護老人保健施設つくも苑【通所リハビリテーション】千葉県茂原市六ツ野１８４１", "url": "https://www.kaigokensaku.mhlw.go.jp/12/index.php?action_kouhyou_detail_004_kani=true&JigyosyoCd=1253180015-00&ServiceCd=160&Type=search", "url2": "https://tsukumoen.com/" }, "geometry": { "type": "Point", "coordinates": [ 140.323873899999967, 35.4364993 ] } },
{ "type": "Feature", "properties": { "内容": "おゆみの中央病院茂原クリニック【通所リハビリテーション】千葉県茂原市六ツ野1834番地1", "url": "https://www.kaigokensaku.mhlw.go.jp/12/index.php?action_kouhyou_detail_004_kani=true&JigyosyoCd=1213111333-00&ServiceCd=160&Type=search", "url2": "https://oyumino-central-mobara.jp/" }, "geometry": { "type": "Point", "coordinates": [ 140.324739780950921, 35.437267229791964 ] } },
{ "type": "Feature", "properties": { "内容": "介護老人保健施設ケアセンターかずさ【通所リハビリテーション】千葉県茂原市高師台三丁目３番地３", "url": "https://www.kaigokensaku.mhlw.go.jp/12/index.php?action_kouhyou_detail_004_kani=true&JigyosyoCd=1253180023-00&ServiceCd=160&Type=search", "url2": null }, "geometry": { "type": "Point", "coordinates": [ 140.288890199999969, 35.4377119 ] } },
{ "type": "Feature", "properties": { "内容": "介護老人保健施設エスポワール成田【通所リハビリテーション】千葉県成田市宝田360-1", "url": "https://www.kaigokensaku.mhlw.go.jp/12/index.php?action_kouhyou_detail_004_kani=true&JigyosyoCd=1254380036-00&ServiceCd=160&Type=search", "url2": "https://www.esp-narita.com/" }, "geometry": { "type": "Point", "coordinates": [ 140.310049613739011, 35.809458862407915 ] } },
{ "type": "Feature", "properties": { "内容": "介護老人保健施設セントアンナナーシングホーム【通所リハビリテーション】千葉県成田市本三里塚226-1", "url": "https://www.kaigokensaku.mhlw.go.jp/12/index.php?action_kouhyou_detail_004_kani=true&JigyosyoCd=1254380028-00&ServiceCd=160&Type=search", "url2": "http://seibokaimaria.or.jp/" }, "geometry": { "type": "Point", "coordinates": [ 140.363585599999965, 35.750200399999983 ] } },
{ "type": "Feature", "properties": { "内容": "国際医療福祉大学成田老年医療福祉センター介護老人保健施設オルタンシア【通所リハビリテーション】千葉県成田市川栗746番地1", "url": "https://www.kaigokensaku.mhlw.go.jp/12/index.php?action_kouhyou_detail_004_kani=true&JigyosyoCd=1254380049-00&ServiceCd=160&Type=search", "url2": "https://hoyukai.iuhw.ac.jp/rounen/index.html" }, "geometry": { "type": "Point", "coordinates": [ 140.3391523, 35.7651153 ] } },
{ "type": "Feature", "properties": { "内容": "介護老人保健施設透光苑【通所リハビリテーション】千葉県成田市桜田１１３７", "url": "https://www.kaigokensaku.mhlw.go.jp/12/index.php?action_kouhyou_detail_004_kani=true&JigyosyoCd=1253080025-00&ServiceCd=160&Type=search", "url2": "http://www.toko-en.jp/rk/" }, "geometry": { "type": "Point", "coordinates": [ 140.459409300000061, 35.8432219 ] } },
{ "type": "Feature", "properties": { "内容": "介護老人保健施設ユーカリ優都苑【通所リハビリテーション】千葉県佐倉市青菅1010番地15", "url": "https://www.kaigokensaku.mhlw.go.jp/12/index.php?action_kouhyou_detail_004_kani=true&JigyosyoCd=1254280046-00&ServiceCd=160&Type=search", "url2": "https://www.yutokai.com/" }, "geometry": { "type": "Point", "coordinates": [ 140.1415991, 35.7445451 ] } },
{ "type": "Feature", "properties": { "内容": "介護老人保健施設葵の園・佐倉【通所リハビリテーション】千葉県佐倉市城字松が丘188-335", "url": "https://www.kaigokensaku.mhlw.go.jp/12/index.php?action_kouhyou_detail_004_kani=true&JigyosyoCd=1254280061-00&ServiceCd=160&Type=search", "url2": "https://www.aoikai.jp/" }, "geometry": { "type": "Point", "coordinates": [ 140.233057618910152, 35.689100265211742 ] } },
{ "type": "Feature", "properties": { "内容": "介護老人保健施設エスポワール佐倉【通所リハビリテーション】千葉県佐倉市上志津1316-1", "url": "https://www.kaigokensaku.mhlw.go.jp/12/index.php?action_kouhyou_detail_004_kani=true&JigyosyoCd=1254280090-00&ServiceCd=160&Type=search", "url2": "https://excellentcare-shizu.jp/" }, "geometry": { "type": "Point", "coordinates": [ 140.1468918, 35.7082506 ] } },
{ "type": "Feature", "properties": { "内容": "介護老人保健施設佐倉ホワイエ【通所リハビリテーション】千葉県佐倉市鏑木336", "url": "https://www.kaigokensaku.mhlw.go.jp/12/index.php?action_kouhyou_detail_004_kani=true&JigyosyoCd=1254280012-00&ServiceCd=160&Type=search", "url2": "https://www.sakurakouseien.jp/foyer/" }, "geometry": { "type": "Point", "coordinates": [ 140.235177099999987, 35.7149041 ] } },
{ "type": "Feature", "properties": { "内容": "介護老人保健施設あさいケアセンター【通所リハビリテーション】千葉県東金市家徳157-1", "url": "https://www.kaigokensaku.mhlw.go.jp/12/index.php?action_kouhyou_detail_004_kani=true&JigyosyoCd=1250880013-00&ServiceCd=160&Type=search", "url2": "http://www.care-asai.com" }, "geometry": { "type": "Point", "coordinates": [ 140.395722500000034, 35.5463378 ] } },
{ "type": "Feature", "properties": { "内容": "介護老人保健施設すこやか・リハビリケアセンター【通所リハビリテーション】千葉県旭市ロの８１８－３", "url": "https://www.kaigokensaku.mhlw.go.jp/12/index.php?action_kouhyou_detail_004_kani=true&JigyosyoCd=1251480029-00&ServiceCd=160&Type=search", "url2": null }, "geometry": { "type": "Point", "coordinates": [ 140.654024199999981, 35.7177288 ] } },
{ "type": "Feature", "properties": { "内容": "田辺病院【通所リハビリテーション】千葉県旭市ロの818-2", "url": "https://www.kaigokensaku.mhlw.go.jp/12/index.php?action_kouhyou_detail_004_kani=true&JigyosyoCd=1211411313-00&ServiceCd=160&Type=search", "url2": null }, "geometry": { "type": "Point", "coordinates": [ 140.6537318, 35.7177213 ] } },
{ "type": "Feature", "properties": { "内容": "介護老人保健施設シルバーケアセンター【通所リハビリテーション】千葉県旭市イ1307番地", "url": "https://www.kaigokensaku.mhlw.go.jp/12/index.php?action_kouhyou_detail_004_kani=true&JigyosyoCd=1251480037-00&ServiceCd=160&Type=search", "url2": null }, "geometry": { "type": "Point", "coordinates": [ 140.6646316, 35.716568 ] } },
{ "type": "Feature", "properties": { "内容": "医療法人社団愛友会介護老人保健施設ケアセンター習志野【通所リハビリテーション】千葉県習志野市秋津３－５－２", "url": "https://www.kaigokensaku.mhlw.go.jp/12/index.php?action_kouhyou_detail_004_kani=true&JigyosyoCd=1250280016-00&ServiceCd=160&Type=search", "url2": "http://www.e-ccn.net/" }, "geometry": { "type": "Point", "coordinates": [ 140.017968500000052, 35.6690449 ] } },
{ "type": "Feature", "properties": { "内容": "医療法人社団愛友会サテライト型小規模介護老人保健施設あっとほーむ習志野【通所リハビリテーション】千葉県習志野市大久保4-2-11", "url": "https://www.kaigokensaku.mhlw.go.jp/12/index.php?action_kouhyou_detail_004_kani=true&JigyosyoCd=1250280024-00&ServiceCd=160&Type=search", "url2": "http://www.athome-narashino.net/" }, "geometry": { "type": "Point", "coordinates": [ 140.052381200000013, 35.6909251 ] } },
{ "type": "Feature", "properties": { "内容": "東京湾岸リハビリテーション病院【通所リハビリテーション】千葉県習志野市谷津4‐1‐1", "url": "https://www.kaigokensaku.mhlw.go.jp/12/index.php?action_kouhyou_detail_004_kani=true&JigyosyoCd=1210211409-00&ServiceCd=160&Type=search", "url2": "http://www.wanreha.net" }, "geometry": { "type": "Point", "coordinates": [ 140.009516100000042, 35.6827877 ] } },
{ "type": "Feature", "properties": { "内容": "東京湾岸リハビリテーションセンター【通所リハビリテーション】千葉県習志野市谷津２－２３－１１", "url": "https://www.kaigokensaku.mhlw.go.jp/12/index.php?action_kouhyou_detail_004_kani=true&JigyosyoCd=1272101005-00&ServiceCd=160&Type=search", "url2": "https://wanreha.net/patient-visitors/ltc-insurance-rehab/" }, "geometry": { "type": "Point", "coordinates": [ 140.009935499999983, 35.6829126 ] } },
{ "type": "Feature", "properties": { "内容": "ならしの共生クリニック【通所リハビリテーション】千葉県習志野市東習志野6-7-8イオンタウン東習志野内", "url": "https://www.kaigokensaku.mhlw.go.jp/12/index.php?action_kouhyou_detail_004_kani=true&JigyosyoCd=1210212514-00&ServiceCd=160&Type=search", "url2": "https://withlifenarashino.kouaikai.jp/" }, "geometry": { "type": "Point", "coordinates": [ 140.067364074343885, 35.700575036854232 ] } },
{ "type": "Feature", "properties": { "内容": "医療法人社団葵会柏たなか病院【通所リハビリテーション】千葉県柏市小青田１丁目３番地2柏たなか病院ケアキューブ１階", "url": "https://www.kaigokensaku.mhlw.go.jp/12/index.php?action_kouhyou_detail_004_kani=true&JigyosyoCd=1212115749-00&ServiceCd=160&Type=search", "url2": "http://www.aoikai.jp/kashiwatanaka/" }, "geometry": { "type": "Point", "coordinates": [ 139.956179981514737, 35.910764206799357 ] } },
{ "type": "Feature", "properties": { "内容": "医療法人社団慶友会　原整形外科眼科【通所リハビリテーション】千葉県柏市千代田１丁目2-43", "url": "https://www.kaigokensaku.mhlw.go.jp/12/index.php?action_kouhyou_detail_004_kani=true&JigyosyoCd=1212111409-00&ServiceCd=160&Type=search", "url2": "http://kashiwa-daycare.com/" }, "geometry": { "type": "Point", "coordinates": [ 139.975250599999981, 35.8574196 ] } },
{ "type": "Feature", "properties": { "内容": "柏の葉整形外科リハビリテーションクリニック【通所リハビリテーション】千葉県柏市若柴226番地42中央144街区2KOILGARDEN2階", "url": "https://www.kaigokensaku.mhlw.go.jp/12/index.php?action_kouhyou_detail_004_kani=true&JigyosyoCd=1212116630-00&ServiceCd=160&Type=search", "url2": "https://kashiwanoha-seikei.com/" }, "geometry": { "type": "Point", "coordinates": [ 139.954148696820056, 35.896468169929769 ] } },
{ "type": "Feature", "properties": { "内容": "介護老人保健施設ケアホーム初石【通所リハビリテーション】千葉県柏市西原7-6-3", "url": "https://www.kaigokensaku.mhlw.go.jp/12/index.php?action_kouhyou_detail_004_kani=true&JigyosyoCd=1252180073-00&ServiceCd=160&Type=search", "url2": "http://www.hatsuishi-rouken.jp/" }, "geometry": { "type": "Point", "coordinates": [ 139.928704, 35.888526800000015 ] } },
{ "type": "Feature", "properties": { "内容": "医療法人知真会　かしわ内科クリニック【通所リハビリテーション】千葉県柏市小青田35-1", "url": "https://www.kaigokensaku.mhlw.go.jp/12/index.php?action_kouhyou_detail_004_kani=true&JigyosyoCd=1212116523-00&ServiceCd=160&Type=search", "url2": "https://www.chishinkai-group.jp/" }, "geometry": { "type": "Point", "coordinates": [ 139.955455599999965, 35.9076861 ] } },
{ "type": "Feature", "properties": { "内容": "介護老人保健施設回生の里【通所リハビリテーション】千葉県柏市名戸ヶ谷９２９－１", "url": "https://www.kaigokensaku.mhlw.go.jp/12/index.php?action_kouhyou_detail_004_kani=true&JigyosyoCd=1252180057-00&ServiceCd=160&Type=search", "url2": "http://kaisei.nadogaya.com/" }, "geometry": { "type": "Point", "coordinates": [ 139.981139, 35.8456743 ] } },
{ "type": "Feature", "properties": { "内容": "柏市立介護老人保健施設はみんぐ【通所リハビリテーション】千葉県柏市布施1番地３", "url": "https://www.kaigokensaku.mhlw.go.jp/12/index.php?action_kouhyou_detail_004_kani=true&JigyosyoCd=1252180024-00&ServiceCd=160&Type=search", "url2": "http://www.kashiwa-haming.jp" }, "geometry": { "type": "Point", "coordinates": [ 139.9819324, 35.8928588 ] } },
{ "type": "Feature", "properties": { "内容": "介護老人保健施設葵の園・沼南【通所リハビリテーション】千葉県柏市箕輪532-1", "url": "https://www.kaigokensaku.mhlw.go.jp/12/index.php?action_kouhyou_detail_004_kani=true&JigyosyoCd=1252280022-00&ServiceCd=160&Type=search", "url2": "http://www.aoikai.jp/" }, "geometry": { "type": "Point", "coordinates": [ 140.021840200000042, 35.8561595 ] } },
{ "type": "Feature", "properties": { "内容": "介護老人保健施設さかき光陽【通所リハビリテーション】千葉県柏市酒井根40番地の1", "url": "https://www.kaigokensaku.mhlw.go.jp/12/index.php?action_kouhyou_detail_004_kani=true&JigyosyoCd=1252180016-00&ServiceCd=160&Type=search", "url2": "https://yotsuba-kai.or.jp/" }, "geometry": { "type": "Point", "coordinates": [ 139.961334099999931, 35.820175 ] } },
{ "type": "Feature", "properties": { "内容": "介護老人保健施設葵の園・柏【通所リハビリテーション】千葉県柏市松ヶ崎897-1", "url": "https://www.kaigokensaku.mhlw.go.jp/12/index.php?action_kouhyou_detail_004_kani=true&JigyosyoCd=1252180065-00&ServiceCd=160&Type=search", "url2": "http://www.aoikai.jp/kashiwa/" }, "geometry": { "type": "Point", "coordinates": [ 139.974991899999964, 35.8764305 ] } },
{ "type": "Feature", "properties": { "内容": "介護老人保健施設　葵の園・柏たなか【通所リハビリテーション】千葉県柏市小青田一丁目3番地3", "url": "https://www.kaigokensaku.mhlw.go.jp/12/index.php?action_kouhyou_detail_004_kani=true&JigyosyoCd=1252180081-00&ServiceCd=160&Type=search", "url2": "http://www.aoikai.jp/" }, "geometry": { "type": "Point", "coordinates": [ 139.955899899999963, 35.9151161 ] } },
{ "type": "Feature", "properties": { "内容": "介護老人保健施設蒼生の杜【通所リハビリテーション】千葉県柏市逆井４３７－２８", "url": "https://www.kaigokensaku.mhlw.go.jp/12/index.php?action_kouhyou_detail_004_kani=true&JigyosyoCd=1252180040-00&ServiceCd=160&Type=search", "url2": "http://www.shoyokai.jp/" }, "geometry": { "type": "Point", "coordinates": [ 139.979265700000042, 35.8136929 ] } },
{ "type": "Feature", "properties": { "内容": "諏訪の杜整形外科　諏訪の杜グリーンケア【通所リハビリテーション】千葉県柏市豊四季１００７－２", "url": "https://www.kaigokensaku.mhlw.go.jp/12/index.php?action_kouhyou_detail_004_kani=true&JigyosyoCd=1212116879-00&ServiceCd=160&Type=search", "url2": "https://suwanomori-ortho.com/" }, "geometry": { "type": "Point", "coordinates": [ 139.938832600000012, 35.8657061 ] } },
{ "type": "Feature", "properties": { "内容": "医療法人社団創明会　柏整形外科クリニック【通所リハビリテーション】千葉県柏市南柏2丁目4-2SKビル1F", "url": "https://www.kaigokensaku.mhlw.go.jp/12/index.php?action_kouhyou_detail_004_kani=true&JigyosyoCd=1212114379-00&ServiceCd=160&Type=search", "url2": null }, "geometry": { "type": "Point", "coordinates": [ 139.95506, 35.8458284 ] } },
{ "type": "Feature", "properties": { "内容": "介護老人保健施設北柏ナーシングケアセンター【通所リハビリテーション】千葉県柏市柏下265", "url": "https://www.kaigokensaku.mhlw.go.jp/12/index.php?action_kouhyou_detail_004_kani=true&JigyosyoCd=1252180032-00&ServiceCd=160&Type=search", "url2": "https://tensenkai.or.jp/" }, "geometry": { "type": "Point", "coordinates": [ 139.9825664, 35.8719675 ] } },
{ "type": "Feature", "properties": { "内容": "介護老人保健施設　やすらぎの郷【通所リハビリテーション】千葉県勝浦市芳賀441-1", "url": "https://www.kaigokensaku.mhlw.go.jp/12/index.php?action_kouhyou_detail_004_kani=true&JigyosyoCd=1253880010-00&ServiceCd=160&Type=search", "url2": null }, "geometry": { "type": "Point", "coordinates": [ 140.29055029999995, 35.1988797 ] } },
{ "type": "Feature", "properties": { "内容": "五井病院ホームケアクリニック【通所リハビリテーション】千葉県市原市五井５９１１", "url": "https://www.kaigokensaku.mhlw.go.jp/12/index.php?action_kouhyou_detail_004_kani=true&JigyosyoCd=1210612952-00&ServiceCd=160&Type=search", "url2": "http://goi-hospital.com" }, "geometry": { "type": "Point", "coordinates": [ 140.087952398811353, 35.52727271521475 ] } },
{ "type": "Feature", "properties": { "内容": "市原デイケアセンター【通所リハビリテーション】千葉県市原市五井5155", "url": "https://www.kaigokensaku.mhlw.go.jp/12/index.php?action_kouhyou_detail_004_kani=true&JigyosyoCd=1272400860-00&ServiceCd=160&Type=search", "url2": "http://www.goi-hospital.com/" }, "geometry": { "type": "Point", "coordinates": [ 140.088283400000023, 35.5189621 ] } },
{ "type": "Feature", "properties": { "内容": "市原整形外科【通所リハビリテーション】千葉県市原市八幡１８３６－３", "url": "https://www.kaigokensaku.mhlw.go.jp/12/index.php?action_kouhyou_detail_004_kani=true&JigyosyoCd=1210612358-00&ServiceCd=160&Type=search", "url2": null }, "geometry": { "type": "Point", "coordinates": [ 140.130626099999972, 35.5406772 ] } },
{ "type": "Feature", "properties": { "内容": "介護老人保健施設クレイン【通所リハビリテーション】千葉県市原市石川1078", "url": "https://www.kaigokensaku.mhlw.go.jp/12/index.php?action_kouhyou_detail_004_kani=true&JigyosyoCd=1250680111-00&ServiceCd=160&Type=search", "url2": "http://www.ctg.or.jp/" }, "geometry": { "type": "Point", "coordinates": [ 140.183762699999988, 35.3863297 ] } },
{ "type": "Feature", "properties": { "内容": "介護老人保健施設　なんな苑【通所リハビリテーション】千葉県市原市中高根1341-1", "url": "https://www.kaigokensaku.mhlw.go.jp/12/index.php?action_kouhyou_detail_004_kani=true&JigyosyoCd=1250680041-00&ServiceCd=160&Type=search", "url2": "https://takaharakai.or.jp/nannaen" }, "geometry": { "type": "Point", "coordinates": [ 140.093997599999966, 35.4316525 ] } },
{ "type": "Feature", "properties": { "内容": "介護老人保健施設　しらつか【通所リハビリテーション】千葉県市原市しらつか567番地", "url": "https://www.kaigokensaku.mhlw.go.jp/12/index.php?action_kouhyou_detail_004_kani=true&JigyosyoCd=1250680129-00&ServiceCd=160&Type=search", "url2": "https://ryokuyukai.jp/shiratsuka/" }, "geometry": { "type": "Point", "coordinates": [ 140.0636977, 35.4880927 ] } },
{ "type": "Feature", "properties": { "内容": "介護老人保健施設アーネスト【通所リハビリテーション】千葉県市原市五井1846-1", "url": "https://www.kaigokensaku.mhlw.go.jp/12/index.php?action_kouhyou_detail_004_kani=true&JigyosyoCd=1250680082-00&ServiceCd=160&Type=search", "url2": "https://www.yarita-hosp.or.jp/earnest/index.php" }, "geometry": { "type": "Point", "coordinates": [ 140.081186900000034, 35.5093047 ] } },
{ "type": "Feature", "properties": { "内容": "介護老人保健施設　ユー・アイ久楽部【通所リハビリテーション】千葉県市原市西広131", "url": "https://www.kaigokensaku.mhlw.go.jp/12/index.php?action_kouhyou_detail_004_kani=true&JigyosyoCd=1250680066-00&ServiceCd=160&Type=search", "url2": "http://www.you-i-club.com/" }, "geometry": { "type": "Point", "coordinates": [ 140.121792, 35.4869475 ] } },
{ "type": "Feature", "properties": { "内容": "介護老人保健施設リハパークきくま【通所リハビリテーション】千葉県市原市菊間1136-6", "url": "https://www.kaigokensaku.mhlw.go.jp/12/index.php?action_kouhyou_detail_004_kani=true&JigyosyoCd=1250680090-00&ServiceCd=160&Type=search", "url2": "http://rehapark-kikuma.com/" }, "geometry": { "type": "Point", "coordinates": [ 140.149893900000052, 35.5382608 ] } },
{ "type": "Feature", "properties": { "内容": "介護老人保健施設辰巳ナーシング・ヴィラ【通所リハビリテーション】千葉県市原市辰巳台東５－５－１", "url": "https://www.kaigokensaku.mhlw.go.jp/12/index.php?action_kouhyou_detail_004_kani=true&JigyosyoCd=1250680025-00&ServiceCd=160&Type=search", "url2": "http://www.takushinkai.net/" }, "geometry": { "type": "Point", "coordinates": [ 140.1504344, 35.5089615 ] } },
{ "type": "Feature", "properties": { "内容": "リハビリテーション病院さらしな【通所リハビリテーション】千葉県市原市更級1-5-3リハビリテーション病院さらしな", "url": "https://www.kaigokensaku.mhlw.go.jp/12/index.php?action_kouhyou_detail_004_kani=true&JigyosyoCd=1210612879-00&ServiceCd=160&Type=search", "url2": "http://reha-sarashina.com/" }, "geometry": { "type": "Point", "coordinates": [ 140.096271699999988, 35.5087682 ] } },
{ "type": "Feature", "properties": { "内容": "介護老人保健施設　メディケア51【通所リハビリテーション】千葉県市原市町田176", "url": "https://www.kaigokensaku.mhlw.go.jp/12/index.php?action_kouhyou_detail_004_kani=true&JigyosyoCd=1250680108-00&ServiceCd=160&Type=search", "url2": "https://www.medicare51.com/" }, "geometry": { "type": "Point", "coordinates": [ 140.082093, 35.4863127 ] } },
{ "type": "Feature", "properties": { "内容": "白金整形外科クリニック【通所リハビリテーション】千葉県市原市白金町1-70", "url": "https://www.kaigokensaku.mhlw.go.jp/12/index.php?action_kouhyou_detail_004_kani=true&JigyosyoCd=1210611830-00&ServiceCd=160&Type=search", "url2": "http://shirogane-hp.com/" }, "geometry": { "type": "Point", "coordinates": [ 140.10432620000006, 35.5271255 ] } },
{ "type": "Feature", "properties": { "内容": "介護老人保健施設　梅香苑【通所リハビリテーション】千葉県市原市馬立802-1", "url": "https://www.kaigokensaku.mhlw.go.jp/12/index.php?action_kouhyou_detail_004_kani=true&JigyosyoCd=1250680074-00&ServiceCd=160&Type=search", "url2": "http://ryokuyukai.jp/" }, "geometry": { "type": "Point", "coordinates": [ 140.115879899999982, 35.4229344 ] } },
{ "type": "Feature", "properties": { "内容": "介護老人保健施設杏の里【通所リハビリテーション】千葉県市原市能満1774-1", "url": "https://www.kaigokensaku.mhlw.go.jp/12/index.php?action_kouhyou_detail_004_kani=true&JigyosyoCd=1250680033-00&ServiceCd=160&Type=search", "url2": "http://www.anzunosato.jp/" }, "geometry": { "type": "Point", "coordinates": [ 140.143722290351889, 35.507817523757488 ] } },
{ "type": "Feature", "properties": { "内容": "柏の葉北総病院【通所リハビリテーション】千葉県流山市駒木台233-4", "url": "https://www.kaigokensaku.mhlw.go.jp/12/index.php?action_kouhyou_detail_004_kani=true&JigyosyoCd=1212310910-00&ServiceCd=160&Type=search", "url2": "https://www.masuokai.jp/daycare" }, "geometry": { "type": "Point", "coordinates": [ 139.934108299999906, 35.8931636 ] } },
{ "type": "Feature", "properties": { "内容": "介護老人保健施設ナーシングプラザ流山【通所リハビリテーション】千葉県流山市前ヶ崎248-1", "url": "https://www.kaigokensaku.mhlw.go.jp/12/index.php?action_kouhyou_detail_004_kani=true&JigyosyoCd=1252380012-00&ServiceCd=160&Type=search", "url2": "https://np-nagareyama.jp/" }, "geometry": { "type": "Point", "coordinates": [ 139.929949599999986, 35.8498611 ] } },
{ "type": "Feature", "properties": { "内容": "東葛病院付属診療所　通所リハビリテーション【通所リハビリテーション】千葉県流山市下花輪409-6", "url": "https://www.kaigokensaku.mhlw.go.jp/12/index.php?action_kouhyou_detail_004_kani=true&JigyosyoCd=1212310852-00&ServiceCd=160&Type=search", "url2": "https://www.tokyo-kinikai.com/" }, "geometry": { "type": "Point", "coordinates": [ 139.902526599999987, 35.867758 ] } },
{ "type": "Feature", "properties": { "内容": "江陽台通所リハビリテーション【通所リハビリテーション】千葉県流山市西深井393番地", "url": "https://www.kaigokensaku.mhlw.go.jp/12/index.php?action_kouhyou_detail_004_kani=true&JigyosyoCd=1272501121-00&ServiceCd=160&Type=search", "url2": "http://www.kouyoudai.jp" }, "geometry": { "type": "Point", "coordinates": [ 139.892970399999967, 35.909634 ] } },
{ "type": "Feature", "properties": { "内容": "医療法人社団　曙会　曙診療所　通所リハビリテーション【通所リハビリテーション】千葉県流山市東初石2－175", "url": "https://www.kaigokensaku.mhlw.go.jp/12/index.php?action_kouhyou_detail_004_kani=true&JigyosyoCd=1212311538-00&ServiceCd=160&Type=search", "url2": "https://www.nch.or.jp" }, "geometry": { "type": "Point", "coordinates": [ 139.919671699999981, 35.887024 ] } },
{ "type": "Feature", "properties": { "内容": "介護老人保健施設ハートケア流山【通所リハビリテーション】千葉県流山市小屋１４６－１", "url": "https://www.kaigokensaku.mhlw.go.jp/12/index.php?action_kouhyou_detail_004_kani=true&JigyosyoCd=1252380020-00&ServiceCd=160&Type=search", "url2": "https://hc-nagareyama2200.jp/" }, "geometry": { "type": "Point", "coordinates": [ 139.896387399999981, 35.8939616 ] } },
{ "type": "Feature", "properties": { "内容": "こうづ整形外科【通所リハビリテーション】千葉県八千代市八千代台西9-2-11", "url": "https://www.kaigokensaku.mhlw.go.jp/12/index.php?action_kouhyou_detail_004_kani=true&JigyosyoCd=1210412023-00&ServiceCd=160&Type=search", "url2": "http://www.kouzu-seikei.com/" }, "geometry": { "type": "Point", "coordinates": [ 140.083195199999977, 35.6967071 ] } },
{ "type": "Feature", "properties": { "内容": "新八千代病院【通所リハビリテーション】千葉県八千代市米本2167", "url": "https://www.kaigokensaku.mhlw.go.jp/12/index.php?action_kouhyou_detail_004_kani=true&JigyosyoCd=1210410308-00&ServiceCd=160&Type=search", "url2": "http://www.harmonichearts.or.jp/shinyachiyo/" }, "geometry": { "type": "Point", "coordinates": [ 140.11233459999994, 35.7521299 ] } },
{ "type": "Feature", "properties": { "内容": "勝田台病院【通所リハビリテーション】千葉県八千代市勝田622-2", "url": "https://www.kaigokensaku.mhlw.go.jp/12/index.php?action_kouhyou_detail_004_kani=true&JigyosyoCd=1210410647-00&ServiceCd=160&Type=search", "url2": "http://www.katsutadai.or.jp" }, "geometry": { "type": "Point", "coordinates": [ 140.12519, 35.7054066 ] } },
{ "type": "Feature", "properties": { "内容": "介護老人保健施設ばらの里【通所リハビリテーション】千葉県八千代市島田台字大東台764-2", "url": "https://www.kaigokensaku.mhlw.go.jp/12/index.php?action_kouhyou_detail_004_kani=true&JigyosyoCd=1250480038-00&ServiceCd=160&Type=search", "url2": "https://www.baranosato.org/" }, "geometry": { "type": "Point", "coordinates": [ 140.087998199999987, 35.7590346 ] } },
{ "type": "Feature", "properties": { "内容": "セントマーガレット病院【通所リハビリテーション】千葉県八千代市上高野450番地", "url": "https://www.kaigokensaku.mhlw.go.jp/12/index.php?action_kouhyou_detail_004_kani=true&JigyosyoCd=1210410449-00&ServiceCd=160&Type=search", "url2": "http://www.st-marguerite.or.jp" }, "geometry": { "type": "Point", "coordinates": [ 140.128081299999963, 35.7381093 ] } },
{ "type": "Feature", "properties": { "内容": "八千代リハビリテーション病院【通所リハビリテーション】千葉県八千代市米本1808番地", "url": "https://www.kaigokensaku.mhlw.go.jp/12/index.php?action_kouhyou_detail_004_kani=true&JigyosyoCd=1210412015-00&ServiceCd=160&Type=search", "url2": "http://www.yachiyo-reha.com/" }, "geometry": { "type": "Point", "coordinates": [ 140.119123300000012, 35.7466991 ] } },
{ "type": "Feature", "properties": { "内容": "八千代ケアセンター【通所リハビリテーション】千葉県八千代市島田55-1", "url": "https://www.kaigokensaku.mhlw.go.jp/12/index.php?action_kouhyou_detail_004_kani=true&JigyosyoCd=1250480020-00&ServiceCd=160&Type=search", "url2": "http://www.kouseikai-gr.or.jp" }, "geometry": { "type": "Point", "coordinates": [ 140.093846799999938, 35.764551 ] } },
{ "type": "Feature", "properties": { "内容": "ROSEGARDENクリニック【通所リハビリテーション】千葉県八千代市大和田新田466番地7", "url": "https://www.kaigokensaku.mhlw.go.jp/12/index.php?action_kouhyou_detail_004_kani=true&JigyosyoCd=1210412536-00&ServiceCd=160&Type=search", "url2": "https://www.rosegarden-clinic.com" }, "geometry": { "type": "Point", "coordinates": [ 140.089034500000025, 35.7304445 ] } },
{ "type": "Feature", "properties": { "内容": "介護医療院エスペーロ【通所リハビリテーション】千葉県我孫子市布佐834-28", "url": "https://www.kaigokensaku.mhlw.go.jp/12/index.php?action_kouhyou_detail_004_kani=true&JigyosyoCd=12B2500017-00&ServiceCd=160&Type=search", "url2": "http://www.medicalplaza.or.jp/espero/" }, "geometry": { "type": "Point", "coordinates": [ 140.1159116, 35.8637611 ] } },
{ "type": "Feature", "properties": { "内容": "介護老人保健施設我孫子ロイヤルケアセンター【通所リハビリテーション】千葉県我孫子市中峠2614", "url": "https://www.kaigokensaku.mhlw.go.jp/12/index.php?action_kouhyou_detail_004_kani=true&JigyosyoCd=1252580017-00&ServiceCd=160&Type=search", "url2": "http://www.ims.gr.jp/abiko_royal/" }, "geometry": { "type": "Point", "coordinates": [ 140.090021500000034, 35.8800854 ] } },
{ "type": "Feature", "properties": { "内容": "介護老人保健施設　葵の園・我孫子西【通所リハビリテーション】千葉県我孫子市1881-1", "url": "https://www.kaigokensaku.mhlw.go.jp/12/index.php?action_kouhyou_detail_004_kani=true&JigyosyoCd=1252580053-00&ServiceCd=160&Type=search", "url2": "https://www.aoikai.jp/" }, "geometry": { "type": "Point", "coordinates": [ 140.0282205, 35.8641008 ] } },
{ "type": "Feature", "properties": { "内容": "ほしの脳神経クリニック【通所リハビリテーション】千葉県我孫子市我孫子４－４３－１７", "url": "https://www.kaigokensaku.mhlw.go.jp/12/index.php?action_kouhyou_detail_004_kani=true&JigyosyoCd=1212511210-00&ServiceCd=160&Type=search", "url2": "https://www.star-brain.jp/" }, "geometry": { "type": "Point", "coordinates": [ 140.014796, 35.8754317 ] } },
{ "type": "Feature", "properties": { "内容": "けやきの里クリニック　通所リハビリテーション【通所リハビリテーション】千葉県我孫子市青山417", "url": "https://www.kaigokensaku.mhlw.go.jp/12/index.php?action_kouhyou_detail_004_kani=true&JigyosyoCd=1212511517-00&ServiceCd=160&Type=search", "url2": "https://kojk.jp/satsukinosato/" }, "geometry": { "type": "Point", "coordinates": [ 140.051913, 35.876885 ] } },
{ "type": "Feature", "properties": { "内容": "介護老人保健施設クレオ【通所リハビリテーション】千葉県我孫子市我孫子１８５５－４", "url": "https://www.kaigokensaku.mhlw.go.jp/12/index.php?action_kouhyou_detail_004_kani=true&JigyosyoCd=1252580033-00&ServiceCd=160&Type=search", "url2": "http://www.medicalplaza.or.jp/kreo/" }, "geometry": { "type": "Point", "coordinates": [ 140.027961600000026, 35.8652197 ] } },
{ "type": "Feature", "properties": { "内容": "東条病院【通所リハビリテーション】千葉県鴨川市広場1615番地", "url": "https://www.kaigokensaku.mhlw.go.jp/12/index.php?action_kouhyou_detail_004_kani=true&JigyosyoCd=1213910064-00&ServiceCd=160&Type=search", "url2": "http://www.tojo-h.or.jp/" }, "geometry": { "type": "Point", "coordinates": [ 140.1085488, 35.1213992 ] } },
{ "type": "Feature", "properties": { "内容": "小田介護医療院　通所リハビリテーションひまわりの里【通所リハビリテーション】千葉県鴨川市横渚880", "url": "https://www.kaigokensaku.mhlw.go.jp/12/index.php?action_kouhyou_detail_004_kani=true&JigyosyoCd=12B3900034-00&ServiceCd=160&Type=search", "url2": "http://oda-hp.com" }, "geometry": { "type": "Point", "coordinates": [ 140.1048683, 35.1061858 ] } },
{ "type": "Feature", "properties": { "内容": "たいよう【通所リハビリテーション】千葉県鴨川市西町1011番地1", "url": "https://www.kaigokensaku.mhlw.go.jp/12/index.php?action_kouhyou_detail_004_kani=true&JigyosyoCd=1253980018-00&ServiceCd=160&Type=search", "url2": "http://www.taiyou-kai.jp" }, "geometry": { "type": "Point", "coordinates": [ 140.1246906, 35.1226799 ] } },
{ "type": "Feature", "properties": { "内容": "エビハラ介護医療院【通所リハビリテーション】千葉県鴨川市太海630-10", "url": "https://www.kaigokensaku.mhlw.go.jp/12/index.php?action_kouhyou_detail_004_kani=true&JigyosyoCd=12B3900026-00&ServiceCd=160&Type=search", "url2": "http://www.ebihara.or.jp" }, "geometry": { "type": "Point", "coordinates": [ 140.0910754, 35.0914651 ] } },
{ "type": "Feature", "properties": { "内容": "初富保健病院【通所リハビリテーション】千葉県鎌ヶ谷市初富114番地", "url": "https://www.kaigokensaku.mhlw.go.jp/12/index.php?action_kouhyou_detail_004_kani=true&JigyosyoCd=1212610244-00&ServiceCd=160&Type=search", "url2": "http://www.hatsutomi.or.jp/" }, "geometry": { "type": "Point", "coordinates": [ 139.986230400000068, 35.784388 ] } },
{ "type": "Feature", "properties": { "内容": "ぞうさん通所リハビリテーション【通所リハビリテーション】千葉県鎌ケ谷市新鎌ケ谷2-8-13新鎌ケ谷FタワーⅡ1階", "url": "https://www.kaigokensaku.mhlw.go.jp/12/index.php?action_kouhyou_detail_004_kani=true&JigyosyoCd=1212611465-00&ServiceCd=160&Type=search", "url2": "https://whospitality.jp/home/ぞうさん通所リハビリステーション/" }, "geometry": { "type": "Point", "coordinates": [ 140.0000882, 35.7782406 ] } },
{ "type": "Feature", "properties": { "内容": "介護老人保健施設シルバーケア鎌ヶ谷【通所リハビリテーション】千葉県鎌ケ谷市初富125番地の1", "url": "https://www.kaigokensaku.mhlw.go.jp/12/index.php?action_kouhyou_detail_004_kani=true&JigyosyoCd=1252680036-00&ServiceCd=160&Type=search", "url2": "https://silvercare-kamagaya.jp" }, "geometry": { "type": "Point", "coordinates": [ 139.987973082278444, 35.7828975170859 ] } },
{ "type": "Feature", "properties": { "内容": "介護老人保健施設しんかま【通所リハビリテーション】千葉県鎌ケ谷市初富929-6鎌ケ谷総合病院内7階", "url": "https://www.kaigokensaku.mhlw.go.jp/12/index.php?action_kouhyou_detail_004_kani=true&JigyosyoCd=1252680044-00&ServiceCd=160&Type=search", "url2": "http://www.rouken-shinkama.com/" }, "geometry": { "type": "Point", "coordinates": [ 139.9965057, 35.7779067 ] } },
{ "type": "Feature", "properties": { "内容": "第２北総病院【通所リハビリテーション】千葉県鎌ケ谷市初富803", "url": "https://www.kaigokensaku.mhlw.go.jp/12/index.php?action_kouhyou_detail_004_kani=true&JigyosyoCd=1212610541-00&ServiceCd=160&Type=search", "url2": "http://www.dainihokuso.jp/" }, "geometry": { "type": "Point", "coordinates": [ 140.0210353, 35.7777171 ] } },
{ "type": "Feature", "properties": { "内容": "介護老人保健施設メディケアー君津【通所リハビリテーション】千葉県君津市八幡62-1", "url": "https://www.kaigokensaku.mhlw.go.jp/12/index.php?action_kouhyou_detail_004_kani=true&JigyosyoCd=1251180025-00&ServiceCd=160&Type=search", "url2": "http://park11.wakwak.com/~medhikea-kimitu/2page.html" }, "geometry": { "type": "Point", "coordinates": [ 139.908209899999946, 35.320746 ] } },
{ "type": "Feature", "properties": { "内容": "玄々堂君津病院【通所リハビリテーション】千葉県君津市東坂田4-7-20", "url": "https://www.kaigokensaku.mhlw.go.jp/12/index.php?action_kouhyou_detail_004_kani=true&JigyosyoCd=1211110063-00&ServiceCd=160&Type=search", "url2": "http://www.gengendo.jp/" }, "geometry": { "type": "Point", "coordinates": [ 139.8963822, 35.3361637 ] } },
{ "type": "Feature", "properties": { "内容": "医療法人社団君津あすなろ会あすなろクリニック【通所リハビリテーション】千葉県君津市久保1-2-2あすなろビル", "url": "https://www.kaigokensaku.mhlw.go.jp/12/index.php?action_kouhyou_detail_004_kani=true&JigyosyoCd=1211110717-00&ServiceCd=160&Type=search", "url2": "https://www.cl-asunaro.jp/" }, "geometry": { "type": "Point", "coordinates": [ 139.8980077, 35.3317193 ] } },
{ "type": "Feature", "properties": { "内容": "玄々堂じんクリニック【通所リハビリテーション】千葉県君津市坂田1599", "url": "https://www.kaigokensaku.mhlw.go.jp/12/index.php?action_kouhyou_detail_004_kani=true&JigyosyoCd=1211110899-00&ServiceCd=160&Type=search", "url2": "http://www.gengendo.jp" }, "geometry": { "type": "Point", "coordinates": [ 139.8892912, 35.3427849 ] } },
{ "type": "Feature", "properties": { "内容": "介護老人保健施設ケアセンターさきくさ【通所リハビリテーション】千葉県富津市青木1641", "url": "https://www.kaigokensaku.mhlw.go.jp/12/index.php?action_kouhyou_detail_004_kani=true&JigyosyoCd=1251280015-00&ServiceCd=160&Type=search", "url2": "https://sakikusa.wixsite.com/sakikusahome/discription" }, "geometry": { "type": "Point", "coordinates": [ 139.849582, 35.3258227 ] } },
{ "type": "Feature", "properties": { "内容": "玄々堂佐貫クリニック【通所リハビリテーション】千葉県富津市亀田445-3", "url": "https://www.kaigokensaku.mhlw.go.jp/12/index.php?action_kouhyou_detail_004_kani=true&JigyosyoCd=1211210475-00&ServiceCd=160&Type=search", "url2": null }, "geometry": { "type": "Point", "coordinates": [ 139.878170250184553, 35.261343764225778 ] } },
{ "type": "Feature", "properties": { "内容": "介護老人保健施設わかくさ【通所リハビリテーション】千葉県富津市上335-1", "url": "https://www.kaigokensaku.mhlw.go.jp/12/index.php?action_kouhyou_detail_004_kani=true&JigyosyoCd=1251280023-00&ServiceCd=160&Type=search", "url2": "http://www.saiseikai-wakakusa.or.jp/shisetsu.html" }, "geometry": { "type": "Point", "coordinates": [ 139.888348800000017, 35.287509 ] } },
{ "type": "Feature", "properties": { "内容": "医療法人社団俊真会鈴木内科クリニック通所リハビリテーション【通所リハビリテーション】千葉県富津市長崎331-1", "url": "https://www.kaigokensaku.mhlw.go.jp/12/index.php?action_kouhyou_detail_004_kani=true&JigyosyoCd=1273101053-00&ServiceCd=160&Type=search", "url2": null }, "geometry": { "type": "Point", "coordinates": [ 139.906251699999984, 35.2198053 ] } },
{ "type": "Feature", "properties": { "内容": "介護老人保健施設浦安ベテルホーム【通所リハビリテーション】千葉県浦安市高洲九丁目3-2", "url": "https://www.kaigokensaku.mhlw.go.jp/12/index.php?action_kouhyou_detail_004_kani=true&JigyosyoCd=1251980019-00&ServiceCd=160&Type=search", "url2": null }, "geometry": { "type": "Point", "coordinates": [ 139.918790899999976, 35.6315822 ] } },
{ "type": "Feature", "properties": { "内容": "介護老人保健施設のぞみ【通所リハビリテーション】千葉県四街道市大日1685-10", "url": "https://www.kaigokensaku.mhlw.go.jp/12/index.php?action_kouhyou_detail_004_kani=true&JigyosyoCd=1254480018-00&ServiceCd=160&Type=search", "url2": "https://keitoku-nozomi.jp/" }, "geometry": { "type": "Point", "coordinates": [ 140.152706500000022, 35.679502800000016 ] } },
{ "type": "Feature", "properties": { "内容": "そはら整形外科【通所リハビリテーション】千葉県四街道市鹿渡1109", "url": "https://www.kaigokensaku.mhlw.go.jp/12/index.php?action_kouhyou_detail_004_kani=true&JigyosyoCd=1214410619-00&ServiceCd=160&Type=search", "url2": "http://sohara.net/" }, "geometry": { "type": "Point", "coordinates": [ 140.173682500000041, 35.6635675 ] } },
{ "type": "Feature", "properties": { "内容": "四街道徳洲会病院デイケア【通所リハビリテーション】千葉県四街道市吉岡１８３０－１", "url": "https://www.kaigokensaku.mhlw.go.jp/12/index.php?action_kouhyou_detail_004_kani=true&JigyosyoCd=1273300531-00&ServiceCd=160&Type=search", "url2": "https://yotsutoku.jp/" }, "geometry": { "type": "Point", "coordinates": [ 140.187032400000021, 35.6283497 ] } },
{ "type": "Feature", "properties": { "内容": "四街道駅クリニック【通所リハビリテーション】千葉県四街道市四街道1-1JR四街道駅ビル4階", "url": "https://www.kaigokensaku.mhlw.go.jp/12/index.php?action_kouhyou_detail_004_kani=true&JigyosyoCd=1214410767-00&ServiceCd=160&Type=search", "url2": "https://www.yotsukaido-clinic.com/" }, "geometry": { "type": "Point", "coordinates": [ 140.164515599999987, 35.662639 ] } },
{ "type": "Feature", "properties": { "内容": "介護老人保健施設栗の郷【通所リハビリテーション】千葉県四街道市栗山906-1", "url": "https://www.kaigokensaku.mhlw.go.jp/12/index.php?action_kouhyou_detail_004_kani=true&JigyosyoCd=1254480026-00&ServiceCd=160&Type=search", "url2": "https://www.kuriyama-hp.jp/info/kurinosato.html" }, "geometry": { "type": "Point", "coordinates": [ 140.176325499999962, 35.678348799999981 ] } },
{ "type": "Feature", "properties": { "内容": "介護老人保健施設メディケアーやまゆり【通所リハビリテーション】千葉県袖ヶ浦市奈良輪７３０番地", "url": "https://www.kaigokensaku.mhlw.go.jp/12/index.php?action_kouhyou_detail_004_kani=true&JigyosyoCd=1250980011-00&ServiceCd=160&Type=search", "url2": "https://koukyu-kai.com/yamayuri/" }, "geometry": { "type": "Point", "coordinates": [ 139.963170900000023, 35.4334992 ] } },
{ "type": "Feature", "properties": { "内容": "介護老人保健施設カトレアンホーム【通所リハビリテーション】千葉県袖ヶ浦市蔵波２７１３番１", "url": "https://www.kaigokensaku.mhlw.go.jp/12/index.php?action_kouhyou_detail_004_kani=true&JigyosyoCd=1250980029-00&ServiceCd=160&Type=search", "url2": "http://s-satsukikai.or.jp/" }, "geometry": { "type": "Point", "coordinates": [ 139.989856599999939, 35.4387347 ] } },
{ "type": "Feature", "properties": { "内容": "袖ケ浦さつき台病院【通所リハビリテーション】千葉県袖ケ浦市長浦駅前5丁目21番地", "url": "https://www.kaigokensaku.mhlw.go.jp/12/index.php?action_kouhyou_detail_004_kani=true&JigyosyoCd=1210910307-00&ServiceCd=160&Type=search", "url2": "http://www.satsuki-kai.or.jp" }, "geometry": { "type": "Point", "coordinates": [ 140.006255300000021, 35.4456764 ] } },
{ "type": "Feature", "properties": { "内容": "海保病院【通所リハビリテーション】千葉県八街市八街ほ386", "url": "https://www.kaigokensaku.mhlw.go.jp/12/index.php?action_kouhyou_detail_004_kani=true&JigyosyoCd=1214510012-00&ServiceCd=160&Type=search", "url2": "http://med.kaiho.jp/" }, "geometry": { "type": "Point", "coordinates": [ 140.318644642852746, 35.656195391545886 ] } },
{ "type": "Feature", "properties": { "内容": "長谷川病院デイケアセンター【通所リハビリテーション】千葉県八街市八街に８５番地", "url": "https://www.kaigokensaku.mhlw.go.jp/12/index.php?action_kouhyou_detail_004_kani=true&JigyosyoCd=1273500411-00&ServiceCd=160&Type=search", "url2": "http://hp-hasegawa.or.jp/" }, "geometry": { "type": "Point", "coordinates": [ 140.324863783991987, 35.662470018611273 ] } },
{ "type": "Feature", "properties": { "内容": "介護老人保健施設さんふらわ【通所リハビリテーション】千葉県八街市八街ほ45-1", "url": "https://www.kaigokensaku.mhlw.go.jp/12/index.php?action_kouhyou_detail_004_kani=true&JigyosyoCd=1254580015-00&ServiceCd=160&Type=search", "url2": "http://www.rouken-sunflower.or.jp/" }, "geometry": { "type": "Point", "coordinates": [ 140.316265599999952, 35.6676084 ] } },
{ "type": "Feature", "properties": { "内容": "介護老人保健施設ヴィラ大森【通所リハビリテーション】千葉県印西市大森2218-1", "url": "https://www.kaigokensaku.mhlw.go.jp/12/index.php?action_kouhyou_detail_004_kani=true&JigyosyoCd=1254680013-00&ServiceCd=160&Type=search", "url2": "https://chibaishinkai.com/" }, "geometry": { "type": "Point", "coordinates": [ 140.149954100000059, 35.8267132 ] } },
{ "type": "Feature", "properties": { "内容": "医療法人平成博愛会　印西総合病院【通所リハビリテーション】千葉県印西市牧の台１－１－１", "url": "https://www.kaigokensaku.mhlw.go.jp/12/index.php?action_kouhyou_detail_004_kani=true&JigyosyoCd=1214610572-00&ServiceCd=160&Type=search", "url2": "https://inzai-hospital.jp/" }, "geometry": { "type": "Point", "coordinates": [ 140.16311989999997, 35.8131623 ] } },
{ "type": "Feature", "properties": { "内容": "介護老人保健施設アモールケア白井【通所リハビリテーション】千葉県白井市復1448-30", "url": "https://www.kaigokensaku.mhlw.go.jp/12/index.php?action_kouhyou_detail_004_kani=true&JigyosyoCd=1254780011-00&ServiceCd=160&Type=search", "url2": "http://ac-shiroi.com/" }, "geometry": { "type": "Point", "coordinates": [ 140.057137307624771, 35.793740108165721 ] } },
{ "type": "Feature", "properties": { "内容": "北総白井病院通所リハビリテーション【通所リハビリテーション】千葉県白井市根325-2-1", "url": "https://www.kaigokensaku.mhlw.go.jp/12/index.php?action_kouhyou_detail_004_kani=true&JigyosyoCd=1214710034-00&ServiceCd=160&Type=search", "url2": "http://r34.sakura.ne.jp/hf/hokusou/index.html" }, "geometry": { "type": "Point", "coordinates": [ 140.032425800000055, 35.7704156 ] } },
{ "type": "Feature", "properties": { "内容": "さつきの里クリニック【通所リハビリテーション】千葉県白井市笹塚3-25-1", "url": "https://www.kaigokensaku.mhlw.go.jp/12/index.php?action_kouhyou_detail_004_kani=true&JigyosyoCd=1214710414-00&ServiceCd=160&Type=search", "url2": "https://kojk.jp/satsukinosato/index.html" }, "geometry": { "type": "Point", "coordinates": [ 140.054347, 35.789925 ] } },
{ "type": "Feature", "properties": { "内容": "介護老人保健施設ケアホーム白井【通所リハビリテーション】千葉県白井市中１７０", "url": "https://www.kaigokensaku.mhlw.go.jp/12/index.php?action_kouhyou_detail_004_kani=true&JigyosyoCd=1254180022-00&ServiceCd=160&Type=search", "url2": "http://www.shiroi-rouken.jp/" }, "geometry": { "type": "Point", "coordinates": [ 140.044808500000045, 35.8176015 ] } },
{ "type": "Feature", "properties": { "内容": "介護老人保健施設龍岡ケアセンター【通所リハビリテーション】千葉県富里市七栄653-73", "url": "https://www.kaigokensaku.mhlw.go.jp/12/index.php?action_kouhyou_detail_004_kani=true&JigyosyoCd=1254180048-00&ServiceCd=160&Type=search", "url2": "https://www.tomomikai.com/" }, "geometry": { "type": "Point", "coordinates": [ 140.336122700000033, 35.7257167 ] } },
{ "type": "Feature", "properties": { "内容": "花の谷クリニック【通所リハビリテーション】千葉県南房総市千倉町白子2446", "url": "https://www.kaigokensaku.mhlw.go.jp/12/index.php?action_kouhyou_detail_004_kani=true&JigyosyoCd=1215110135-00&ServiceCd=160&Type=search", "url2": "https://hananotani.jp/" }, "geometry": { "type": "Point", "coordinates": [ 139.96915869999998, 34.9851778 ] } },
{ "type": "Feature", "properties": { "内容": "医療法人　美篶会　中原病院【通所リハビリテーション】千葉県南房総市和田町仁我浦１９番地１", "url": "https://www.kaigokensaku.mhlw.go.jp/12/index.php?action_kouhyou_detail_004_kani=true&JigyosyoCd=1215110127-00&ServiceCd=160&Type=search", "url2": "http://www.nakahara-hosp.or.jp/" }, "geometry": { "type": "Point", "coordinates": [ 140.01780830000007, 35.0395768 ] } },
{ "type": "Feature", "properties": { "内容": "松永医院通所リハビリテーション【通所リハビリテーション】千葉県南房総市千倉町平舘764-1", "url": "https://www.kaigokensaku.mhlw.go.jp/12/index.php?action_kouhyou_detail_004_kani=true&JigyosyoCd=1215110218-00&ServiceCd=160&Type=search", "url2": "http://www.egao-group.jp/" }, "geometry": { "type": "Point", "coordinates": [ 139.960621700000047, 34.9532678 ] } },
{ "type": "Feature", "properties": { "内容": "医療法人光洋会　介護老人保健施設光栄館【通所リハビリテーション】千葉県南房総市谷向166-1", "url": "https://www.kaigokensaku.mhlw.go.jp/12/index.php?action_kouhyou_detail_004_kani=true&JigyosyoCd=1253580016-00&ServiceCd=160&Type=search", "url2": "https://www.ko-yo-kai.jp/" }, "geometry": { "type": "Point", "coordinates": [ 139.893876200000022, 35.0259102 ] } },
{ "type": "Feature", "properties": { "内容": "介護老人保健施設葵の園・南房総【通所リハビリテーション】千葉県南房総市久枝1140", "url": "https://www.kaigokensaku.mhlw.go.jp/12/index.php?action_kouhyou_detail_004_kani=true&JigyosyoCd=1255180013-00&ServiceCd=160&Type=search", "url2": "https://www.aoikai.jp/" }, "geometry": { "type": "Point", "coordinates": [ 139.8397291, 35.0984886 ] } },
{ "type": "Feature", "properties": { "内容": "介護老人保健施設晴耕苑【通所リハビリテーション】千葉県南房総市千倉町忽戸６９２－１", "url": "https://www.kaigokensaku.mhlw.go.jp/12/index.php?action_kouhyou_detail_004_kani=true&JigyosyoCd=1253580032-00&ServiceCd=160&Type=search", "url2": "https://seikoen.info/" }, "geometry": { "type": "Point", "coordinates": [ 139.960572, 34.9448854 ] } },
{ "type": "Feature", "properties": { "内容": "七浦リハビリテーションセンター【通所リハビリテーション】千葉県南房総市千倉町大川638番地ななうら", "url": "https://www.kaigokensaku.mhlw.go.jp/12/index.php?action_kouhyou_detail_004_kani=true&JigyosyoCd=1278800519-00&ServiceCd=160&Type=search", "url2": "https://nanaurashinryojo.com" }, "geometry": { "type": "Point", "coordinates": [ 139.944985108737228, 34.93189455531332 ] } },
{ "type": "Feature", "properties": { "内容": "介護老人保健施設　ミス・ヘンテ記念ケアセンター【通所リハビリテーション】千葉県匝瑳市飯倉２０", "url": "https://www.kaigokensaku.mhlw.go.jp/12/index.php?action_kouhyou_detail_004_kani=true&JigyosyoCd=1251680016-00&ServiceCd=160&Type=search", "url2": "https://www.99-home.com/" }, "geometry": { "type": "Point", "coordinates": [ 140.524127600000043, 35.687155 ] } },
{ "type": "Feature", "properties": { "内容": "匝瑳市介護老人保健施設そうさぬくもりの郷【通所リハビリテーション】千葉県匝瑳市中台305番地", "url": "https://www.kaigokensaku.mhlw.go.jp/12/index.php?action_kouhyou_detail_004_kani=true&JigyosyoCd=1251680024-00&ServiceCd=160&Type=search", "url2": "https://www.sosa-hp.jp/nukumorinosato/" }, "geometry": { "type": "Point", "coordinates": [ 140.5354752, 35.7080487 ] } },
{ "type": "Feature", "properties": { "内容": "小見川ひまわりクリニック【通所リハビリテーション】千葉県香取市分郷32-1", "url": "https://www.kaigokensaku.mhlw.go.jp/12/index.php?action_kouhyou_detail_004_kani=true&JigyosyoCd=1215210414-00&ServiceCd=160&Type=search", "url2": "http://www.eiseikai.com/omigawa/" }, "geometry": { "type": "Point", "coordinates": [ 140.597679299999982, 35.8616944 ] } },
{ "type": "Feature", "properties": { "内容": "介護老人保健施設おおくすの郷【通所リハビリテーション】千葉県香取市府馬３７２３番地", "url": "https://www.kaigokensaku.mhlw.go.jp/12/index.php?action_kouhyou_detail_004_kani=true&JigyosyoCd=1253080041-00&ServiceCd=160&Type=search", "url2": "https://ookusunosato.com/" }, "geometry": { "type": "Point", "coordinates": [ 140.6045686, 35.7860387 ] } },
{ "type": "Feature", "properties": { "内容": "介護老人保健施設おみがわ【通所リハビリテーション】千葉県香取市小見川4662番地2", "url": "https://www.kaigokensaku.mhlw.go.jp/12/index.php?action_kouhyou_detail_004_kani=true&JigyosyoCd=1253080033-00&ServiceCd=160&Type=search", "url2": "http://www.sanseikai.or.jp" }, "geometry": { "type": "Point", "coordinates": [ 140.585308700000041, 35.8540005 ] } },
{ "type": "Feature", "properties": { "内容": "医療法人社団君津あすなろ会　小見川あすなろクリニック【通所リハビリテーション】千葉県香取市野田280-1", "url": "https://www.kaigokensaku.mhlw.go.jp/12/index.php?action_kouhyou_detail_004_kani=true&JigyosyoCd=1215210737-00&ServiceCd=160&Type=search", "url2": "https://cl-omigawaasunaro.jp/" }, "geometry": { "type": "Point", "coordinates": [ 140.5931941, 35.8517843 ] } },
{ "type": "Feature", "properties": { "内容": "イムス佐原リハビリテーション病院【通所リハビリテーション】千葉県香取市佐原ロ2121-1", "url": "https://www.kaigokensaku.mhlw.go.jp/12/index.php?action_kouhyou_detail_004_kani=true&JigyosyoCd=1215210265-00&ServiceCd=160&Type=search", "url2": "https://www.ims.gr.jp/sawara_reha/index.html" }, "geometry": { "type": "Point", "coordinates": [ 140.500570700000026, 35.90121 ] } },
{ "type": "Feature", "properties": { "内容": "医療法人社団　寿光会　栗源病院【通所リハビリテーション】千葉県香取市助沢832-1", "url": "https://www.kaigokensaku.mhlw.go.jp/12/index.php?action_kouhyou_detail_004_kani=true&JigyosyoCd=1215210505-00&ServiceCd=160&Type=search", "url2": "http://www.kurimoto-hp.com/" }, "geometry": { "type": "Point", "coordinates": [ 140.501350600000023, 35.817839900000024 ] } },
{ "type": "Feature", "properties": { "内容": "介護老人保健施設夢プラスワン【通所リハビリテーション】千葉県香取市大倉字入り1196-1", "url": "https://www.kaigokensaku.mhlw.go.jp/12/index.php?action_kouhyou_detail_004_kani=true&JigyosyoCd=1252980019-00&ServiceCd=160&Type=search", "url2": "https://yume-plusone.com/" }, "geometry": { "type": "Point", "coordinates": [ 140.557578566178904, 35.888565148432349 ] } },
{ "type": "Feature", "properties": { "内容": "介護老人保健施設松尾リハビリ苑【通所リハビリテーション】千葉県山武市松尾町田越７５６番地の５", "url": "https://www.kaigokensaku.mhlw.go.jp/12/index.php?action_kouhyou_detail_004_kani=true&JigyosyoCd=1250780015-00&ServiceCd=160&Type=search", "url2": null }, "geometry": { "type": "Point", "coordinates": [ 140.444602300000042, 35.629865 ] } },
{ "type": "Feature", "properties": { "内容": "介護老人保健施設日向の里【通所リハビリテーション】千葉県山武市木原２１００", "url": "https://www.kaigokensaku.mhlw.go.jp/12/index.php?action_kouhyou_detail_004_kani=true&JigyosyoCd=1255380019-00&ServiceCd=160&Type=search", "url2": null }, "geometry": { "type": "Point", "coordinates": [ 140.349286799999959, 35.634057 ] } },
{ "type": "Feature", "properties": { "内容": "介護老人保健施設ハートビレッジ【通所リハビリテーション】千葉県山武市蓮沼ニ5035-4", "url": "https://www.kaigokensaku.mhlw.go.jp/12/index.php?action_kouhyou_detail_004_kani=true&JigyosyoCd=1250780023-00&ServiceCd=160&Type=search", "url2": "http://www.akibah.or.jp/" }, "geometry": { "type": "Point", "coordinates": [ 140.4828675, 35.5949479 ] } },
{ "type": "Feature", "properties": { "内容": "医療法人社団　鎮誠会　姫島クリニック【通所リハビリテーション】千葉県山武市姫島268-1姫島クリニック", "url": "https://www.kaigokensaku.mhlw.go.jp/12/index.php?action_kouhyou_detail_004_kani=true&JigyosyoCd=1215310198-00&ServiceCd=160&Type=search", "url2": "https://www.josn.jp/" }, "geometry": { "type": "Point", "coordinates": [ 140.389727900000025, 35.5895337 ] } },
{ "type": "Feature", "properties": { "内容": "介護老人保健施設エスポワール岬【通所リハビリテーション】千葉県いすみ市岬町和泉字苅込台３３０－１", "url": "https://www.kaigokensaku.mhlw.go.jp/12/index.php?action_kouhyou_detail_004_kani=true&JigyosyoCd=1253780020-00&ServiceCd=160&Type=search", "url2": "https://www.esp-misaki.com/" }, "geometry": { "type": "Point", "coordinates": [ 140.403098199999931, 35.323708 ] } },
{ "type": "Feature", "properties": { "内容": "介護老人保健施設　エスポワール大原【通所リハビリテーション】千葉県いすみ市日在2623", "url": "https://www.kaigokensaku.mhlw.go.jp/12/index.php?action_kouhyou_detail_004_kani=true&JigyosyoCd=1254980033-00&ServiceCd=160&Type=search", "url2": "https://www.esp-ohara.com/" }, "geometry": { "type": "Point", "coordinates": [ 140.388109100000065, 35.2759806 ] } },
{ "type": "Feature", "properties": { "内容": "ひあり内科医院【通所リハビリテーション】千葉県いすみ市日在1947-10", "url": "https://www.kaigokensaku.mhlw.go.jp/12/index.php?action_kouhyou_detail_004_kani=true&JigyosyoCd=1214910162-00&ServiceCd=160&Type=search", "url2": null }, "geometry": { "type": "Point", "coordinates": [ 140.394771600000013, 35.278880500000035 ] } },
{ "type": "Feature", "properties": { "内容": "介護老人保健施設杜の街【通所リハビリテーション】千葉県大網白里市南飯塚404-4", "url": "https://www.kaigokensaku.mhlw.go.jp/12/index.php?action_kouhyou_detail_004_kani=true&JigyosyoCd=1250780031-00&ServiceCd=160&Type=search", "url2": null }, "geometry": { "type": "Point", "coordinates": [ 140.346480299999939, 35.5030612 ] } },
{ "type": "Feature", "properties": { "内容": "季美の森リハビリテーション病院　通所リハビリテーション【通所リハビリテーション】千葉県大網白里市季美の森南1-30-1", "url": "https://www.kaigokensaku.mhlw.go.jp/12/index.php?action_kouhyou_detail_004_kani=true&JigyosyoCd=1279200230-00&ServiceCd=160&Type=search", "url2": "https://www.krh.jp/guidance/" }, "geometry": { "type": "Point", "coordinates": [ 140.2918191, 35.5544981 ] } },
{ "type": "Feature", "properties": { "内容": "千葉しすい病院通所リハビリテーション【通所リハビリテーション】千葉県印旛郡酒々井町上岩橋1160-2番地", "url": "https://www.kaigokensaku.mhlw.go.jp/12/index.php?action_kouhyou_detail_004_kani=true&JigyosyoCd=1214111894-00&ServiceCd=160&Type=search", "url2": "https://www.chibako.or.jp/" }, "geometry": { "type": "Point", "coordinates": [ 140.276717600000012, 35.7373738 ] } },
{ "type": "Feature", "properties": { "内容": "介護老人保健施設さかえケアセンター【通所リハビリテーション】千葉県印旛郡栄町安食2421", "url": "https://www.kaigokensaku.mhlw.go.jp/12/index.php?action_kouhyou_detail_004_kani=true&JigyosyoCd=1254180030-00&ServiceCd=160&Type=search", "url2": "http://www.ikusei-g.com" }, "geometry": { "type": "Point", "coordinates": [ 140.24975675225366, 35.835048602435421 ] } },
{ "type": "Feature", "properties": { "内容": "国保多古中央病院【通所リハビリテーション】千葉県香取郡多古町多古３８８－１", "url": "https://www.kaigokensaku.mhlw.go.jp/12/index.php?action_kouhyou_detail_004_kani=true&JigyosyoCd=1213010386-00&ServiceCd=160&Type=search", "url2": "http://www.takochu.tako.chiba.jp/" }, "geometry": { "type": "Point", "coordinates": [ 140.471852, 35.7381917 ] } },
{ "type": "Feature", "properties": { "内容": "東庄町国民健康保険東庄病院　介護医療院【通所リハビリテーション】千葉県香取郡東庄町石出2692番地15", "url": "https://www.kaigokensaku.mhlw.go.jp/12/index.php?action_kouhyou_detail_004_kani=true&JigyosyoCd=12B3000025-00&ServiceCd=160&Type=search", "url2": "http://www.town.tohnosho.chiba.jp/" }, "geometry": { "type": "Point", "coordinates": [ 140.697511100000014, 35.8205677 ] } },
{ "type": "Feature", "properties": { "内容": "九十九里病院【通所リハビリテーション】千葉県山武郡九十九里町片貝２７００", "url": "https://www.kaigokensaku.mhlw.go.jp/12/index.php?action_kouhyou_detail_004_kani=true&JigyosyoCd=1210710707-00&ServiceCd=160&Type=search", "url2": "http://kujyukuri-hp.or.jp/" }, "geometry": { "type": "Point", "coordinates": [ 140.437158700000026, 35.53394 ] } },
{ "type": "Feature", "properties": { "内容": "介護老人保健施設二川苑【通所リハビリテーション】千葉県山武郡芝山町山中678", "url": "https://www.kaigokensaku.mhlw.go.jp/12/index.php?action_kouhyou_detail_004_kani=true&JigyosyoCd=1250780049-00&ServiceCd=160&Type=search", "url2": "http://www.futakawaen.com/" }, "geometry": { "type": "Point", "coordinates": [ 140.434410500000013, 35.6959755 ] } },
{ "type": "Feature", "properties": { "内容": "介護老人保健施設睦沢の里【通所リハビリテーション】千葉県長生郡睦沢町大上1150番地", "url": "https://www.kaigokensaku.mhlw.go.jp/12/index.php?action_kouhyou_detail_004_kani=true&JigyosyoCd=1253280021-00&ServiceCd=160&Type=search", "url2": "http://www.mutsuzawanosato.jp" }, "geometry": { "type": "Point", "coordinates": [ 140.293990476057388, 35.335147372474744 ] } },
{ "type": "Feature", "properties": { "内容": "介護老人保健施設長柄ケアセンター【通所リハビリテーション】千葉県長生郡長柄町立鳥597-2", "url": "https://www.kaigokensaku.mhlw.go.jp/12/index.php?action_kouhyou_detail_004_kani=true&JigyosyoCd=1253280013-00&ServiceCd=160&Type=search", "url2": "http://www.seikoukai-hp.or.jp/" }, "geometry": { "type": "Point", "coordinates": [ 140.2187457, 35.4327941 ] } },
{ "type": "Feature", "properties": { "内容": "大多喜病院【通所リハビリテーション】千葉県夷隅郡大多喜町上原786", "url": "https://www.kaigokensaku.mhlw.go.jp/12/index.php?action_kouhyou_detail_004_kani=true&JigyosyoCd=1213710118-00&ServiceCd=160&Type=search", "url2": "http://www.ootaki-hp.jp" }, "geometry": { "type": "Point", "coordinates": [ 140.241895099999965, 35.2758731 ] } }
]
}
