{
"type": "FeatureCollection",
"name": "geo_12_地域密着型特定施設入居者生活介護（有料老人ホーム）",
"crs": { "type": "name", "properties": { "name": "urn:ogc:def:crs:OGC:1.3:CRS84" } },
"features": [
{ "type": "Feature", "properties": { "内容": "アットホームケアセンター【地域密着型特定施設入居者生活介護（有料老人ホーム）】千葉県千葉市中央区仁戸名町７２１－１３", "url2": "https://www.kaigokensaku.mhlw.go.jp/12/index.php?action_kouhyou_detail_004_kani=true&JigyosyoCd=1290100278-00&ServiceCd=361&Type=search" }, "geometry": { "type": "Point", "coordinates": [ 140.158052600000019, 35.587548 ] } },
{ "type": "Feature", "properties": { "内容": "ミモザおゆみ野【地域密着型特定施設入居者生活介護（有料老人ホーム）】千葉県千葉市緑区おゆみ野中央5-3-6", "url2": "https://www.kaigokensaku.mhlw.go.jp/12/index.php?action_kouhyou_detail_004_kani=true&JigyosyoCd=1290500048-00&ServiceCd=361&Type=search" }, "geometry": { "type": "Point", "coordinates": [ 140.170866599999954, 35.5584842 ] } },
{ "type": "Feature", "properties": { "内容": "地域密着型特定施設みつばレジデンス（介護付きホーム）【地域密着型特定施設入居者生活介護（有料老人ホーム）】千葉県銚子市豊里台1丁目1044番地の20", "url2": "https://www.kaigokensaku.mhlw.go.jp/12/index.php?action_kouhyou_detail_004_kani=true&JigyosyoCd=1290700077-00&ServiceCd=361&Type=search" }, "geometry": { "type": "Point", "coordinates": [ 140.7082818, 35.7880075 ] } },
{ "type": "Feature", "properties": { "内容": "アズハイム市川アネックス【地域密着型特定施設入居者生活介護（有料老人ホーム）】千葉県市川市須和田2丁目17番4号", "url2": "https://www.kaigokensaku.mhlw.go.jp/12/index.php?action_kouhyou_detail_004_kani=true&JigyosyoCd=1290800471-00&ServiceCd=361&Type=search" }, "geometry": { "type": "Point", "coordinates": [ 139.913288599999987, 35.7377033 ] } },
{ "type": "Feature", "properties": { "内容": "介護付き有料老人ホームきゃろっと【地域密着型特定施設入居者生活介護（有料老人ホーム）】千葉県船橋市本町4-8-30", "url2": "https://www.kaigokensaku.mhlw.go.jp/12/index.php?action_kouhyou_detail_004_kani=true&JigyosyoCd=1290900693-00&ServiceCd=361&Type=search" }, "geometry": { "type": "Point", "coordinates": [ 139.991010299999971, 35.7007205 ] } },
{ "type": "Feature", "properties": { "内容": "有料老人ホームみさき【地域密着型特定施設入居者生活介護（有料老人ホーム）】千葉県船橋市三咲4-23-15有料老人ホームみさき", "url2": "https://www.kaigokensaku.mhlw.go.jp/12/index.php?action_kouhyou_detail_004_kani=true&JigyosyoCd=1290900453-00&ServiceCd=361&Type=search" }, "geometry": { "type": "Point", "coordinates": [ 140.039576200000056, 35.7539615 ] } },
{ "type": "Feature", "properties": { "内容": "有料老人ホームはさま【地域密着型特定施設入居者生活介護（有料老人ホーム）】千葉県船橋市飯山満町2-685-3", "url2": "https://www.kaigokensaku.mhlw.go.jp/12/index.php?action_kouhyou_detail_004_kani=true&JigyosyoCd=1290901279-00&ServiceCd=361&Type=search" }, "geometry": { "type": "Point", "coordinates": [ 140.0186516, 35.7092246 ] } },
{ "type": "Feature", "properties": { "内容": "介護型サービス付き高齢者向け住宅なごみ中野台【地域密着型特定施設入居者生活介護（有料老人ホーム）】千葉県野田市中野台300", "url2": "https://www.kaigokensaku.mhlw.go.jp/12/index.php?action_kouhyou_detail_004_kani=true&JigyosyoCd=1291300323-00&ServiceCd=361&Type=search" }, "geometry": { "type": "Point", "coordinates": [ 139.855315830024722, 35.947928556019455 ] } },
{ "type": "Feature", "properties": { "内容": "シャロームきこえ染井野【地域密着型特定施設入居者生活介護（有料老人ホーム）】千葉県佐倉市染井野4-5-4", "url2": "https://www.kaigokensaku.mhlw.go.jp/12/index.php?action_kouhyou_detail_004_kani=true&JigyosyoCd=1291700027-00&ServiceCd=361&Type=search" }, "geometry": { "type": "Point", "coordinates": [ 140.192630248514206, 35.71652180512752 ] } },
{ "type": "Feature", "properties": { "内容": "ゆかり（愉花里）大原【地域密着型特定施設入居者生活介護（有料老人ホーム）】千葉県いすみ市大原8763-1", "url2": "https://www.kaigokensaku.mhlw.go.jp/12/index.php?action_kouhyou_detail_004_kani=true&JigyosyoCd=1298600022-00&ServiceCd=361&Type=search" }, "geometry": { "type": "Point", "coordinates": [ 140.389544600000022, 35.2523418 ] } },
{ "type": "Feature", "properties": { "内容": "ぱれっと【地域密着型特定施設入居者生活介護（有料老人ホーム）】千葉県印旛郡栄町安食2888", "url2": "https://www.kaigokensaku.mhlw.go.jp/12/index.php?action_kouhyou_detail_004_kani=true&JigyosyoCd=1294400021-00&ServiceCd=361&Type=search" }, "geometry": { "type": "Point", "coordinates": [ 140.235343300000068, 35.8368395 ] } }
]
}
