{
"type": "FeatureCollection",
"name": "geo_12_義務教育学校",
"crs": { "type": "name", "properties": { "name": "urn:ogc:def:crs:EPSG::6668" } },
"features": [
{ "type": "Feature", "properties": { "P29_001": "12203", "P29_002": "C212210000012", "P29_003": "16014", "P29_004": "市川市立塩浜学園", "P29_005": "千葉県市川市塩浜4-5-1", "P29_006": "3", "P29_007": "1", "P29_008": "00", "P29_009": null }, "geometry": { "type": "Point", "coordinates": [ 139.914882718434825, 35.664601445464314 ] } },
{ "type": "Feature", "properties": { "P29_001": "12211", "P29_002": "C212210000021", "P29_003": "16014", "P29_004": "成田市立下総みどり学園", "P29_005": "千葉県成田市名古屋1214", "P29_006": "3", "P29_007": "1", "P29_008": "00", "P29_009": null }, "geometry": { "type": "Point", "coordinates": [ 140.363233450868222, 35.862755806483968 ] } },
{ "type": "Feature", "properties": { "P29_001": "12211", "P29_002": "C212210000030", "P29_003": "16014", "P29_004": "成田市立大栄みらい学園", "P29_005": "千葉県成田市伊能125", "P29_006": "3", "P29_007": "1", "P29_008": "00", "P29_009": null }, "geometry": { "type": "Point", "coordinates": [ 140.425433414617657, 35.832608991245422 ] } },
{ "type": "Feature", "properties": { "P29_001": "12221", "P29_002": "C212210000049", "P29_003": "16014", "P29_004": "八千代市立阿蘇米本学園", "P29_005": "千葉県八千代市米本1914", "P29_006": "3", "P29_007": "1", "P29_008": "00", "P29_009": null }, "geometry": { "type": "Point", "coordinates": [ 140.123903533178975, 35.745124188979595 ] } }
]
}
