{
"type": "FeatureCollection",
"name": "geo_12_幼保連携型認定こども園",
"crs": { "type": "name", "properties": { "name": "urn:ogc:def:crs:EPSG::6668" } },
"features": [
{ "type": "Feature", "properties": { "P29_001": "12205", "P29_002": "A212210000016", "P29_003": "16013", "P29_004": "館山市立船形こども園", "P29_005": "千葉県館山市船形406-7", "P29_006": "3", "P29_007": "0", "P29_008": "00", "P29_009": null }, "geometry": { "type": "Point", "coordinates": [ 139.847044143108349, 35.027709823422128 ] } },
{ "type": "Feature", "properties": { "P29_001": "12213", "P29_002": "A212210000043", "P29_003": "16013", "P29_004": "東金市立福岡こども園", "P29_005": "千葉県東金市砂古瀬476-1", "P29_006": "3", "P29_007": "0", "P29_008": "00", "P29_009": null }, "geometry": { "type": "Point", "coordinates": [ 140.380195767862034, 35.513940391681771 ] } },
{ "type": "Feature", "properties": { "P29_001": "12218", "P29_002": "A212210000105", "P29_003": "16013", "P29_004": "勝浦市立勝浦こども園", "P29_005": "千葉県勝浦市出水1200", "P29_006": "3", "P29_007": "0", "P29_008": "00", "P29_009": null }, "geometry": { "type": "Point", "coordinates": [ 140.316766596918029, 35.152608597967571 ] } },
{ "type": "Feature", "properties": { "P29_001": "12219", "P29_002": "A212210000123", "P29_003": "16013", "P29_004": "市原市立市原市五井認定こども園", "P29_005": "千葉県市原市五井5470", "P29_006": "3", "P29_007": "0", "P29_008": "00", "P29_009": null }, "geometry": { "type": "Point", "coordinates": [ 140.089572498496608, 35.521464764579179 ] } },
{ "type": "Feature", "properties": { "P29_001": "12219", "P29_002": "A212210000150", "P29_003": "16013", "P29_004": "市原市立市原市高滝認定こども園", "P29_005": "千葉県市原市養老952", "P29_006": "3", "P29_007": "0", "P29_008": "00", "P29_009": null }, "geometry": { "type": "Point", "coordinates": [ 140.152204170035475, 35.354319487661655 ] } },
{ "type": "Feature", "properties": { "P29_001": "12219", "P29_002": "A212210000169", "P29_003": "16013", "P29_004": "市原市立市原市辰巳台認定こども園", "P29_005": "千葉県市原市辰巳台東2-21-1", "P29_006": "3", "P29_007": "0", "P29_008": "00", "P29_009": null }, "geometry": { "type": "Point", "coordinates": [ 140.158639825492884, 35.523420655377237 ] } },
{ "type": "Feature", "properties": { "P29_001": "12223", "P29_002": "A212210000178", "P29_003": "16013", "P29_004": "鴨川市立江見認定こども園", "P29_005": "千葉県鴨川市宮1455", "P29_006": "3", "P29_007": "0", "P29_008": "00", "P29_009": null }, "geometry": { "type": "Point", "coordinates": [ 140.084537108305085, 35.090634626048754 ] } },
{ "type": "Feature", "properties": { "P29_001": "12223", "P29_002": "A212210000187", "P29_003": "16013", "P29_004": "鴨川市立西条認定こども園", "P29_005": "千葉県鴨川市八色869", "P29_006": "3", "P29_007": "0", "P29_008": "00", "P29_009": null }, "geometry": { "type": "Point", "coordinates": [ 140.085591648950725, 35.123035218080219 ] } },
{ "type": "Feature", "properties": { "P29_001": "12223", "P29_002": "A212210000196", "P29_003": "16013", "P29_004": "鴨川市立長狭認定こども園", "P29_005": "千葉県鴨川市松尾寺417", "P29_006": "3", "P29_007": "0", "P29_008": "00", "P29_009": null }, "geometry": { "type": "Point", "coordinates": [ 140.006906428100166, 35.132325736131939 ] } },
{ "type": "Feature", "properties": { "P29_001": "12223", "P29_002": "A212210000212", "P29_003": "16013", "P29_004": "鴨川市立田原認定こども園", "P29_005": "千葉県鴨川市太尾369-1", "P29_006": "3", "P29_007": "0", "P29_008": "00", "P29_009": null }, "geometry": { "type": "Point", "coordinates": [ 140.068310218666312, 35.121606681639754 ] } },
{ "type": "Feature", "properties": { "P29_001": "12223", "P29_002": "A212210000221", "P29_003": "16013", "P29_004": "鴨川市立天津小湊認定こども園", "P29_005": "千葉県鴨川市天津1208-1", "P29_006": "3", "P29_007": "0", "P29_008": "00", "P29_009": null }, "geometry": { "type": "Point", "coordinates": [ 140.154689814719319, 35.123706322179736 ] } },
{ "type": "Feature", "properties": { "P29_001": "12422", "P29_002": "A212210000338", "P29_003": "16013", "P29_004": "睦沢町立睦沢こども園", "P29_005": "千葉県長生郡睦沢町上之郷1736", "P29_006": "3", "P29_007": "0", "P29_008": "00", "P29_009": null }, "geometry": { "type": "Point", "coordinates": [ 140.313600012560073, 35.35616865482794 ] } },
{ "type": "Feature", "properties": { "P29_001": "12426", "P29_002": "A212210000347", "P29_003": "16013", "P29_004": "長柄町立ながらこども園", "P29_005": "千葉県長生郡長柄町鴇谷879-3", "P29_006": "3", "P29_007": "0", "P29_008": "00", "P29_009": null }, "geometry": { "type": "Point", "coordinates": [ 140.220567284728133, 35.428589810816604 ] } },
{ "type": "Feature", "properties": { "P29_001": "12101", "P29_002": "A212310000023", "P29_003": "16013", "P29_004": "認定こども園はまの幼稚園", "P29_005": "千葉県千葉市中央区浜野町1252-4", "P29_006": "4", "P29_007": "0", "P29_008": "00", "P29_009": null }, "geometry": { "type": "Point", "coordinates": [ 140.129551365987112, 35.558324221127648 ] } },
{ "type": "Feature", "properties": { "P29_001": "12105", "P29_002": "A212310000041", "P29_003": "16013", "P29_004": "白梅幼稚園", "P29_005": "千葉県千葉市緑区誉田町2-24", "P29_006": "4", "P29_007": "0", "P29_008": "00", "P29_009": null }, "geometry": { "type": "Point", "coordinates": [ 140.215673343298562, 35.545518058391309 ] } },
{ "type": "Feature", "properties": { "P29_001": "12105", "P29_002": "A212310000050", "P29_003": "16013", "P29_004": "認定こども園キッズビレッジ", "P29_005": "千葉県千葉市緑区おゆみ野4-30", "P29_006": "4", "P29_007": "0", "P29_008": "00", "P29_009": null }, "geometry": { "type": "Point", "coordinates": [ 140.180055975371857, 35.557635591832607 ] } },
{ "type": "Feature", "properties": { "P29_001": "12105", "P29_002": "A212310000069", "P29_003": "16013", "P29_004": "認定こども園明徳土気こども園", "P29_005": "千葉県千葉市緑区土気町1626-5", "P29_006": "4", "P29_007": "0", "P29_008": "00", "P29_009": null }, "geometry": { "type": "Point", "coordinates": [ 140.269703774565386, 35.532628856215439 ] } },
{ "type": "Feature", "properties": { "P29_001": "12206", "P29_002": "A212310000176", "P29_003": "16013", "P29_004": "幼保連携型認定こども園長須賀保育園", "P29_005": "千葉県木更津市長須賀1309", "P29_006": "4", "P29_007": "0", "P29_008": "00", "P29_009": null }, "geometry": { "type": "Point", "coordinates": [ 139.934499618550007, 35.396113633829955 ] } },
{ "type": "Feature", "properties": { "P29_001": "12206", "P29_002": "A212310000185", "P29_003": "16013", "P29_004": "幼保連携型認定こども園さとの保育園", "P29_005": "千葉県木更津市下烏田893", "P29_006": "4", "P29_007": "0", "P29_008": "00", "P29_009": null }, "geometry": { "type": "Point", "coordinates": [ 139.921965910355937, 35.35668951511979 ] } },
{ "type": "Feature", "properties": { "P29_001": "12206", "P29_002": "A212310000194", "P29_003": "16013", "P29_004": "幼保連携型認定こども園岩根こども園", "P29_005": "千葉県木更津市高柳3-9-13", "P29_006": "4", "P29_007": "0", "P29_008": "00", "P29_009": null }, "geometry": { "type": "Point", "coordinates": [ 139.943512131404816, 35.41367591251133 ] } },
{ "type": "Feature", "properties": { "P29_001": "12206", "P29_002": "A212310000201", "P29_003": "16013", "P29_004": "木更津むつみこども園", "P29_005": "千葉県木更津市請西2-12-8", "P29_006": "4", "P29_007": "0", "P29_008": "00", "P29_009": null }, "geometry": { "type": "Point", "coordinates": [ 139.945300015791332, 35.373864380286747 ] } },
{ "type": "Feature", "properties": { "P29_001": "12210", "P29_002": "A212310000327", "P29_003": "16013", "P29_004": "高師保育園", "P29_005": "千葉県茂原市高師864-1", "P29_006": "4", "P29_007": "0", "P29_008": "00", "P29_009": null }, "geometry": { "type": "Point", "coordinates": [ 140.29778083030655, 35.42845426362571 ] } },
{ "type": "Feature", "properties": { "P29_001": "12219", "P29_002": "A212310000504", "P29_003": "16013", "P29_004": "ちぐさ蒼空こども園", "P29_005": "千葉県市原市青柳2040-3", "P29_006": "4", "P29_007": "0", "P29_008": "00", "P29_009": null }, "geometry": { "type": "Point", "coordinates": [ 140.06124762972496, 35.497641841062119 ] } },
{ "type": "Feature", "properties": { "P29_001": "12223", "P29_002": "A212310000595", "P29_003": "16013", "P29_004": "認定こども園ＯＵＲＳ", "P29_005": "千葉県鴨川市広場字東池田1726-1", "P29_006": "4", "P29_007": "0", "P29_008": "00", "P29_009": null }, "geometry": { "type": "Point", "coordinates": [ 140.108894402489739, 35.12347753209383 ] } },
{ "type": "Feature", "properties": { "P29_001": "12229", "P29_002": "A212310000620", "P29_003": "16013", "P29_004": "幼保連携型認定こども園まりん", "P29_005": "千葉県袖ケ浦市袖ケ浦駅前2-34-2", "P29_006": "4", "P29_007": "0", "P29_008": "00", "P29_009": null }, "geometry": { "type": "Point", "coordinates": [ 139.957044595887822, 35.436100679169691 ] } },
{ "type": "Feature", "properties": { "P29_001": "12234", "P29_002": "A212310000684", "P29_003": "16013", "P29_004": "幼保連携型認定こども園こどもの森", "P29_005": "千葉県南房総市白浜町白浜2224", "P29_006": "4", "P29_007": "0", "P29_008": "00", "P29_009": null }, "geometry": { "type": "Point", "coordinates": [ 139.896993649140256, 34.911520917022152 ] } },
{ "type": "Feature", "properties": { "P29_001": "12206", "P29_002": "A212310000791", "P29_003": "16013", "P29_004": "みやまのさくら保育園", "P29_005": "千葉県木更津市井尻911-1", "P29_006": "4", "P29_007": "0", "P29_008": "00", "P29_009": null }, "geometry": { "type": "Point", "coordinates": [ 139.97356051570037, 35.406373150658133 ] } },
{ "type": "Feature", "properties": { "P29_001": "12210", "P29_002": "A212310000808", "P29_003": "16013", "P29_004": "公私連携幼保連携型こども園ほのおかこども園", "P29_005": "千葉県茂原市本納字馬場谷3302-1", "P29_006": "4", "P29_007": "0", "P29_008": "00", "P29_009": null }, "geometry": { "type": "Point", "coordinates": [ 140.294643702013218, 35.480640785706612 ] } },
{ "type": "Feature", "properties": { "P29_001": "12101", "P29_002": "A212310000014", "P29_003": "16013", "P29_004": "植草学園大学附属弁天こども園", "P29_005": "千葉県千葉市中央区弁天2-7-1", "P29_006": "4", "P29_007": "0", "P29_008": "00", "P29_009": null }, "geometry": { "type": "Point", "coordinates": [ 140.114877706234608, 35.615602059699199 ] } },
{ "type": "Feature", "properties": { "P29_001": "12103", "P29_002": "A212310000032", "P29_003": "16013", "P29_004": "ウィズダムナーサリースクール", "P29_005": "千葉県千葉市稲毛区園生町787-4", "P29_006": "4", "P29_007": "0", "P29_008": "00", "P29_009": null }, "geometry": { "type": "Point", "coordinates": [ 140.106686719491933, 35.646082717340114 ] } },
{ "type": "Feature", "properties": { "P29_001": "12106", "P29_002": "A212310000078", "P29_003": "16013", "P29_004": "千葉女子専門学校付属聖こども園", "P29_005": "千葉県千葉市美浜区高洲2-3-24", "P29_006": "4", "P29_007": "0", "P29_008": "00", "P29_009": null }, "geometry": { "type": "Point", "coordinates": [ 140.076821185386109, 35.622549204724216 ] } },
{ "type": "Feature", "properties": { "P29_001": "12204", "P29_002": "A212310000103", "P29_003": "16013", "P29_004": "船橋旭こども園", "P29_005": "千葉県船橋市夏見台5-7-13", "P29_006": "4", "P29_007": "0", "P29_008": "00", "P29_009": null }, "geometry": { "type": "Point", "coordinates": [ 139.992833597936823, 35.730483505725552 ] } },
{ "type": "Feature", "properties": { "P29_001": "12204", "P29_002": "A212310000158", "P29_003": "16013", "P29_004": "二和ひつじ幼稚園", "P29_005": "千葉県船橋市二和東6-23-21", "P29_006": "4", "P29_007": "0", "P29_008": "00", "P29_009": null }, "geometry": { "type": "Point", "coordinates": [ 140.024904644467966, 35.754965019865075 ] } },
{ "type": "Feature", "properties": { "P29_001": "12207", "P29_002": "A212310000229", "P29_003": "16013", "P29_004": "はなみずきこども園", "P29_005": "千葉県松戸市常盤平3-25-2", "P29_006": "4", "P29_007": "0", "P29_008": "00", "P29_009": null }, "geometry": { "type": "Point", "coordinates": [ 139.956919939279089, 35.800740110777234 ] } },
{ "type": "Feature", "properties": { "P29_001": "12207", "P29_002": "A212310000238", "P29_003": "16013", "P29_004": "認定こども園輝きの森幼児舎", "P29_005": "千葉県松戸市紙敷1080-1", "P29_006": "4", "P29_007": "0", "P29_008": "00", "P29_009": null }, "geometry": { "type": "Point", "coordinates": [ 139.939635348397474, 35.772225731341521 ] } },
{ "type": "Feature", "properties": { "P29_001": "12207", "P29_002": "A212310000247", "P29_003": "16013", "P29_004": "野菊野こども園", "P29_005": "千葉県松戸市野菊野5", "P29_006": "4", "P29_007": "0", "P29_008": "00", "P29_009": null }, "geometry": { "type": "Point", "coordinates": [ 139.91338007708481, 35.779289934323188 ] } },
{ "type": "Feature", "properties": { "P29_001": "12207", "P29_002": "A212310000256", "P29_003": "16013", "P29_004": "さわらびこども園", "P29_005": "千葉県松戸市栄町3-185-1", "P29_006": "4", "P29_007": "0", "P29_008": "00", "P29_009": null }, "geometry": { "type": "Point", "coordinates": [ 139.905750641347538, 35.804673261877483 ] } },
{ "type": "Feature", "properties": { "P29_001": "12207", "P29_002": "A212310000265", "P29_003": "16013", "P29_004": "さわらびドリームこども園", "P29_005": "千葉県松戸市栄町3-185-1", "P29_006": "4", "P29_007": "0", "P29_008": "00", "P29_009": null }, "geometry": { "type": "Point", "coordinates": [ 139.905845653854215, 35.804781270283861 ] } },
{ "type": "Feature", "properties": { "P29_001": "12207", "P29_002": "A212310000283", "P29_003": "16013", "P29_004": "認定こども園風の丘", "P29_005": "千葉県松戸市大橋300-1", "P29_006": "4", "P29_007": "0", "P29_008": "00", "P29_009": null }, "geometry": { "type": "Point", "coordinates": [ 139.916334229248719, 35.763113585950954 ] } },
{ "type": "Feature", "properties": { "P29_001": "12207", "P29_002": "A212310000292", "P29_003": "16013", "P29_004": "北小金グレースこども園", "P29_005": "千葉県松戸市殿平賀200-11", "P29_006": "4", "P29_007": "0", "P29_008": "00", "P29_009": null }, "geometry": { "type": "Point", "coordinates": [ 139.929960092811967, 35.832611710661908 ] } },
{ "type": "Feature", "properties": { "P29_001": "12208", "P29_002": "A212310000309", "P29_003": "16013", "P29_004": "聖華未来のこども園", "P29_005": "千葉県野田市山崎1778-1", "P29_006": "4", "P29_007": "0", "P29_008": "00", "P29_009": null }, "geometry": { "type": "Point", "coordinates": [ 139.891662385854488, 35.927121176389676 ] } },
{ "type": "Feature", "properties": { "P29_001": "12208", "P29_002": "A212310000318", "P29_003": "16013", "P29_004": "やなぎさわ幼稚園・保育園", "P29_005": "千葉県野田市柳沢83", "P29_006": "4", "P29_007": "0", "P29_008": "00", "P29_009": null }, "geometry": { "type": "Point", "coordinates": [ 139.870400438525422, 35.961231886128154 ] } },
{ "type": "Feature", "properties": { "P29_001": "12217", "P29_002": "A212310000407", "P29_003": "16013", "P29_004": "認定こども園みくに学園", "P29_005": "千葉県柏市旭町1-6-14", "P29_006": "4", "P29_007": "0", "P29_008": "00", "P29_009": null }, "geometry": { "type": "Point", "coordinates": [ 139.968858972418161, 35.861291306769999 ] } },
{ "type": "Feature", "properties": { "P29_001": "12217", "P29_002": "A212310000416", "P29_003": "16013", "P29_004": "柏の葉こども園", "P29_005": "千葉県柏市十余二363-48", "P29_006": "4", "P29_007": "0", "P29_008": "00", "P29_009": null }, "geometry": { "type": "Point", "coordinates": [ 139.954636864671528, 35.887172895660967 ] } },
{ "type": "Feature", "properties": { "P29_001": "12217", "P29_002": "A212310000425", "P29_003": "16013", "P29_004": "認定こども園みくになかよしこども園", "P29_005": "千葉県柏市大室3-15-2", "P29_006": "4", "P29_007": "0", "P29_008": "00", "P29_009": null }, "geometry": { "type": "Point", "coordinates": [ 139.961698073395326, 35.910559629085277 ] } },
{ "type": "Feature", "properties": { "P29_001": "12217", "P29_002": "A212310000443", "P29_003": "16013", "P29_004": "柏めぐみ園", "P29_005": "千葉県柏市若葉町7-17", "P29_006": "4", "P29_007": "0", "P29_008": "00", "P29_009": null }, "geometry": { "type": "Point", "coordinates": [ 139.971108218303129, 35.853191932198712 ] } },
{ "type": "Feature", "properties": { "P29_001": "12217", "P29_002": "A212310000452", "P29_003": "16013", "P29_004": "手賀の丘幼稚園・保育園", "P29_005": "千葉県柏市五條谷423-5", "P29_006": "4", "P29_007": "0", "P29_008": "00", "P29_009": null }, "geometry": { "type": "Point", "coordinates": [ 140.01998990088191, 35.846974115700831 ] } },
{ "type": "Feature", "properties": { "P29_001": "12217", "P29_002": "A212310000461", "P29_003": "16013", "P29_004": "幼保連携型認定こども園ホザナ幼稚園", "P29_005": "千葉県柏市東3-2-5", "P29_006": "4", "P29_007": "0", "P29_008": "00", "P29_009": null }, "geometry": { "type": "Point", "coordinates": [ 139.981230617042286, 35.854409216729856 ] } },
{ "type": "Feature", "properties": { "P29_001": "12217", "P29_002": "A212310000470", "P29_003": "16013", "P29_004": "認定こども園とみせ幼稚園", "P29_005": "千葉県柏市根戸351-2", "P29_006": "4", "P29_007": "0", "P29_008": "00", "P29_009": null }, "geometry": { "type": "Point", "coordinates": [ 139.992249972834571, 35.880044253439138 ] } },
{ "type": "Feature", "properties": { "P29_001": "12217", "P29_002": "A212310000489", "P29_003": "16013", "P29_004": "認定こども園まつがさきの森幼稚園", "P29_005": "千葉県柏市松ヶ崎225-3", "P29_006": "4", "P29_007": "0", "P29_008": "00", "P29_009": null }, "geometry": { "type": "Point", "coordinates": [ 139.976931579291573, 35.886201969185151 ] } },
{ "type": "Feature", "properties": { "P29_001": "12217", "P29_002": "A212310000498", "P29_003": "16013", "P29_004": "認定こども園柏こばと学園柏こばと保育園たまご", "P29_005": "千葉県柏市松葉町3-15-1", "P29_006": "4", "P29_007": "0", "P29_008": "00", "P29_009": null }, "geometry": { "type": "Point", "coordinates": [ 139.969008203829702, 35.887414033282845 ] } },
{ "type": "Feature", "properties": { "P29_001": "12220", "P29_002": "A212310000513", "P29_003": "16013", "P29_004": "たかさごスクールおおたかの森", "P29_005": "千葉県流山市おおたかの森東4-99-4", "P29_006": "4", "P29_007": "0", "P29_008": "00", "P29_009": null }, "geometry": { "type": "Point", "coordinates": [ 139.932448832594446, 35.87342355715478 ] } },
{ "type": "Feature", "properties": { "P29_001": "12220", "P29_002": "A212310000531", "P29_003": "16013", "P29_004": "認定こども園みやぞの幼稚園", "P29_005": "千葉県流山市宮園2-8-11", "P29_006": "4", "P29_007": "0", "P29_008": "00", "P29_009": null }, "geometry": { "type": "Point", "coordinates": [ 139.91466074213568, 35.844206953624557 ] } },
{ "type": "Feature", "properties": { "P29_001": "12222", "P29_002": "A212310000568", "P29_003": "16013", "P29_004": "布佐宝保育園", "P29_005": "千葉県我孫子市布佐2318", "P29_006": "4", "P29_007": "0", "P29_008": "00", "P29_009": null }, "geometry": { "type": "Point", "coordinates": [ 140.135135882335703, 35.855763974393426 ] } },
{ "type": "Feature", "properties": { "P29_001": "12222", "P29_002": "A212310000577", "P29_003": "16013", "P29_004": "恵愛こども園", "P29_005": "千葉県我孫子市湖北台8-17-9", "P29_006": "4", "P29_007": "0", "P29_008": "00", "P29_009": null }, "geometry": { "type": "Point", "coordinates": [ 140.070243263245629, 35.867041849753392 ] } },
{ "type": "Feature", "properties": { "P29_001": "12222", "P29_002": "A212310000586", "P29_003": "16013", "P29_004": "柏鳳保育園", "P29_005": "千葉県我孫子市中峠台30-9", "P29_006": "4", "P29_007": "0", "P29_008": "00", "P29_009": null }, "geometry": { "type": "Point", "coordinates": [ 140.069631218528372, 35.871292964701006 ] } },
{ "type": "Feature", "properties": { "P29_001": "12227", "P29_002": "A212310000602", "P29_003": "16013", "P29_004": "渋谷教育学園浦安こども園", "P29_005": "千葉県浦安市明海5-4-1", "P29_006": "4", "P29_007": "0", "P29_008": "00", "P29_009": null }, "geometry": { "type": "Point", "coordinates": [ 139.923328913971176, 35.63892399365961 ] } },
{ "type": "Feature", "properties": { "P29_001": "12232", "P29_002": "A212310000675", "P29_003": "16013", "P29_004": "認定こども園はなぶさ保育園", "P29_005": "千葉県白井市大山口2-2-4", "P29_006": "4", "P29_007": "0", "P29_008": "00", "P29_009": null }, "geometry": { "type": "Point", "coordinates": [ 140.02307768207416, 35.786620468206607 ] } },
{ "type": "Feature", "properties": { "P29_001": "12217", "P29_002": "A212310000755", "P29_003": "16013", "P29_004": "認定こども園くりの木幼稚園", "P29_005": "千葉県柏市豊四季633-15", "P29_006": "4", "P29_007": "0", "P29_008": "00", "P29_009": null }, "geometry": { "type": "Point", "coordinates": [ 139.961055207667414, 35.843483296161999 ] } },
{ "type": "Feature", "properties": { "P29_001": "12217", "P29_002": "A212310000764", "P29_003": "16013", "P29_004": "認定こども園くるみこども園", "P29_005": "千葉県柏市豊四季台1-1-113", "P29_006": "4", "P29_007": "0", "P29_008": "00", "P29_009": null }, "geometry": { "type": "Point", "coordinates": [ 139.958018887931672, 35.865786746916164 ] } },
{ "type": "Feature", "properties": { "P29_001": "12217", "P29_002": "A212310000773", "P29_003": "16013", "P29_004": "認定こども園第二ますお幼稚園", "P29_005": "千葉県柏市増尾台4-6-60", "P29_006": "4", "P29_007": "0", "P29_008": "00", "P29_009": null }, "geometry": { "type": "Point", "coordinates": [ 139.973989784259629, 35.822084101057357 ] } },
{ "type": "Feature", "properties": { "P29_001": "12203", "P29_002": "A212310000782", "P29_003": "16013", "P29_004": "幼保連携型認定こども園鬼高幼稚園", "P29_005": "千葉県市川市鬼高3-14-18", "P29_006": "4", "P29_007": "0", "P29_008": "00", "P29_009": null }, "geometry": { "type": "Point", "coordinates": [ 139.937201243355588, 35.710390962472971 ] } },
{ "type": "Feature", "properties": { "P29_001": "12217", "P29_002": "A212310000817", "P29_003": "16013", "P29_004": "こばとこどもえんネスト", "P29_005": "千葉県柏市中十余二207-1中央185街区1", "P29_006": "4", "P29_007": "0", "P29_008": "00", "P29_009": null }, "geometry": { "type": "Point", "coordinates": [ 139.945449315343666, 35.890869102689251 ] } },
{ "type": "Feature", "properties": { "P29_001": "12216", "P29_002": "A212210000070", "P29_003": "16013", "P29_004": "習志野市立袖ケ浦こども園", "P29_005": "千葉県習志野市袖ケ浦2-5-3", "P29_006": "3", "P29_007": "0", "P29_008": "00", "P29_009": null }, "geometry": { "type": "Point", "coordinates": [ 140.017669305817662, 35.675041969648198 ] } },
{ "type": "Feature", "properties": { "P29_001": "12204", "P29_002": "A212310000112", "P29_003": "16013", "P29_004": "田喜野井旭こども園", "P29_005": "千葉県船橋市田喜野井4-30-12", "P29_006": "4", "P29_007": "0", "P29_008": "00", "P29_009": null }, "geometry": { "type": "Point", "coordinates": [ 140.042471871237154, 35.703271463960483 ] } },
{ "type": "Feature", "properties": { "P29_001": "12204", "P29_002": "A212310000130", "P29_003": "16013", "P29_004": "幼保連携型認定こども園大浜幼稚園", "P29_005": "千葉県船橋市薬円台4-6-3", "P29_006": "4", "P29_007": "0", "P29_008": "00", "P29_009": null }, "geometry": { "type": "Point", "coordinates": [ 140.046237787096004, 35.713407942192852 ] } },
{ "type": "Feature", "properties": { "P29_001": "12216", "P29_002": "A212310000390", "P29_003": "16013", "P29_004": "幼保連携型認定こども園青葉幼稚園", "P29_005": "千葉県習志野市津田沼3-15-20", "P29_006": "4", "P29_007": "0", "P29_008": "00", "P29_009": null }, "geometry": { "type": "Point", "coordinates": [ 140.02799109393419, 35.685504517594275 ] } },
{ "type": "Feature", "properties": { "P29_001": "12231", "P29_002": "A212310000648", "P29_003": "16013", "P29_004": "牧の原宝保育園", "P29_005": "千葉県印西市牧の原3-1-3", "P29_006": "4", "P29_007": "0", "P29_008": "00", "P29_009": null }, "geometry": { "type": "Point", "coordinates": [ 140.159630947049891, 35.812368068484702 ] } },
{ "type": "Feature", "properties": { "P29_001": "12231", "P29_002": "A212310000657", "P29_003": "16013", "P29_004": "印西ひかりこども園", "P29_005": "千葉県印西市木下804-6", "P29_006": "4", "P29_007": "0", "P29_008": "00", "P29_009": null }, "geometry": { "type": "Point", "coordinates": [ 140.157361051855133, 35.838071304201009 ] } },
{ "type": "Feature", "properties": { "P29_001": "12231", "P29_002": "A212310000666", "P29_003": "16013", "P29_004": "草深こじか保育園", "P29_005": "千葉県印西市草深2496-10", "P29_006": "4", "P29_007": "0", "P29_008": "00", "P29_009": null }, "geometry": { "type": "Point", "coordinates": [ 140.156128616216478, 35.796538308507309 ] } },
{ "type": "Feature", "properties": { "P29_001": "12216", "P29_002": "A212210000052", "P29_003": "16013", "P29_004": "習志野市立杉の子こども園", "P29_005": "千葉県習志野市本大久保2-3-15", "P29_006": "3", "P29_007": "0", "P29_008": "00", "P29_009": null }, "geometry": { "type": "Point", "coordinates": [ 140.04051462244405, 35.683249247265486 ] } },
{ "type": "Feature", "properties": { "P29_001": "12216", "P29_002": "A212210000061", "P29_003": "16013", "P29_004": "習志野市立東習志野こども園", "P29_005": "千葉県習志野市東習志野3-4-1", "P29_006": "3", "P29_007": "0", "P29_008": "00", "P29_009": null }, "geometry": { "type": "Point", "coordinates": [ 140.072124570070599, 35.690769525816599 ] } },
{ "type": "Feature", "properties": { "P29_001": "12216", "P29_002": "A212210000089", "P29_003": "16013", "P29_004": "習志野市立大久保こども園", "P29_005": "千葉県習志野市泉町3-2-1", "P29_006": "3", "P29_007": "0", "P29_008": "00", "P29_009": null }, "geometry": { "type": "Point", "coordinates": [ 140.05560115116586, 35.693221397977013 ] } },
{ "type": "Feature", "properties": { "P29_001": "12233", "P29_002": "A212210000230", "P29_003": "16013", "P29_004": "富里市立葉山こども園", "P29_005": "千葉県富里市御料1009-32", "P29_006": "3", "P29_007": "0", "P29_008": "00", "P29_009": null }, "geometry": { "type": "Point", "coordinates": [ 140.352412804369209, 35.72671780907072 ] } },
{ "type": "Feature", "properties": { "P29_001": "12233", "P29_002": "A212210000249", "P29_003": "16013", "P29_004": "富里市立向台こども園", "P29_005": "千葉県富里市中沢1023", "P29_006": "3", "P29_007": "0", "P29_008": "00", "P29_009": null }, "geometry": { "type": "Point", "coordinates": [ 140.314847580597558, 35.717111692060961 ] } },
{ "type": "Feature", "properties": { "P29_001": "12237", "P29_002": "A212210000294", "P29_003": "16013", "P29_004": "山武市立まつおこども園", "P29_005": "千葉県山武市松尾町金尾441", "P29_006": "3", "P29_007": "0", "P29_008": "00", "P29_009": null }, "geometry": { "type": "Point", "coordinates": [ 140.434829778723241, 35.653914505380271 ] } },
{ "type": "Feature", "properties": { "P29_001": "12347", "P29_002": "A212210000301", "P29_003": "16013", "P29_004": "多古町立多古こども園", "P29_005": "千葉県香取郡多古町多古2000-6", "P29_006": "3", "P29_007": "0", "P29_008": "00", "P29_009": null }, "geometry": { "type": "Point", "coordinates": [ 140.462302977577139, 35.73335916499817 ] } },
{ "type": "Feature", "properties": { "P29_001": "12106", "P29_002": "A212310000087", "P29_003": "16013", "P29_004": "打瀬保育園", "P29_005": "千葉県千葉市美浜区打瀬1-3-5", "P29_006": "4", "P29_007": "0", "P29_008": "00", "P29_009": null }, "geometry": { "type": "Point", "coordinates": [ 140.048028213058359, 35.643108428807132 ] } },
{ "type": "Feature", "properties": { "P29_001": "12106", "P29_002": "A212310000096", "P29_003": "16013", "P29_004": "幕張海浜こども園", "P29_005": "千葉県千葉市美浜区幕張西2-7-2", "P29_006": "4", "P29_007": "0", "P29_008": "00", "P29_009": null }, "geometry": { "type": "Point", "coordinates": [ 140.037804436363103, 35.665595853698136 ] } },
{ "type": "Feature", "properties": { "P29_001": "12212", "P29_002": "A212310000336", "P29_003": "16013", "P29_004": "幼保連携型認定こども園佐倉くるみ幼稚園", "P29_005": "千葉県佐倉市石川551-1", "P29_006": "4", "P29_007": "0", "P29_008": "00", "P29_009": null }, "geometry": { "type": "Point", "coordinates": [ 140.229302264244041, 35.689807689391948 ] } },
{ "type": "Feature", "properties": { "P29_001": "12322", "P29_002": "A212310000345", "P29_003": "16013", "P29_004": "幼保連携型認定こども園千成幼稚園", "P29_005": "千葉県佐倉市千成3-4-3", "P29_006": "4", "P29_007": "0", "P29_008": "00", "P29_009": null }, "geometry": { "type": "Point", "coordinates": [ 140.245434910061363, 35.724371036393343 ] } },
{ "type": "Feature", "properties": { "P29_001": "12212", "P29_002": "A212310000354", "P29_003": "16013", "P29_004": "モンテッソーリ光の子", "P29_005": "千葉県佐倉市上座1219-4", "P29_006": "4", "P29_007": "0", "P29_008": "00", "P29_009": null }, "geometry": { "type": "Point", "coordinates": [ 140.162187928477152, 35.724266206404486 ] } },
{ "type": "Feature", "properties": { "P29_001": "12216", "P29_002": "A212310000381", "P29_003": "16013", "P29_004": "みのりつくしこども園", "P29_005": "千葉県習志野市藤崎6-6-13", "P29_006": "4", "P29_007": "0", "P29_008": "00", "P29_009": null }, "geometry": { "type": "Point", "coordinates": [ 140.041898791760474, 35.688545693419577 ] } },
{ "type": "Feature", "properties": { "P29_001": "12221", "P29_002": "A212310000540", "P29_003": "16013", "P29_004": "認定こども園八千代わかば幼稚園", "P29_005": "千葉県八千代市八千代台北7-9-4", "P29_006": "4", "P29_007": "0", "P29_008": "00", "P29_009": null }, "geometry": { "type": "Point", "coordinates": [ 140.08954553575353, 35.706569771038282 ] } },
{ "type": "Feature", "properties": { "P29_001": "12230", "P29_002": "A212310000639", "P29_003": "16013", "P29_004": "明徳やちまたこども園", "P29_005": "千葉県八街市八街ほ559-2", "P29_006": "4", "P29_007": "0", "P29_008": "00", "P29_009": null }, "geometry": { "type": "Point", "coordinates": [ 140.310592498412745, 35.65893454839366 ] } },
{ "type": "Feature", "properties": { "P29_001": "12236", "P29_002": "A212310000700", "P29_003": "16013", "P29_004": "幼保連携型認定こども園明照保育園", "P29_005": "千葉県香取市下小堀611-1", "P29_006": "4", "P29_007": "0", "P29_008": "00", "P29_009": null }, "geometry": { "type": "Point", "coordinates": [ 140.593517187761677, 35.869484384140883 ] } },
{ "type": "Feature", "properties": { "P29_001": "12236", "P29_002": "A212310000719", "P29_003": "16013", "P29_004": "清水こども園", "P29_005": "千葉県香取市内野448-1", "P29_006": "4", "P29_007": "0", "P29_008": "00", "P29_009": null }, "geometry": { "type": "Point", "coordinates": [ 140.558967397720437, 35.852326062179671 ] } },
{ "type": "Feature", "properties": { "P29_001": "12236", "P29_002": "A212310000728", "P29_003": "16013", "P29_004": "佐原めぐみこども園", "P29_005": "千葉県香取市佐原イ1921-5", "P29_006": "4", "P29_007": "0", "P29_008": "00", "P29_009": null }, "geometry": { "type": "Point", "coordinates": [ 140.498679730255674, 35.887421436686132 ] } },
{ "type": "Feature", "properties": { "P29_001": "12230", "P29_002": "A212310000826", "P29_003": "16013", "P29_004": "八街泉こども園", "P29_005": "千葉県八街市榎戸354-2", "P29_006": "4", "P29_007": "0", "P29_008": "00", "P29_009": null }, "geometry": { "type": "Point", "coordinates": [ 140.294651023879254, 35.687433472893858 ] } },
{ "type": "Feature", "properties": { "P29_001": "12237", "P29_002": "A212210000267", "P29_003": "16013", "P29_004": "山武市立なるとうこども園", "P29_005": "千葉県山武市成東210-3", "P29_006": "3", "P29_007": "0", "P29_008": "00", "P29_009": null }, "geometry": { "type": "Point", "coordinates": [ 140.411938385966039, 35.599276651077325 ] } },
{ "type": "Feature", "properties": { "P29_001": "12237", "P29_002": "A212210000276", "P29_003": "16013", "P29_004": "山武市立なんごうこども園", "P29_005": "千葉県山武市上横地887-1", "P29_006": "3", "P29_007": "0", "P29_008": "00", "P29_009": null }, "geometry": { "type": "Point", "coordinates": [ 140.443787321742008, 35.60071094615504 ] } },
{ "type": "Feature", "properties": { "P29_001": "12237", "P29_002": "A212210000285", "P29_003": "16013", "P29_004": "山武市立しらはたこども園", "P29_005": "千葉県山武市白幡1919", "P29_006": "3", "P29_007": "0", "P29_008": "00", "P29_009": null }, "geometry": { "type": "Point", "coordinates": [ 140.435589704316101, 35.588619849873275 ] } },
{ "type": "Feature", "properties": { "P29_001": "12403", "P29_002": "A212210000310", "P29_003": "16013", "P29_004": "九十九里町立とようみこども園", "P29_005": "千葉県山武郡九十九里町不動堂161-1", "P29_006": "3", "P29_007": "0", "P29_008": "00", "P29_009": null }, "geometry": { "type": "Point", "coordinates": [ 140.415447641940176, 35.519046815207346 ] } },
{ "type": "Feature", "properties": { "P29_001": "12403", "P29_002": "A212210000329", "P29_003": "16013", "P29_004": "九十九里町立かたかいこども園", "P29_005": "千葉県山武郡九十九里町田中荒生1661", "P29_006": "3", "P29_007": "0", "P29_008": "00", "P29_009": null }, "geometry": { "type": "Point", "coordinates": [ 140.446267794436068, 35.540192548929276 ] } },
{ "type": "Feature", "properties": { "P29_001": "12213", "P29_002": "A212310000363", "P29_003": "16013", "P29_004": "ユニヴァーサル雙葉学園", "P29_005": "千葉県東金市幸田680-1", "P29_006": "4", "P29_007": "0", "P29_008": "00", "P29_009": null }, "geometry": { "type": "Point", "coordinates": [ 140.379840336529895, 35.546910061491289 ] } },
{ "type": "Feature", "properties": { "P29_001": "12205", "P29_002": "A212210000025", "P29_003": "16013", "P29_004": "館山市立房南こども園", "P29_005": "千葉県館山市犬石1496", "P29_006": "3", "P29_007": "0", "P29_008": "00", "P29_009": null }, "geometry": { "type": "Point", "coordinates": [ 139.837531959322234, 34.933791987535407 ] } },
{ "type": "Feature", "properties": { "P29_001": "12205", "P29_002": "A212210000034", "P29_003": "16013", "P29_004": "館山市立九重こども園", "P29_005": "千葉県館山市安東751", "P29_006": "3", "P29_007": "0", "P29_008": "00", "P29_009": null }, "geometry": { "type": "Point", "coordinates": [ 139.919168911702457, 35.000328047289507 ] } },
{ "type": "Feature", "properties": { "P29_001": "12216", "P29_002": "A212210000098", "P29_003": "16013", "P29_004": "習志野市立新習志野こども園", "P29_005": "千葉県習志野市香澄4-6-1", "P29_006": "3", "P29_007": "0", "P29_008": "00", "P29_009": null }, "geometry": { "type": "Point", "coordinates": [ 140.026301252761073, 35.664994625302292 ] } },
{ "type": "Feature", "properties": { "P29_001": "12219", "P29_002": "A212210000114", "P29_003": "16013", "P29_004": "市原市立市原市姉崎認定こども園", "P29_005": "千葉県市原市姉崎2150-1", "P29_006": "3", "P29_007": "0", "P29_008": "00", "P29_009": null }, "geometry": { "type": "Point", "coordinates": [ 140.045814611489845, 35.471357740172337 ] } },
{ "type": "Feature", "properties": { "P29_001": "12219", "P29_002": "A212210000132", "P29_003": "16013", "P29_004": "市原市立市原市八幡認定こども園", "P29_005": "千葉県市原市八幡1050-1", "P29_006": "3", "P29_007": "0", "P29_008": "00", "P29_009": null }, "geometry": { "type": "Point", "coordinates": [ 140.1158603070173, 35.536612630712568 ] } },
{ "type": "Feature", "properties": { "P29_001": "12219", "P29_002": "A212210000141", "P29_003": "16013", "P29_004": "市原市立市原市牛久認定こども園", "P29_005": "千葉県市原市皆吉959", "P29_006": "3", "P29_007": "0", "P29_008": "00", "P29_009": null }, "geometry": { "type": "Point", "coordinates": [ 140.138898708851627, 35.395744080116877 ] } },
{ "type": "Feature", "properties": { "P29_001": "12223", "P29_002": "A212210000203", "P29_003": "16013", "P29_004": "鴨川市立鴨川認定こども園", "P29_005": "千葉県鴨川市横渚510", "P29_006": "3", "P29_007": "0", "P29_008": "00", "P29_009": null }, "geometry": { "type": "Point", "coordinates": [ 140.101115669779972, 35.098640709260252 ] } },
{ "type": "Feature", "properties": { "P29_001": "12213", "P29_002": "A212210000356", "P29_003": "16013", "P29_004": "東金市立豊成こども園", "P29_005": "千葉県東金市関内724", "P29_006": "3", "P29_007": "0", "P29_008": "00", "P29_009": null }, "geometry": { "type": "Point", "coordinates": [ 140.417819531505927, 35.567906945113528 ] } },
{ "type": "Feature", "properties": { "P29_001": "12204", "P29_002": "A212310000121", "P29_003": "16013", "P29_004": "認定こども園不二幼稚園", "P29_005": "千葉県船橋市飯山満町2-666", "P29_006": "4", "P29_007": "0", "P29_008": "00", "P29_009": null }, "geometry": { "type": "Point", "coordinates": [ 140.021442526641067, 35.709980989467297 ] } },
{ "type": "Feature", "properties": { "P29_001": "12204", "P29_002": "A212310000149", "P29_003": "16013", "P29_004": "高根台文化こども園", "P29_005": "千葉県船橋市高根台3-3-2", "P29_006": "4", "P29_007": "0", "P29_008": "00", "P29_009": null }, "geometry": { "type": "Point", "coordinates": [ 140.0417132415038, 35.731657672886413 ] } },
{ "type": "Feature", "properties": { "P29_001": "12206", "P29_002": "A212310000167", "P29_003": "16013", "P29_004": "認定こども園木更津みらい", "P29_005": "千葉県木更津市請西1-11-1", "P29_006": "4", "P29_007": "0", "P29_008": "00", "P29_009": null }, "geometry": { "type": "Point", "coordinates": [ 139.938882389476134, 35.3636153598259 ] } },
{ "type": "Feature", "properties": { "P29_001": "12206", "P29_002": "A212310000210", "P29_003": "16013", "P29_004": "幼保連携型認定こども園岩根保育園駅前分園", "P29_005": "千葉県木更津市岩根3-6-29", "P29_006": "4", "P29_007": "0", "P29_008": "00", "P29_009": null }, "geometry": { "type": "Point", "coordinates": [ 139.933362697076319, 35.414773392840495 ] } },
{ "type": "Feature", "properties": { "P29_001": "12207", "P29_002": "A212310000274", "P29_003": "16013", "P29_004": "小金西グレースこども園", "P29_005": "千葉県松戸市新松戸北2-11-3", "P29_006": "4", "P29_007": "0", "P29_008": "00", "P29_009": null }, "geometry": { "type": "Point", "coordinates": [ 139.910938815631596, 35.831459295056199 ] } },
{ "type": "Feature", "properties": { "P29_001": "12216", "P29_002": "A212310000372", "P29_003": "16013", "P29_004": "ブレーメン実花こども園", "P29_005": "千葉県習志野市東習志野6-7-2", "P29_006": "4", "P29_007": "0", "P29_008": "00", "P29_009": null }, "geometry": { "type": "Point", "coordinates": [ 140.065819314240059, 35.700148356736769 ] } },
{ "type": "Feature", "properties": { "P29_001": "12217", "P29_002": "A212310000434", "P29_003": "16013", "P29_004": "認定こども園柏こばと学園", "P29_005": "千葉県柏市十余二287-270", "P29_006": "4", "P29_007": "0", "P29_008": "00", "P29_009": null }, "geometry": { "type": "Point", "coordinates": [ 139.969498891311019, 35.885570678173551 ] } },
{ "type": "Feature", "properties": { "P29_001": "12220", "P29_002": "A212310000522", "P29_003": "16013", "P29_004": "たかさごスクールセントラル", "P29_005": "千葉県流山市西平井3-2-9", "P29_006": "4", "P29_007": "0", "P29_008": "00", "P29_009": null }, "geometry": { "type": "Point", "coordinates": [ 139.90419722572085, 35.848676314829298 ] } },
{ "type": "Feature", "properties": { "P29_001": "12221", "P29_002": "A212310000559", "P29_003": "16013", "P29_004": "マリヤこども園", "P29_005": "千葉県八千代市米本1359　米本団地4-39", "P29_006": "4", "P29_007": "0", "P29_008": "00", "P29_009": null }, "geometry": { "type": "Point", "coordinates": [ 140.1118815591839, 35.757748612745196 ] } },
{ "type": "Feature", "properties": { "P29_001": "12228", "P29_002": "A212310000611", "P29_003": "16013", "P29_004": "四街道さつき幼稚園", "P29_005": "千葉県四街道市下志津新田2531-9", "P29_006": "4", "P29_007": "0", "P29_008": "00", "P29_009": null }, "geometry": { "type": "Point", "coordinates": [ 140.154193735939515, 35.663024335972992 ] } },
{ "type": "Feature", "properties": { "P29_001": "12235", "P29_002": "A212310000693", "P29_003": "16013", "P29_004": "九十九里ホーム飯倉駅前あかしあこども園", "P29_005": "千葉県匝瑳市飯倉106-1", "P29_006": "4", "P29_007": "0", "P29_008": "00", "P29_009": null }, "geometry": { "type": "Point", "coordinates": [ 140.519836665196664, 35.684725732754622 ] } },
{ "type": "Feature", "properties": { "P29_001": "12236", "P29_002": "A212310000737", "P29_003": "16013", "P29_004": "佐原めぐみこども園分園", "P29_005": "千葉県香取市佐原イ1858-1", "P29_006": "4", "P29_007": "0", "P29_008": "00", "P29_009": null }, "geometry": { "type": "Point", "coordinates": [ 140.500069385932107, 35.886100943988694 ] } },
{ "type": "Feature", "properties": { "P29_001": "12322", "P29_002": "A212310000746", "P29_003": "16013", "P29_004": "昭苑こども園", "P29_005": "千葉県印旛郡酒々井町東酒々井1-1-105", "P29_006": "4", "P29_007": "0", "P29_008": "00", "P29_009": null }, "geometry": { "type": "Point", "coordinates": [ 140.276414127179009, 35.730553442569537 ] } },
{ "type": "Feature", "properties": { "P29_001": "12232", "P29_002": "A212310000835", "P29_003": "16013", "P29_004": "認定こども園ひまわりこども園", "P29_005": "千葉県白井市折立618-10", "P29_006": "4", "P29_007": "0", "P29_008": "00", "P29_009": null }, "geometry": { "type": "Point", "coordinates": [ 140.04593028800474, 35.806018464389048 ] } },
{ "type": "Feature", "properties": { "P29_001": "12203", "P29_002": "A212310000844", "P29_003": "16013", "P29_004": "認定こども園アイリス幼稚園", "P29_005": "千葉県市川市北方2-29-9", "P29_006": "4", "P29_007": "0", "P29_008": "00", "P29_009": null }, "geometry": { "type": "Point", "coordinates": [ 139.941047034886566, 35.725797377299955 ] } },
{ "type": "Feature", "properties": { "P29_001": "12203", "P29_002": "A212310000853", "P29_003": "16013", "P29_004": "幼保連携型認定こども園須和田幼稚園", "P29_005": "千葉県市川市須和田1-20-3", "P29_006": "4", "P29_007": "0", "P29_008": "00", "P29_009": null }, "geometry": { "type": "Point", "coordinates": [ 139.918174732998295, 35.736947403905056 ] } },
{ "type": "Feature", "properties": { "P29_001": "12204", "P29_002": "A212310000862", "P29_003": "16013", "P29_004": "認定こども園栄光幼稚園", "P29_005": "千葉県船橋市芝山3-10-9", "P29_006": "4", "P29_007": "0", "P29_008": "00", "P29_009": null }, "geometry": { "type": "Point", "coordinates": [ 140.021081940533094, 35.716381063227949 ] } },
{ "type": "Feature", "properties": { "P29_001": "12210", "P29_002": "A212310000871", "P29_003": "16013", "P29_004": "公私連携幼保連携型認定こども園もばら空と杜のこども園", "P29_005": "千葉県茂原市綱島101-1", "P29_006": "4", "P29_007": "0", "P29_008": "00", "P29_009": null }, "geometry": { "type": "Point", "coordinates": [ 140.276147600472683, 35.415087014802822 ] } },
{ "type": "Feature", "properties": { "P29_001": "12211", "P29_002": "A212310000880", "P29_003": "16013", "P29_004": "玉造幼稚園", "P29_005": "千葉県成田市玉造5-1031-3", "P29_006": "4", "P29_007": "0", "P29_008": "00", "P29_009": null }, "geometry": { "type": "Point", "coordinates": [ 140.296965239062132, 35.79021771357575 ] } },
{ "type": "Feature", "properties": { "P29_001": "12212", "P29_002": "A212310000899", "P29_003": "16013", "P29_004": "吉見光の子モンテッソーリ子どもの家", "P29_005": "千葉県佐倉市吉見193-1", "P29_006": "4", "P29_007": "0", "P29_008": "00", "P29_009": null }, "geometry": { "type": "Point", "coordinates": [ 140.193707535133456, 35.71135358486368 ] } },
{ "type": "Feature", "properties": { "P29_001": "12217", "P29_002": "A212310000906", "P29_003": "16013", "P29_004": "柏の葉はぐくみこども園", "P29_005": "千葉県柏市十余二370-84中央218街区8", "P29_006": "4", "P29_007": "0", "P29_008": "00", "P29_009": null }, "geometry": { "type": "Point", "coordinates": [ 139.950454497278514, 35.886929544732439 ] } },
{ "type": "Feature", "properties": { "P29_001": "12222", "P29_002": "A212310000915", "P29_003": "16013", "P29_004": "わかくさこども園", "P29_005": "千葉県我孫子市中里463", "P29_006": "4", "P29_007": "0", "P29_008": "00", "P29_009": null }, "geometry": { "type": "Point", "coordinates": [ 140.082020505553146, 35.865122639586218 ] } },
{ "type": "Feature", "properties": { "P29_001": "12236", "P29_002": "A212310000924", "P29_003": "16013", "P29_004": "幼保連携型認定こども園たまつくり保育園", "P29_005": "千葉県香取市玉造2-4-1", "P29_006": "4", "P29_007": "0", "P29_008": "00", "P29_009": null }, "geometry": { "type": "Point", "coordinates": [ 140.48255176355579, 35.890636101817947 ] } },
{ "type": "Feature", "properties": { "P29_001": "12236", "P29_002": "A212310000933", "P29_003": "16013", "P29_004": "おみがわこども園", "P29_005": "千葉県香取市小見川1585-2", "P29_006": "4", "P29_007": "0", "P29_008": "00", "P29_009": null }, "geometry": { "type": "Point", "coordinates": [ 140.604389538626918, 35.847170314923424 ] } },
{ "type": "Feature", "properties": { "P29_001": "12206", "P29_002": "A212310000942", "P29_003": "16013", "P29_004": "認定こども園うみまち保育園", "P29_005": "千葉県木更津市中島1013-1", "P29_006": "4", "P29_007": "0", "P29_008": "00", "P29_009": null }, "geometry": { "type": "Point", "coordinates": [ 139.928715186476239, 35.426827988107888 ] } },
{ "type": "Feature", "properties": { "P29_001": "12212", "P29_002": "A212310000951", "P29_003": "16013", "P29_004": "幼保連携型認定こども園志津わかば幼稚園", "P29_005": "千葉県佐倉市上志津874", "P29_006": "4", "P29_007": "0", "P29_008": "00", "P29_009": null }, "geometry": { "type": "Point", "coordinates": [ 140.15072208930286, 35.707059113021771 ] } },
{ "type": "Feature", "properties": { "P29_001": "12219", "P29_002": "A212310000960", "P29_003": "16013", "P29_004": "市原うさぎ幼稚園", "P29_005": "千葉県市原市山木136", "P29_006": "4", "P29_007": "0", "P29_008": "00", "P29_009": null }, "geometry": { "type": "Point", "coordinates": [ 140.141967156539437, 35.517544430663264 ] } },
{ "type": "Feature", "properties": { "P29_001": "12231", "P29_002": "A212310000979", "P29_003": "16013", "P29_004": "たかさごスクール千葉ニュータウン", "P29_005": "千葉県印西市鹿黒南5-2", "P29_006": "4", "P29_007": "0", "P29_008": "00", "P29_009": null }, "geometry": { "type": "Point", "coordinates": [ 140.133828630292697, 35.813929056563552 ] } },
{ "type": "Feature", "properties": { "P29_001": "12232", "P29_002": "A212310000988", "P29_003": "16013", "P29_004": "白井ふじこども園", "P29_005": "千葉県白井市冨士239-1", "P29_006": "4", "P29_007": "0", "P29_008": "00", "P29_009": null }, "geometry": { "type": "Point", "coordinates": [ 140.025409607387473, 35.775694693276016 ] } },
{ "type": "Feature", "properties": { "P29_001": "12236", "P29_002": "A212310000997", "P29_003": "16013", "P29_004": "佐原グレイスこども園", "P29_005": "千葉県香取市佐原イ3525-1", "P29_006": "4", "P29_007": "0", "P29_008": "00", "P29_009": null }, "geometry": { "type": "Point", "coordinates": [ 140.504001423219023, 35.891302070872669 ] } },
{ "type": "Feature", "properties": { "P29_001": "12236", "P29_002": "A212310001004", "P29_003": "16013", "P29_004": "佐原グレイスこども園", "P29_005": "千葉県香取市香取1932", "P29_006": "4", "P29_007": "0", "P29_008": "00", "P29_009": null }, "geometry": { "type": "Point", "coordinates": [ 140.502174324410106, 35.883373771212547 ] } },
{ "type": "Feature", "properties": { "P29_001": "12105", "P29_002": "A212310001013", "P29_003": "16013", "P29_004": "幼保連携型認定こども園ふたば保育園", "P29_005": "千葉県千葉市緑区刈田子町308-10", "P29_006": "4", "P29_007": "0", "P29_008": "00", "P29_009": null }, "geometry": { "type": "Point", "coordinates": [ 140.165941933055279, 35.546895213914752 ] } },
{ "type": "Feature", "properties": { "P29_001": "12204", "P29_002": "A212310001022", "P29_003": "16013", "P29_004": "幼保連携型認定こども園木の実幼稚園", "P29_005": "千葉県船橋市坪井東4-7-1", "P29_006": "4", "P29_007": "0", "P29_008": "00", "P29_009": null }, "geometry": { "type": "Point", "coordinates": [ 140.062394599727156, 35.724883603675529 ] } },
{ "type": "Feature", "properties": { "P29_001": "12217", "P29_002": "A212310001031", "P29_003": "16013", "P29_004": "認定こども園柏たなか幼稚園", "P29_005": "千葉県柏市大室1263", "P29_006": "4", "P29_007": "0", "P29_008": "00", "P29_009": null }, "geometry": { "type": "Point", "coordinates": [ 139.96369872947227, 35.902238421921886 ] } }
]
}
