{
"type": "FeatureCollection",
"name": "geo_12_看護小規模多機能型居宅介護（複合型サービス）",
"crs": { "type": "name", "properties": { "name": "urn:ogc:def:crs:OGC:1.3:CRS84" } },
"features": [
{ "type": "Feature", "properties": { "内容": "SKYHEART看護小規模多機能鵜の森【看護小規模多機能型居宅介護（複合型サービス）】千葉県千葉市中央区鵜の森町18-3", "url": "https://www.kaigokensaku.mhlw.go.jp/12/index.php?action_kouhyou_detail_004_kani=true&JigyosyoCd=1290100666-00&ServiceCd=&Type=search", "url2": "https://www.skyheart-chiba.net/" }, "geometry": { "type": "Point", "coordinates": [ 140.140330297483814, 35.576268167045711 ] } },
{ "type": "Feature", "properties": { "内容": "カンナ・ナーシングホームかわど【看護小規模多機能型居宅介護（複合型サービス）】千葉市中央区川戸町328‐1カンナ・ナーシングホームかわど", "url": "https://www.kaigokensaku.mhlw.go.jp/12/index.php?action_kouhyou_detail_004_kani=true&JigyosyoCd=1290100419-00&ServiceCd=&Type=search", "url2": "www.kannakawado.com" }, "geometry": { "type": "Point", "coordinates": [ 140.169346499999961, 35.5809957 ] } },
{ "type": "Feature", "properties": { "内容": "SKYHEART看護小規模多機能宮野木【看護小規模多機能型居宅介護（複合型サービス）】千葉市稲毛区宮野木町780-1", "url": "https://www.kaigokensaku.mhlw.go.jp/12/index.php?action_kouhyou_detail_004_kani=true&JigyosyoCd=1290300431-00&ServiceCd=&Type=search", "url2": "https://skyheart-chiba.net" }, "geometry": { "type": "Point", "coordinates": [ 140.094619790213017, 35.65361856802997 ] } },
{ "type": "Feature", "properties": { "内容": "生活クラブ風の村看護多機能ハウスいなげ【看護小規模多機能型居宅介護（複合型サービス）】千葉市稲毛区園生町1107－7", "url": "https://www.kaigokensaku.mhlw.go.jp/12/index.php?action_kouhyou_detail_004_kani=true&JigyosyoCd=1290300407-00&ServiceCd=&Type=search", "url2": null }, "geometry": { "type": "Point", "coordinates": [ 140.1027688, 35.6411957 ] } },
{ "type": "Feature", "properties": { "内容": "NursingHome【看護小規模多機能型居宅介護（複合型サービス）】千葉県千葉市稲毛区稲毛東2-14-12", "url": "https://www.kaigokensaku.mhlw.go.jp/12/index.php?action_kouhyou_detail_004_kani=true&JigyosyoCd=1290300498-00&ServiceCd=&Type=search", "url2": "https://care-nursinghome.com/?utm_source=baner&utm_medium=1&utm_id=homepage&fbclid=PAY2xjawJYGR9leHRuA2FlbQIxMQABph9W9N9Vf8dwM-ZkHoeVp9OfHs-mtVkwbeHWKhvyIa2N9s2kfrySZOpoMw_aem_5v_oHULtec73cF3Xo9AaIA" }, "geometry": { "type": "Point", "coordinates": [ 140.087975300000011, 35.6366515 ] } },
{ "type": "Feature", "properties": { "内容": "NursingHome園生【看護小規模多機能型居宅介護（複合型サービス）】千葉県千葉市稲毛区園生町159-1", "url": "https://www.kaigokensaku.mhlw.go.jp/12/index.php?action_kouhyou_detail_004_kani=true&JigyosyoCd=1290300506-00&ServiceCd=&Type=search", "url2": "https://care-nursinghome.com/?utm_source=baner&utm_medium=1&utm_id=homepage&fbclid=PAY2xjawJYGR9leHRuA2FlbQIxMQABph9W9N9Vf8dwM-ZkHoeVp9OfHs-mtVkwbeHWKhvyIa2N9s2kfrySZOpoMw_aem_5v_oHULtec73cF3Xo9AaIA" }, "geometry": { "type": "Point", "coordinates": [ 140.1019186, 35.646546 ] } },
{ "type": "Feature", "properties": { "内容": "看護小規模多機能楽隠居【看護小規模多機能型居宅介護（複合型サービス）】千葉県千葉市緑区おゆみ野南2-10-4おゆみ野楽隠居倶楽部弐号館", "url": "https://www.kaigokensaku.mhlw.go.jp/12/index.php?action_kouhyou_detail_004_kani=true&JigyosyoCd=1290500147-00&ServiceCd=&Type=search", "url2": null }, "geometry": { "type": "Point", "coordinates": [ 140.167518215344188, 35.551691155574126 ] } },
{ "type": "Feature", "properties": { "内容": "看護小規模多機能ココファン稲毛海岸【看護小規模多機能型居宅介護（複合型サービス）】高洲4-5-13", "url": "https://www.kaigokensaku.mhlw.go.jp/12/index.php?action_kouhyou_detail_004_kani=true&JigyosyoCd=1290600152-00&ServiceCd=&Type=search", "url2": "https://www.cocofump.co.jp/" }, "geometry": { "type": "Point", "coordinates": [ 140.0693877, 35.6308644 ] } },
{ "type": "Feature", "properties": { "内容": "セントケア看護小規模多機能市川大和田【看護小規模多機能型居宅介護（複合型サービス）】千葉県市川市大和田5‐6‐5", "url": "https://www.kaigokensaku.mhlw.go.jp/12/index.php?action_kouhyou_detail_004_kani=true&JigyosyoCd=1290800976-00&ServiceCd=&Type=search", "url2": "https://www.saint-care.com/chiba/" }, "geometry": { "type": "Point", "coordinates": [ 139.9145021, 35.7136516 ] } },
{ "type": "Feature", "properties": { "内容": "看護小規模多機能型居宅介護ノテ南船橋【看護小規模多機能型居宅介護（複合型サービス）】千葉県船橋市若松２丁目３番51号看護小規模多機能型居宅介護ノテ南船橋", "url": "https://www.kaigokensaku.mhlw.go.jp/12/index.php?action_kouhyou_detail_004_kani=true&JigyosyoCd=1292894038-00&ServiceCd=&Type=search", "url2": null }, "geometry": { "type": "Point", "coordinates": [ 139.994387499999988, 35.6794651 ] } },
{ "type": "Feature", "properties": { "内容": "看護小規模多機能型居宅介護ノテ船橋【看護小規模多機能型居宅介護（複合型サービス）】千葉県船橋市高根町1665‐2", "url": "https://www.kaigokensaku.mhlw.go.jp/12/index.php?action_kouhyou_detail_004_kani=true&JigyosyoCd=1292894020-00&ServiceCd=&Type=search", "url2": null }, "geometry": { "type": "Point", "coordinates": [ 140.011066, 35.7217499 ] } },
{ "type": "Feature", "properties": { "内容": "セントケア看護小規模船橋【看護小規模多機能型居宅介護（複合型サービス）】千葉県船橋市北本町1-10-15", "url": "https://www.kaigokensaku.mhlw.go.jp/12/index.php?action_kouhyou_detail_004_kani=true&JigyosyoCd=1292894012-00&ServiceCd=&Type=search", "url2": "https://www.saint-care.com/chiba/" }, "geometry": { "type": "Point", "coordinates": [ 139.982042, 35.71351090000001 ] } },
{ "type": "Feature", "properties": { "内容": "センターキュア看護小規模多機能型居宅介護事業所【看護小規模多機能型居宅介護（複合型サービス）】千葉県館山市亀ヶ原751-1", "url": "https://www.kaigokensaku.mhlw.go.jp/12/index.php?action_kouhyou_detail_004_kani=true&JigyosyoCd=1291000220-00&ServiceCd=&Type=search", "url2": "https://centercure.com/" }, "geometry": { "type": "Point", "coordinates": [ 139.879328622337312, 35.022364968420959 ] } },
{ "type": "Feature", "properties": { "内容": "セントケアさいわい【看護小規模多機能型居宅介護（複合型サービス）】千葉県木更津市幸町2-1-6", "url": "https://www.kaigokensaku.mhlw.go.jp/12/index.php?action_kouhyou_detail_004_kani=true&JigyosyoCd=1291094010-00&ServiceCd=&Type=search", "url2": "https://www.saint-care.com/center/2439/" }, "geometry": { "type": "Point", "coordinates": [ 139.928060100000039, 35.3731661 ] } },
{ "type": "Feature", "properties": { "内容": "ファミリーケア・ナースセンターきづな【看護小規模多機能型居宅介護（複合型サービス）】千葉県木更津市江川523-2", "url": "https://www.kaigokensaku.mhlw.go.jp/12/index.php?action_kouhyou_detail_004_kani=true&JigyosyoCd=1291094028-00&ServiceCd=&Type=search", "url2": "http://anshinnokizuna.com/" }, "geometry": { "type": "Point", "coordinates": [ 139.920944599999984, 35.4059876 ] } },
{ "type": "Feature", "properties": { "内容": "看多機しまむら【看護小規模多機能型居宅介護（複合型サービス）】千葉県松戸市松戸新田21-2穀物菜館ビル3F", "url": "https://www.kaigokensaku.mhlw.go.jp/12/index.php?action_kouhyou_detail_004_kani=true&JigyosyoCd=1292494078-00&ServiceCd=&Type=search", "url2": "https://kantaki-shimamura.com/" }, "geometry": { "type": "Point", "coordinates": [ 139.913342699999987, 35.77766860000002 ] } },
{ "type": "Feature", "properties": { "内容": "セントケア看護小規模松戸【看護小規模多機能型居宅介護（複合型サービス）】千葉県松戸市中根長津町236番地", "url": "https://www.kaigokensaku.mhlw.go.jp/12/index.php?action_kouhyou_detail_004_kani=true&JigyosyoCd=1292494037-00&ServiceCd=&Type=search", "url2": "https://www.saint-care.com/chiba/" }, "geometry": { "type": "Point", "coordinates": [ 139.913238500000034, 35.80905760000001 ] } },
{ "type": "Feature", "properties": { "内容": "看多機かえりえ八柱【看護小規模多機能型居宅介護（複合型サービス）】千葉県松戸市日暮4-3-3", "url": "https://www.kaigokensaku.mhlw.go.jp/12/index.php?action_kouhyou_detail_004_kani=true&JigyosyoCd=1291200580-00&ServiceCd=&Type=search", "url2": "https://search.yasashiite.com/detail/kantaki_yahashira/" }, "geometry": { "type": "Point", "coordinates": [ 139.938618099999985, 35.7882665 ] } },
{ "type": "Feature", "properties": { "内容": "看多機かえりえ河原塚【看護小規模多機能型居宅介護（複合型サービス）】千葉県松戸市河原塚69-1", "url": "https://www.kaigokensaku.mhlw.go.jp/12/index.php?action_kouhyou_detail_004_kani=true&JigyosyoCd=1292494018-00&ServiceCd=&Type=search", "url2": "http://www.yasashiite.com" }, "geometry": { "type": "Point", "coordinates": [ 139.93747350000001, 35.7813124 ] } },
{ "type": "Feature", "properties": { "内容": "セントケア看護小規模松戸五香【看護小規模多機能型居宅介護（複合型サービス）】千葉県松戸市五香2-23-2", "url": "https://www.kaigokensaku.mhlw.go.jp/12/index.php?action_kouhyou_detail_004_kani=true&JigyosyoCd=1292494087-00&ServiceCd=&Type=search", "url2": "https://www.saint-care.com/chiba/facility_list/%e3%82%bb%e3%83%b3%e3%83%88%e3%82%b1%e3%82%a2%e7%9c%8b%e8%ad%b7%e5%b0%8f%e8%a6%8f%e6%a8%a1%e6%9d%be%e6%88%b8%e4%ba%94%e9%a6%99/" }, "geometry": { "type": "Point", "coordinates": [ 139.972637126844745, 35.792855967524204 ] } },
{ "type": "Feature", "properties": { "内容": "看多機サボテン【看護小規模多機能型居宅介護（複合型サービス）】千葉県松戸市六高台3-77サボテン六高台", "url": "https://www.kaigokensaku.mhlw.go.jp/12/index.php?action_kouhyou_detail_004_kani=true&JigyosyoCd=1292494045-00&ServiceCd=&Type=search", "url2": "https://earth-saboten.co.jp/" }, "geometry": { "type": "Point", "coordinates": [ 139.9892165, 35.7986423 ] } },
{ "type": "Feature", "properties": { "内容": "看護小規模多機能型居宅介護このはな【看護小規模多機能型居宅介護（複合型サービス）】千葉県松戸市上矢切412-24", "url": "https://www.kaigokensaku.mhlw.go.jp/12/index.php?action_kouhyou_detail_004_kani=true&JigyosyoCd=1292494094-00&ServiceCd=&Type=search", "url2": null }, "geometry": { "type": "Point", "coordinates": [ 139.895843899999988, 35.7687227 ] } },
{ "type": "Feature", "properties": { "内容": "看護小規模多機能型居宅介護　さんしょう【看護小規模多機能型居宅介護（複合型サービス）】千葉県松戸市河原塚411-1", "url": "https://www.kaigokensaku.mhlw.go.jp/12/index.php?action_kouhyou_detail_004_kani=true&JigyosyoCd=1292494026-00&ServiceCd=&Type=search", "url2": "http://www.kouju-kai.or.jp/" }, "geometry": { "type": "Point", "coordinates": [ 139.945514900000035, 35.7866253 ] } },
{ "type": "Feature", "properties": { "内容": "わいわい豊夢・看護小規模多機能【看護小規模多機能型居宅介護（複合型サービス）】千葉県松戸市中根517", "url": "https://www.kaigokensaku.mhlw.go.jp/12/index.php?action_kouhyou_detail_004_kani=true&JigyosyoCd=1292494052-00&ServiceCd=&Type=search", "url2": "http://www.genki-matsudo.com/" }, "geometry": { "type": "Point", "coordinates": [ 139.917269499999946, 35.8060495 ] } },
{ "type": "Feature", "properties": { "内容": "明音色「ゆいまーる八ヶ崎」【看護小規模多機能型居宅介護（複合型サービス）】千葉県松戸市八ヶ崎8-21-7", "url": "https://www.kaigokensaku.mhlw.go.jp/12/index.php?action_kouhyou_detail_004_kani=true&JigyosyoCd=1292494060-00&ServiceCd=&Type=search", "url2": "https://www.yuimarulife.jp/" }, "geometry": { "type": "Point", "coordinates": [ 139.931132369511033, 35.811915311341167 ] } },
{ "type": "Feature", "properties": { "内容": "アロハナーシングケアハウス【看護小規模多機能型居宅介護（複合型サービス）】千葉県野田市木間ケ瀬2764-63", "url": "https://www.kaigokensaku.mhlw.go.jp/12/index.php?action_kouhyou_detail_004_kani=true&JigyosyoCd=1291300240-00&ServiceCd=&Type=search", "url2": "https://alohaneko.jp/works/5633640612495360/" }, "geometry": { "type": "Point", "coordinates": [ 139.8375718, 36.0173744 ] } },
{ "type": "Feature", "properties": { "内容": "看護小規模多機能型居宅介護しょうじゅの里茂原【看護小規模多機能型居宅介護（複合型サービス）】千葉県茂原市高師193-1", "url": "https://www.kaigokensaku.mhlw.go.jp/12/index.php?action_kouhyou_detail_004_kani=true&JigyosyoCd=1291500211-00&ServiceCd=&Type=search", "url2": "http://www.akaedakai.com/mobara/index.html" }, "geometry": { "type": "Point", "coordinates": [ 140.296751300000011, 35.4395247 ] } },
{ "type": "Feature", "properties": { "内容": "セントケア看護小規模成田【看護小規模多機能型居宅介護（複合型サービス）】千葉県成田市並木町142-52", "url": "https://www.kaigokensaku.mhlw.go.jp/12/index.php?action_kouhyou_detail_004_kani=true&JigyosyoCd=1291600359-00&ServiceCd=&Type=search", "url2": null }, "geometry": { "type": "Point", "coordinates": [ 140.3120719, 35.7541505 ] } },
{ "type": "Feature", "properties": { "内容": "看護多機能もりの家【看護小規模多機能型居宅介護（複合型サービス）】千葉県　佐倉市　小篠塚　1153-1", "url": "https://www.kaigokensaku.mhlw.go.jp/12/index.php?action_kouhyou_detail_004_kani=true&JigyosyoCd=1291700407-00&ServiceCd=&Type=search", "url2": "https://daisen.or.jp" }, "geometry": { "type": "Point", "coordinates": [ 140.2302001, 35.6879347 ] } },
{ "type": "Feature", "properties": { "内容": "セントケア看護小規模佐倉【看護小規模多機能型居宅介護（複合型サービス）】千葉県佐倉市寺崎北4-7-6", "url": "https://www.kaigokensaku.mhlw.go.jp/12/index.php?action_kouhyou_detail_004_kani=true&JigyosyoCd=1291700183-00&ServiceCd=&Type=search", "url2": null }, "geometry": { "type": "Point", "coordinates": [ 140.215219699999977, 35.7115151 ] } },
{ "type": "Feature", "properties": { "内容": "セントケア看護小規模東金【看護小規模多機能型居宅介護（複合型サービス）】千葉県東金市田間2-38-16", "url": "https://www.kaigokensaku.mhlw.go.jp/12/index.php?action_kouhyou_detail_004_kani=true&JigyosyoCd=1291800132-00&ServiceCd=&Type=search", "url2": "https://www.saint-care.com/center/4152/" }, "geometry": { "type": "Point", "coordinates": [ 140.370211644011675, 35.56751072438464 ] } },
{ "type": "Feature", "properties": { "内容": "看護小規模多機能型居宅介護実籾パークサイドテラス【看護小規模多機能型居宅介護（複合型サービス）】千葉県習志野市実籾本郷23番8", "url": "https://www.kaigokensaku.mhlw.go.jp/12/index.php?action_kouhyou_detail_004_kani=true&JigyosyoCd=1292100375-00&ServiceCd=&Type=search", "url2": "https://www.gakudan.org/" }, "geometry": { "type": "Point", "coordinates": [ 140.061980079762293, 35.682475729275957 ] } },
{ "type": "Feature", "properties": { "内容": "あさがお看護小規模多機能型居宅介護【看護小規模多機能型居宅介護（複合型サービス）】千葉県柏市高田825-8", "url": "https://www.kaigokensaku.mhlw.go.jp/12/index.php?action_kouhyou_detail_004_kani=true&JigyosyoCd=1292194017-00&ServiceCd=&Type=search", "url2": null }, "geometry": { "type": "Point", "coordinates": [ 139.963334594691787, 35.874975513669767 ] } },
{ "type": "Feature", "properties": { "内容": "看護小規模多機能型居宅介護つむぎ【看護小規模多機能型居宅介護（複合型サービス）】千葉県柏市柏690-2", "url": "https://www.kaigokensaku.mhlw.go.jp/12/index.php?action_kouhyou_detail_004_kani=true&JigyosyoCd=1292201017-00&ServiceCd=&Type=search", "url2": "https://shiori-houkan.com" }, "geometry": { "type": "Point", "coordinates": [ 139.98089342453693, 35.864710896077881 ] } },
{ "type": "Feature", "properties": { "内容": "セントケア看護小規模市原【看護小規模多機能型居宅介護（複合型サービス）】千葉県市原市東国分寺台2-2-6", "url": "https://www.kaigokensaku.mhlw.go.jp/12/index.php?action_kouhyou_detail_004_kani=true&JigyosyoCd=1292400239-00&ServiceCd=&Type=search", "url2": "http://www.saint-care.com/" }, "geometry": { "type": "Point", "coordinates": [ 140.120353199999954, 35.494341 ] } },
{ "type": "Feature", "properties": { "内容": "ドットステイ市原姉崎（看護小規模多機能）【看護小規模多機能型居宅介護（複合型サービス）】千葉県市原市有秋台西2丁目4-41", "url": "https://www.kaigokensaku.mhlw.go.jp/12/index.php?action_kouhyou_detail_004_kani=true&JigyosyoCd=1292400452-00&ServiceCd=&Type=search", "url2": "https://www.dotline-jp.com" }, "geometry": { "type": "Point", "coordinates": [ 140.0532399, 35.4463923 ] } },
{ "type": "Feature", "properties": { "内容": "看護小規模多機能型居宅介護くるり【看護小規模多機能型居宅介護（複合型サービス）】千葉県市原市菊間1443-1", "url": "https://www.kaigokensaku.mhlw.go.jp/12/index.php?action_kouhyou_detail_004_kani=true&JigyosyoCd=1292400494-00&ServiceCd=&Type=search", "url2": null }, "geometry": { "type": "Point", "coordinates": [ 140.1537078, 35.531386 ] } },
{ "type": "Feature", "properties": { "内容": "医療法人財団東京勤労者医療会　いちごいちえ【看護小規模多機能型居宅介護（複合型サービス）】千葉県流山市下花輪409-63階", "url": "https://www.kaigokensaku.mhlw.go.jp/12/index.php?action_kouhyou_detail_004_kani=true&JigyosyoCd=1292500244-00&ServiceCd=&Type=search", "url2": null }, "geometry": { "type": "Point", "coordinates": [ 139.902526599999987, 35.867758 ] } },
{ "type": "Feature", "properties": { "内容": "NursingHome八千代台【看護小規模多機能型居宅介護（複合型サービス）】千葉県八千代市八千代台北1-7-1", "url": "https://www.kaigokensaku.mhlw.go.jp/12/index.php?action_kouhyou_detail_004_kani=true&JigyosyoCd=1292600622-00&ServiceCd=&Type=search", "url2": "https://care-nursinghome.com/?utm_source=baner&utm_medium=1&utm_id=homepage&fbclid=PAY2xjawJYGR9leHRuA2FlbQIxMQABph9W9N9Vf8dwM-ZkHoeVp9OfHs-mtVkwbeHWKhvyIa2N9s2kfrySZOpoMw_aem_5v_oHULtec73cF3Xo9AaIA" }, "geometry": { "type": "Point", "coordinates": [ 140.0913439, 35.7024538 ] } },
{ "type": "Feature", "properties": { "内容": "まちのナースステーション八千代　むすんでひらいて【看護小規模多機能型居宅介護（複合型サービス）】千葉県八千代市ゆりのき台5-2-3", "url": "https://www.kaigokensaku.mhlw.go.jp/12/index.php?action_kouhyou_detail_004_kani=true&JigyosyoCd=1290494013-00&ServiceCd=&Type=search", "url2": "https://www.machi-nurse.co.jp" }, "geometry": { "type": "Point", "coordinates": [ 140.103284860049371, 35.731159408365514 ] } },
{ "type": "Feature", "properties": { "内容": "複合型サービス事業所フローラ【看護小規模多機能型居宅介護（複合型サービス）】千葉県鴨川市八色４２９", "url": "https://www.kaigokensaku.mhlw.go.jp/12/index.php?action_kouhyou_detail_004_kani=true&JigyosyoCd=1293994019-00&ServiceCd=&Type=search", "url2": "https://sites.google.com/site/florahcs/" }, "geometry": { "type": "Point", "coordinates": [ 140.0933255, 35.1203665 ] } },
{ "type": "Feature", "properties": { "内容": "看多機かえりえ南佐津間【看護小規模多機能型居宅介護（複合型サービス）】千葉県鎌ヶ谷市南佐津間12番5号", "url": "https://www.kaigokensaku.mhlw.go.jp/12/index.php?action_kouhyou_detail_004_kani=true&JigyosyoCd=1292900196-00&ServiceCd=&Type=search", "url2": "https://search.yasashiite.com/detail/kantaki_minamisatsuma/" }, "geometry": { "type": "Point", "coordinates": [ 140.001630299999988, 35.7953043 ] } },
{ "type": "Feature", "properties": { "内容": "セントケア看護小規模きみつ【看護小規模多機能型居宅介護（複合型サービス）】千葉県君津市大和田4-2-14", "url": "https://www.kaigokensaku.mhlw.go.jp/12/index.php?action_kouhyou_detail_004_kani=true&JigyosyoCd=1293000202-00&ServiceCd=&Type=search", "url2": null }, "geometry": { "type": "Point", "coordinates": [ 139.8791678, 35.3355521 ] } },
{ "type": "Feature", "properties": { "内容": "看護小規模多機能型居宅介護　　かんたき凪【看護小規模多機能型居宅介護（複合型サービス）】千葉県浦安市富士見1-7-16", "url": "https://www.kaigokensaku.mhlw.go.jp/12/index.php?action_kouhyou_detail_004_kani=true&JigyosyoCd=1293200273-00&ServiceCd=&Type=search", "url2": "https://nagomikango.o.oo7.jp/" }, "geometry": { "type": "Point", "coordinates": [ 139.8918521, 35.6513741 ] } },
{ "type": "Feature", "properties": { "内容": "看護小規模多機能ホーム　コープ夢みらい四街道【看護小規模多機能型居宅介護（複合型サービス）】千葉県四街道市大日1794-3", "url": "https://www.kaigokensaku.mhlw.go.jp/12/index.php?action_kouhyou_detail_004_kani=true&JigyosyoCd=1293300131-00&ServiceCd=&Type=search", "url2": "https://mirai.coopnet.or.jp/" }, "geometry": { "type": "Point", "coordinates": [ 140.1590687, 35.6686063 ] } },
{ "type": "Feature", "properties": { "内容": "セントケア看護小規模袖ヶ浦【看護小規模多機能型居宅介護（複合型サービス）】千葉県袖ケ浦市蔵波台3-10-2", "url": "https://www.kaigokensaku.mhlw.go.jp/12/index.php?action_kouhyou_detail_004_kani=true&JigyosyoCd=1293400105-00&ServiceCd=&Type=search", "url2": "https://www.saint-care.com/chiba/" }, "geometry": { "type": "Point", "coordinates": [ 139.99292893928677, 35.444368378474515 ] } },
{ "type": "Feature", "properties": { "内容": "看護多機能ななほし富里【看護小規模多機能型居宅介護（複合型サービス）】千葉県富里市七栄743", "url": "https://www.kaigokensaku.mhlw.go.jp/12/index.php?action_kouhyou_detail_004_kani=true&JigyosyoCd=1294000094-00&ServiceCd=&Type=search", "url2": null }, "geometry": { "type": "Point", "coordinates": [ 140.342233099999987, 35.7295815 ] } },
{ "type": "Feature", "properties": { "内容": "看護小規模多機能にこにこ（笑笑）【看護小規模多機能型居宅介護（複合型サービス）】千葉県南房総市千倉町南朝夷1661", "url": "https://www.kaigokensaku.mhlw.go.jp/12/index.php?action_kouhyou_detail_004_kani=true&JigyosyoCd=1298800184-00&ServiceCd=&Type=search", "url2": "http://egao-group.jp/" }, "geometry": { "type": "Point", "coordinates": [ 139.9559764, 34.9595369 ] } },
{ "type": "Feature", "properties": { "内容": "複合型サービスセンター杜の街“ぶらんこ”【看護小規模多機能型居宅介護（複合型サービス）】千葉県大網白里市みどりが丘2-36-2", "url": "https://www.kaigokensaku.mhlw.go.jp/12/index.php?action_kouhyou_detail_004_kani=true&JigyosyoCd=1295494018-00&ServiceCd=&Type=search", "url2": null }, "geometry": { "type": "Point", "coordinates": [ 140.314170399999966, 35.5431362 ] } },
{ "type": "Feature", "properties": { "内容": "セントケア　看護小規模大網【看護小規模多機能型居宅介護（複合型サービス）】千葉県大網白里市大網321-3", "url": "https://www.kaigokensaku.mhlw.go.jp/12/index.php?action_kouhyou_detail_004_kani=true&JigyosyoCd=1299200061-00&ServiceCd=&Type=search", "url2": "https://www.saint-care.com/" }, "geometry": { "type": "Point", "coordinates": [ 140.32360843352177, 35.524935682826126 ] } }
]
}
