{
"type": "FeatureCollection",
"name": "geo_12_4",
"crs": { "type": "name", "properties": { "name": "urn:ogc:def:crs:OGC:1.3:CRS84" } },
"features": [
{ "type": "Feature", "properties": { "ID": 1241200001900, "正式名称": "うさぎのまち助産院", "機関区分": 4, "都道府県コード": 12, "市区町村コード": 204, "所在地": "千葉県船橋市坪井東５－１４－１６", "緯度": 35.729785, "経度": 140.065931, "url": "https://www.iryou.teikyouseido.mhlw.go.jp/znk-web/juminkanja/S2430/initialize?prefCd=12&kikanCd=1200001900&kikanKbn=4", "url2": null, "内容": "うさぎのまち助産院【4:助産院】千葉県船橋市坪井東５－１４－１６" }, "geometry": { "type": "Point", "coordinates": [ 140.065931, 35.729785 ] } },
{ "type": "Feature", "properties": { "ID": 1241200565700, "正式名称": "八千代マタニティセンター武田助産院", "機関区分": 4, "都道府県コード": 12, "市区町村コード": 221, "所在地": "千葉県八千代市米本１４５０", "緯度": 35.756162, "経度": 140.109371, "url": "https://www.iryou.teikyouseido.mhlw.go.jp/znk-web/juminkanja/S2430/initialize?prefCd=12&kikanCd=1200565700&kikanKbn=4", "url2": "http://www.yachiyo-mid.net", "内容": "八千代マタニティセンター武田助産院【4:助産院】千葉県八千代市米本１４５０" }, "geometry": { "type": "Point", "coordinates": [ 140.109371, 35.756162 ] } },
{ "type": "Feature", "properties": { "ID": 1241200568100, "正式名称": "鶴岡助産所（出張専門）", "機関区分": 4, "都道府県コード": 12, "市区町村コード": 216, "所在地": "千葉県習志野市藤崎", "緯度": 35.690715, "経度": 140.037034, "url": "https://www.iryou.teikyouseido.mhlw.go.jp/znk-web/juminkanja/S2430/initialize?prefCd=12&kikanCd=1200568100&kikanKbn=4", "url2": null, "内容": "鶴岡助産所（出張専門）【4:助産院】千葉県習志野市藤崎" }, "geometry": { "type": "Point", "coordinates": [ 140.037034, 35.690715 ] } },
{ "type": "Feature", "properties": { "ID": 1241200571100, "正式名称": "あおぞら助産所", "機関区分": 4, "都道府県コード": 12, "市区町村コード": 216, "所在地": "千葉県習志野市津田沼", "緯度": 35.68279, "経度": 140.025385, "url": "https://www.iryou.teikyouseido.mhlw.go.jp/znk-web/juminkanja/S2430/initialize?prefCd=12&kikanCd=1200571100&kikanKbn=4", "url2": null, "内容": "あおぞら助産所【4:助産院】千葉県習志野市津田沼" }, "geometry": { "type": "Point", "coordinates": [ 140.025385, 35.68279 ] } },
{ "type": "Feature", "properties": { "ID": 1241200572000, "正式名称": "母乳育児ＰＥＴＩＴＭＡＭＭＡ", "機関区分": 4, "都道府県コード": 12, "市区町村コード": 216, "所在地": "千葉県習志野市秋津３ー２ー４ー１", "緯度": 35.671772, "経度": 140.01537, "url": "https://www.iryou.teikyouseido.mhlw.go.jp/znk-web/juminkanja/S2430/initialize?prefCd=12&kikanCd=1200572000&kikanKbn=4", "url2": "http://petit-mamma.wix.com/mamma", "内容": "母乳育児ＰＥＴＩＴＭＡＭＭＡ【4:助産院】千葉県習志野市秋津３ー２ー４ー１" }, "geometry": { "type": "Point", "coordinates": [ 140.01537, 35.671772 ] } },
{ "type": "Feature", "properties": { "ID": 1241200574600, "正式名称": "丸山助産院", "機関区分": 4, "都道府県コード": 12, "市区町村コード": 221, "所在地": "千葉県八千代市高津東２－８－１８", "緯度": 35.716696, "経度": 140.090531, "url": "https://www.iryou.teikyouseido.mhlw.go.jp/znk-web/juminkanja/S2430/initialize?prefCd=12&kikanCd=1200574600&kikanKbn=4", "url2": "http://maruyama.kenkenpa.net/", "内容": "丸山助産院【4:助産院】千葉県八千代市高津東２－８－１８" }, "geometry": { "type": "Point", "coordinates": [ 140.090531, 35.716696 ] } },
{ "type": "Feature", "properties": { "ID": 1241203165800, "正式名称": "よしおか助産所", "機関区分": 4, "都道府県コード": 12, "市区町村コード": 211, "所在地": "千葉県成田市玉造１－１３－２", "緯度": 35.797921, "経度": 140.290138, "url": "https://www.iryou.teikyouseido.mhlw.go.jp/znk-web/juminkanja/S2430/initialize?prefCd=12&kikanCd=1203165800&kikanKbn=4", "url2": null, "内容": "よしおか助産所【4:助産院】千葉県成田市玉造１－１３－２" }, "geometry": { "type": "Point", "coordinates": [ 140.290138, 35.797921 ] } },
{ "type": "Feature", "properties": { "ID": 1241203168200, "正式名称": "杉山母乳育児相談室", "機関区分": 4, "都道府県コード": 12, "市区町村コード": 212, "所在地": "千葉県佐倉市大崎台１－２０－１０", "緯度": 35.70746, "経度": 140.222176, "url": "https://www.iryou.teikyouseido.mhlw.go.jp/znk-web/juminkanja/S2430/initialize?prefCd=12&kikanCd=1203168200&kikanKbn=4", "url2": null, "内容": "杉山母乳育児相談室【4:助産院】千葉県佐倉市大崎台１－２０－１０" }, "geometry": { "type": "Point", "coordinates": [ 140.222176, 35.70746 ] } },
{ "type": "Feature", "properties": { "ID": 1241203172000, "正式名称": "Ｂｉｒｔｈ＆ｈｅａｌｉｎｇ　天使が舞い降りる家　助産院ゆい", "機関区分": 4, "都道府県コード": 12, "市区町村コード": 329, "所在地": "千葉県印旛郡栄町安食１－４の１０", "緯度": 35.833795, "経度": 140.246021, "url": "https://www.iryou.teikyouseido.mhlw.go.jp/znk-web/juminkanja/S2430/initialize?prefCd=12&kikanCd=1203172000&kikanKbn=4", "url2": null, "内容": "Ｂｉｒｔｈ＆ｈｅａｌｉｎｇ　天使が舞い降りる家　助産院ゆい【4:助産院】千葉県印旛郡栄町安食１－４の１０" }, "geometry": { "type": "Point", "coordinates": [ 140.246021, 35.833795 ] } },
{ "type": "Feature", "properties": { "ID": 1241203719200, "正式名称": "季美の森助産院　桶谷式　季美の森母乳育児相談室", "機関区分": 4, "都道府県コード": 12, "市区町村コード": 239, "所在地": "千葉県大網白里市季美の森南２－４３－１５", "緯度": 35.556339, "経度": 140.298996, "url": "https://www.iryou.teikyouseido.mhlw.go.jp/znk-web/juminkanja/S2430/initialize?prefCd=12&kikanCd=1203719200&kikanKbn=4", "url2": "http://www.page.sannet.ne.jp/yi-inaba/kimi/", "内容": "季美の森助産院　桶谷式　季美の森母乳育児相談室【4:助産院】千葉県大網白里市季美の森南２－４３－１５" }, "geometry": { "type": "Point", "coordinates": [ 140.298996, 35.556339 ] } },
{ "type": "Feature", "properties": { "ID": 1241204829100, "正式名称": "瑞生助産院", "機関区分": 4, "都道府県コード": 12, "市区町村コード": 219, "所在地": "千葉県市原市北国分寺台２－３－１５", "緯度": 35.507822, "経度": 140.117627, "url": "https://www.iryou.teikyouseido.mhlw.go.jp/znk-web/juminkanja/S2430/initialize?prefCd=12&kikanCd=1204829100&kikanKbn=4", "url2": null, "内容": "瑞生助産院【4:助産院】千葉県市原市北国分寺台２－３－１５" }, "geometry": { "type": "Point", "coordinates": [ 140.117627, 35.507822 ] } },
{ "type": "Feature", "properties": { "ID": 1241204891700, "正式名称": "ひまわり助産院", "機関区分": 4, "都道府県コード": 12, "市区町村コード": 235, "所在地": "千葉県匝瑳市野手１７１４６－９３７", "緯度": 35.659311, "経度": 140.59953, "url": "https://www.iryou.teikyouseido.mhlw.go.jp/znk-web/juminkanja/S2430/initialize?prefCd=12&kikanCd=1204891700&kikanKbn=4", "url2": "http://midwifemap.com/himawari-baby/mysite/", "内容": "ひまわり助産院【4:助産院】千葉県匝瑳市野手１７１４６－９３７" }, "geometry": { "type": "Point", "coordinates": [ 140.59953, 35.659311 ] } },
{ "type": "Feature", "properties": { "ID": 1241205406200, "正式名称": "いわい助産院母乳相談室", "機関区分": 4, "都道府県コード": 12, "市区町村コード": 217, "所在地": "千葉県柏市千代田１－５－３３", "緯度": 35.855618, "経度": 139.978695, "url": "https://www.iryou.teikyouseido.mhlw.go.jp/znk-web/juminkanja/S2430/initialize?prefCd=12&kikanCd=1205406200&kikanKbn=4", "url2": "https://itp.ne.jp/zenkoku/chiba/kashiwashi/chiyoda/iryo-kaigo/iryo/josanshi-josansho/josanshi/129941746188340830", "内容": "いわい助産院母乳相談室【4:助産院】千葉県柏市千代田１－５－３３" }, "geometry": { "type": "Point", "coordinates": [ 139.978695, 35.855618 ] } },
{ "type": "Feature", "properties": { "ID": 1241205407000, "正式名称": "和助産院", "機関区分": 4, "都道府県コード": 12, "市区町村コード": 217, "所在地": "千葉県柏市南増尾８－８－１－６１０", "緯度": 35.810223, "経度": 139.958321, "url": "https://www.iryou.teikyouseido.mhlw.go.jp/znk-web/juminkanja/S2430/initialize?prefCd=12&kikanCd=1205407000&kikanKbn=4", "url2": null, "内容": "和助産院【4:助産院】千葉県柏市南増尾８－８－１－６１０" }, "geometry": { "type": "Point", "coordinates": [ 139.958321, 35.810223 ] } },
{ "type": "Feature", "properties": { "ID": 1241206664800, "正式名称": "うのとろ助産所", "機関区分": 4, "都道府県コード": 12, "市区町村コード": 101, "所在地": "千葉県千葉市中央区椿森２－１４－１５", "緯度": 35.620026, "経度": 140.121591, "url": "https://www.iryou.teikyouseido.mhlw.go.jp/znk-web/juminkanja/S2430/initialize?prefCd=12&kikanCd=1206664800&kikanKbn=4", "url2": "https://unotoromegu.jimdofree.com", "内容": "うのとろ助産所【4:助産院】千葉県千葉市中央区椿森２－１４－１５" }, "geometry": { "type": "Point", "coordinates": [ 140.121591, 35.620026 ] } },
{ "type": "Feature", "properties": { "ID": 1241206676100, "正式名称": "出張専門高橋助産所", "機関区分": 4, "都道府県コード": 12, "市区町村コード": 102, "所在地": "千葉県千葉市花見川区作新台", "緯度": 35.692907, "経度": 140.088116, "url": "https://www.iryou.teikyouseido.mhlw.go.jp/znk-web/juminkanja/S2430/initialize?prefCd=12&kikanCd=1206676100&kikanKbn=4", "url2": null, "内容": "出張専門高橋助産所【4:助産院】千葉県千葉市花見川区作新台" }, "geometry": { "type": "Point", "coordinates": [ 140.088116, 35.692907 ] } },
{ "type": "Feature", "properties": { "ID": 1241206678800, "正式名称": "出張専門助産所菅谷", "機関区分": 4, "都道府県コード": 12, "市区町村コード": 103, "所在地": "千葉県千葉市稲毛区長沼原町", "緯度": 35.666241, "経度": 140.124405, "url": "https://www.iryou.teikyouseido.mhlw.go.jp/znk-web/juminkanja/S2430/initialize?prefCd=12&kikanCd=1206678800&kikanKbn=4", "url2": null, "内容": "出張専門助産所菅谷【4:助産院】千葉県千葉市稲毛区長沼原町" }, "geometry": { "type": "Point", "coordinates": [ 140.124405, 35.666241 ] } },
{ "type": "Feature", "properties": { "ID": 1241207377600, "正式名称": "松田助産院", "機関区分": 4, "都道府県コード": 12, "市区町村コード": 204, "所在地": "千葉県船橋市藤原６－４１－１７", "緯度": 35.747091, "経度": 139.97923, "url": "https://www.iryou.teikyouseido.mhlw.go.jp/znk-web/juminkanja/S2430/initialize?prefCd=12&kikanCd=1207377600&kikanKbn=4", "url2": "http://www.matsuda-josanin.com", "内容": "松田助産院【4:助産院】千葉県船橋市藤原６－４１－１７" }, "geometry": { "type": "Point", "coordinates": [ 139.97923, 35.747091 ] } },
{ "type": "Feature", "properties": { "ID": 1241207387300, "正式名称": "本田助産院", "機関区分": 4, "都道府県コード": 12, "市区町村コード": 204, "所在地": "千葉県船橋市西習志野４−１１−２", "緯度": 35.716584, "経度": 140.041757, "url": "https://www.iryou.teikyouseido.mhlw.go.jp/znk-web/juminkanja/S2430/initialize?prefCd=12&kikanCd=1207387300&kikanKbn=4", "url2": "https://carrytm328.wixsite.com", "内容": "本田助産院【4:助産院】千葉県船橋市西習志野４−１１−２" }, "geometry": { "type": "Point", "coordinates": [ 140.041757, 35.716584 ] } },
{ "type": "Feature", "properties": { "ID": 1241220256800, "正式名称": "カノン助産院", "機関区分": 4, "都道府県コード": 12, "市区町村コード": 101, "所在地": "千葉県千葉市中央区松波３－７－１５", "緯度": 35.619807, "経度": 140.108987, "url": "https://www.iryou.teikyouseido.mhlw.go.jp/znk-web/juminkanja/S2430/initialize?prefCd=12&kikanCd=1220256800&kikanKbn=4", "url2": "https://home.tsuku2.jp/storeDetail.php?scd=0000208682", "内容": "カノン助産院【4:助産院】千葉県千葉市中央区松波３－７－１５" }, "geometry": { "type": "Point", "coordinates": [ 140.108987, 35.619807 ] } },
{ "type": "Feature", "properties": { "ID": 1241220290800, "正式名称": "医療法人緑生会あびこ助産院", "機関区分": 4, "都道府県コード": 12, "市区町村コード": 222, "所在地": "千葉県我孫子市我孫子１８５４－１１", "緯度": 35.86614, "経度": 140.027326, "url": "https://www.iryou.teikyouseido.mhlw.go.jp/znk-web/juminkanja/S2430/initialize?prefCd=12&kikanCd=1220290800&kikanKbn=4", "url2": "http://www.abikojosanin.jp", "内容": "医療法人緑生会あびこ助産院【4:助産院】千葉県我孫子市我孫子１８５４－１１" }, "geometry": { "type": "Point", "coordinates": [ 140.027326, 35.86614 ] } },
{ "type": "Feature", "properties": { "ID": 1241220294000, "正式名称": "ひがし母乳育児相談室", "機関区分": 4, "都道府県コード": 12, "市区町村コード": 213, "所在地": "千葉県東金市広瀬６７－１", "緯度": 35.533927, "経度": 140.395597, "url": "https://www.iryou.teikyouseido.mhlw.go.jp/znk-web/juminkanja/S2430/initialize?prefCd=12&kikanCd=1220294000&kikanKbn=4", "url2": "https://oppa.oketani.or.jp/view/5f5MAoAum5DMQy9ZEsGHvvrm69psEow7DH9oA5qBZOE", "内容": "ひがし母乳育児相談室【4:助産院】千葉県東金市広瀬６７－１" }, "geometry": { "type": "Point", "coordinates": [ 140.395597, 35.533927 ] } },
{ "type": "Feature", "properties": { "ID": 1241220415300, "正式名称": "桶谷式母乳育児相談室　Ｗｅｌｌ　Ｂａｂｙ", "機関区分": 4, "都道府県コード": 12, "市区町村コード": 203, "所在地": "千葉県市川市市川１－７－１５カメイビル５０１", "緯度": 35.7301, "経度": 139.90852, "url": "https://www.iryou.teikyouseido.mhlw.go.jp/znk-web/juminkanja/S2430/initialize?prefCd=12&kikanCd=1220415300&kikanKbn=4", "url2": "http://www.well-baby.com", "内容": "桶谷式母乳育児相談室　Ｗｅｌｌ　Ｂａｂｙ【4:助産院】千葉県市川市市川１－７－１５カメイビル５０１" }, "geometry": { "type": "Point", "coordinates": [ 139.90852, 35.7301 ] } },
{ "type": "Feature", "properties": { "ID": 1241220559100, "正式名称": "戸田助産所", "機関区分": 4, "都道府県コード": 12, "市区町村コード": 230, "所在地": "千葉県八街市山田台", "緯度": 35.580653, "経度": 140.28228, "url": "https://www.iryou.teikyouseido.mhlw.go.jp/znk-web/juminkanja/S2430/initialize?prefCd=12&kikanCd=1220559100&kikanKbn=4", "url2": null, "内容": "戸田助産所【4:助産院】千葉県八街市山田台" }, "geometry": { "type": "Point", "coordinates": [ 140.28228, 35.580653 ] } },
{ "type": "Feature", "properties": { "ID": 1241220782900, "正式名称": "かとう出張専門助産院", "機関区分": 4, "都道府県コード": 12, "市区町村コード": 207, "所在地": "千葉県松戸市大金平", "緯度": 35.833142, "経度": 139.927986, "url": "https://www.iryou.teikyouseido.mhlw.go.jp/znk-web/juminkanja/S2430/initialize?prefCd=12&kikanCd=1220782900&kikanKbn=4", "url2": null, "内容": "かとう出張専門助産院【4:助産院】千葉県松戸市大金平" }, "geometry": { "type": "Point", "coordinates": [ 139.927986, 35.833142 ] } },
{ "type": "Feature", "properties": { "ID": 1241221165600, "正式名称": "あだち助産院", "機関区分": 4, "都道府県コード": 12, "市区町村コード": 217, "所在地": "千葉県柏市あけぼの３－９－２２", "緯度": 35.8697, "経度": 139.972703, "url": "https://www.iryou.teikyouseido.mhlw.go.jp/znk-web/juminkanja/S2430/initialize?prefCd=12&kikanCd=1221165600&kikanKbn=4", "url2": null, "内容": "あだち助産院【4:助産院】千葉県柏市あけぼの３－９－２２" }, "geometry": { "type": "Point", "coordinates": [ 139.972703, 35.8697 ] } },
{ "type": "Feature", "properties": { "ID": 1241221243100, "正式名称": "母乳ケアすずき助産院", "機関区分": 4, "都道府県コード": 12, "市区町村コード": 103, "所在地": "千葉県千葉市稲毛区小仲台２－５－２　大越ビル８０３", "緯度": 35.637643, "経度": 140.093279, "url": "https://www.iryou.teikyouseido.mhlw.go.jp/znk-web/juminkanja/S2430/initialize?prefCd=12&kikanCd=1221243100&kikanKbn=4", "url2": null, "内容": "母乳ケアすずき助産院【4:助産院】千葉県千葉市稲毛区小仲台２－５－２　大越ビル８０３" }, "geometry": { "type": "Point", "coordinates": [ 140.093279, 35.637643 ] } },
{ "type": "Feature", "properties": { "ID": 1241221309800, "正式名称": "母乳育児相談室つむぎ", "機関区分": 4, "都道府県コード": 12, "市区町村コード": 227, "所在地": "千葉県浦安市当代島１－１８－１９エクセレントアベ７０５", "緯度": 35.665293, "経度": 139.890625, "url": "https://www.iryou.teikyouseido.mhlw.go.jp/znk-web/juminkanja/S2430/initialize?prefCd=12&kikanCd=1221309800&kikanKbn=4", "url2": "www.tsumugi-oketani.jp", "内容": "母乳育児相談室つむぎ【4:助産院】千葉県浦安市当代島１－１８－１９エクセレントアベ７０５" }, "geometry": { "type": "Point", "coordinates": [ 139.890625, 35.665293 ] } },
{ "type": "Feature", "properties": { "ID": 1241221959200, "正式名称": "まつざき助産院", "機関区分": 4, "都道府県コード": 12, "市区町村コード": 101, "所在地": "千葉県千葉市中央区仁戸名町７２０－４２", "緯度": 35.576937, "経度": 140.165859, "url": "https://www.iryou.teikyouseido.mhlw.go.jp/znk-web/juminkanja/S2430/initialize?prefCd=12&kikanCd=1221959200&kikanKbn=4", "url2": "http://www.matsuzaki-josanin.com/index.htm", "内容": "まつざき助産院【4:助産院】千葉県千葉市中央区仁戸名町７２０－４２" }, "geometry": { "type": "Point", "coordinates": [ 140.165859, 35.576937 ] } },
{ "type": "Feature", "properties": { "ID": 1241222274700, "正式名称": "すず助産院", "機関区分": 4, "都道府県コード": 12, "市区町村コード": 227, "所在地": "千葉県浦安市北栄１－５－２０グランデュール峯崎２２０１号室", "緯度": 35.665926, "経度": 139.895358, "url": "https://www.iryou.teikyouseido.mhlw.go.jp/znk-web/juminkanja/S2430/initialize?prefCd=12&kikanCd=1222274700&kikanKbn=4", "url2": "http://suzujosan.com/", "内容": "すず助産院【4:助産院】千葉県浦安市北栄１－５－２０グランデュール峯崎２２０１号室" }, "geometry": { "type": "Point", "coordinates": [ 139.895358, 35.665926 ] } },
{ "type": "Feature", "properties": { "ID": 1241222461800, "正式名称": "しらくら助産院", "機関区分": 4, "都道府県コード": 12, "市区町村コード": 410, "所在地": "千葉県山武郡横芝光町鳥喰下１４５３－６", "緯度": 35.63968, "経度": 140.489613, "url": "https://www.iryou.teikyouseido.mhlw.go.jp/znk-web/juminkanja/S2430/initialize?prefCd=12&kikanCd=1222461800&kikanKbn=4", "url2": null, "内容": "しらくら助産院【4:助産院】千葉県山武郡横芝光町鳥喰下１４５３－６" }, "geometry": { "type": "Point", "coordinates": [ 140.489613, 35.63968 ] } },
{ "type": "Feature", "properties": { "ID": 1241223407900, "正式名称": "みらい助産院", "機関区分": 4, "都道府県コード": 12, "市区町村コード": 231, "所在地": "千葉県印西市原四丁目２番地１", "緯度": 35.799708, "経度": 140.162582, "url": "https://www.iryou.teikyouseido.mhlw.go.jp/znk-web/juminkanja/S2430/initialize?prefCd=12&kikanCd=1223407900&kikanKbn=4", "url2": "https://miraiwcl.com/mwc/", "内容": "みらい助産院【4:助産院】千葉県印西市原四丁目２番地１" }, "geometry": { "type": "Point", "coordinates": [ 140.162582, 35.799708 ] } },
{ "type": "Feature", "properties": { "ID": 1241223520200, "正式名称": "ｂｅａｎ助産院", "機関区分": 4, "都道府県コード": 12, "市区町村コード": 204, "所在地": "千葉県船橋市丸山５－２２－１２", "緯度": 35.74593, "経度": 139.996871, "url": "https://www.iryou.teikyouseido.mhlw.go.jp/znk-web/juminkanja/S2430/initialize?prefCd=12&kikanCd=1223520200&kikanKbn=4", "url2": "https://bean-josanin.jimdo.com/", "内容": "ｂｅａｎ助産院【4:助産院】千葉県船橋市丸山５－２２－１２" }, "geometry": { "type": "Point", "coordinates": [ 139.996871, 35.74593 ] } },
{ "type": "Feature", "properties": { "ID": 1241224066400, "正式名称": "出張専門　Ｈａｕｍｅａ助産所", "機関区分": 4, "都道府県コード": 12, "市区町村コード": 102, "所在地": "千葉県千葉市花見川区", "緯度": 35.662843, "経度": 140.069013, "url": "https://www.iryou.teikyouseido.mhlw.go.jp/znk-web/juminkanja/S2430/initialize?prefCd=12&kikanCd=1224066400&kikanKbn=4", "url2": "www.haumea2016.com", "内容": "出張専門　Ｈａｕｍｅａ助産所【4:助産院】千葉県千葉市花見川区" }, "geometry": { "type": "Point", "coordinates": [ 140.069013, 35.662843 ] } },
{ "type": "Feature", "properties": { "ID": 1241224282900, "正式名称": "すくすく助産院", "機関区分": 4, "都道府県コード": 12, "市区町村コード": 217, "所在地": "千葉県柏市柏３－１０－３０第３泉ビル４０５", "緯度": 35.861629, "経度": 139.9757, "url": "https://www.iryou.teikyouseido.mhlw.go.jp/znk-web/juminkanja/S2430/initialize?prefCd=12&kikanCd=1224282900&kikanKbn=4", "url2": "https://oppa.oketani.or.jp/", "内容": "すくすく助産院【4:助産院】千葉県柏市柏３－１０－３０第３泉ビル４０５" }, "geometry": { "type": "Point", "coordinates": [ 139.9757, 35.861629 ] } },
{ "type": "Feature", "properties": { "ID": 1241224356600, "正式名称": "咲助産院", "機関区分": 4, "都道府県コード": 12, "市区町村コード": 212, "所在地": "千葉県佐倉市王子台３－１２－１２", "緯度": 35.726668, "経度": 140.180689, "url": "https://www.iryou.teikyouseido.mhlw.go.jp/znk-web/juminkanja/S2430/initialize?prefCd=12&kikanCd=1224356600&kikanKbn=4", "url2": "www.sakijosanin.com", "内容": "咲助産院【4:助産院】千葉県佐倉市王子台３－１２－１２" }, "geometry": { "type": "Point", "coordinates": [ 140.180689, 35.726668 ] } },
{ "type": "Feature", "properties": { "ID": 1241224906800, "正式名称": "一般社団法人おおたかの森助産院", "機関区分": 4, "都道府県コード": 12, "市区町村コード": 220, "所在地": "千葉県流山市おおたかの森北一丁目２５番地の６", "緯度": 35.877348, "経度": 139.930195, "url": "https://www.iryou.teikyouseido.mhlw.go.jp/znk-web/juminkanja/S2430/initialize?prefCd=12&kikanCd=1224906800&kikanKbn=4", "url2": "https://otaka-birth.jp", "内容": "一般社団法人おおたかの森助産院【4:助産院】千葉県流山市おおたかの森北一丁目２５番地の６" }, "geometry": { "type": "Point", "coordinates": [ 139.930195, 35.877348 ] } },
{ "type": "Feature", "properties": { "ID": 1241224979300, "正式名称": "リリコイ助産院", "機関区分": 4, "都道府県コード": 12, "市区町村コード": 103, "所在地": "千葉県千葉市稲毛区稲丘町１１ー１２", "緯度": 35.631016, "経度": 140.088155, "url": "https://www.iryou.teikyouseido.mhlw.go.jp/znk-web/juminkanja/S2430/initialize?prefCd=12&kikanCd=1224979300&kikanKbn=4", "url2": "https://riricoi-mw.jp/", "内容": "リリコイ助産院【4:助産院】千葉県千葉市稲毛区稲丘町１１ー１２" }, "geometry": { "type": "Point", "coordinates": [ 140.088155, 35.631016 ] } },
{ "type": "Feature", "properties": { "ID": 1241225014700, "正式名称": "くどう助産院　母乳育児相談室", "機関区分": 4, "都道府県コード": 12, "市区町村コード": 204, "所在地": "千葉県船橋市本町", "緯度": 35.703937, "経度": 139.98769, "url": "https://www.iryou.teikyouseido.mhlw.go.jp/znk-web/juminkanja/S2430/initialize?prefCd=12&kikanCd=1225014700&kikanKbn=4", "url2": "http://www.kudo-josanin.com", "内容": "くどう助産院　母乳育児相談室【4:助産院】千葉県船橋市本町" }, "geometry": { "type": "Point", "coordinates": [ 139.98769, 35.703937 ] } },
{ "type": "Feature", "properties": { "ID": 1241225081300, "正式名称": "ｙｊｕ助産院", "機関区分": 4, "都道府県コード": 12, "市区町村コード": 207, "所在地": "千葉県松戸市新松戸７－４１２－２", "緯度": 35.833161, "経度": 139.904597, "url": "https://www.iryou.teikyouseido.mhlw.go.jp/znk-web/juminkanja/S2430/initialize?prefCd=12&kikanCd=1225081300&kikanKbn=4", "url2": "https://yju.webnode.jp/", "内容": "ｙｊｕ助産院【4:助産院】千葉県松戸市新松戸７－４１２－２" }, "geometry": { "type": "Point", "coordinates": [ 139.904597, 35.833161 ] } },
{ "type": "Feature", "properties": { "ID": 1241225188700, "正式名称": "ぽかぽか助産院（出張専門）", "機関区分": 4, "都道府県コード": 12, "市区町村コード": 216, "所在地": "千葉県習志野市香澄２－９－１１", "緯度": 35.666275, "経度": 140.027238, "url": "https://www.iryou.teikyouseido.mhlw.go.jp/znk-web/juminkanja/S2430/initialize?prefCd=12&kikanCd=1225188700&kikanKbn=4", "url2": "https://pokapokajyosanninn.apage.jp", "内容": "ぽかぽか助産院（出張専門）【4:助産院】千葉県習志野市香澄２－９－１１" }, "geometry": { "type": "Point", "coordinates": [ 140.027238, 35.666275 ] } },
{ "type": "Feature", "properties": { "ID": 1241225269700, "正式名称": "山岸助産院", "機関区分": 4, "都道府県コード": 12, "市区町村コード": 230, "所在地": "千葉県八街市東吉田６２７－６１", "緯度": 35.640489, "経度": 140.315891, "url": "https://www.iryou.teikyouseido.mhlw.go.jp/znk-web/juminkanja/S2430/initialize?prefCd=12&kikanCd=1225269700&kikanKbn=4", "url2": null, "内容": "山岸助産院【4:助産院】千葉県八街市東吉田６２７－６１" }, "geometry": { "type": "Point", "coordinates": [ 140.315891, 35.640489 ] } },
{ "type": "Feature", "properties": { "ID": 1241225289100, "正式名称": "はぐみ母乳育児相談室（助産院）", "機関区分": 4, "都道府県コード": 12, "市区町村コード": 221, "所在地": "千葉県八千代市緑が丘西８−１１−３　フェザントヴィラⅢ−１０１", "緯度": 35.745597, "経度": 140.068205, "url": "https://www.iryou.teikyouseido.mhlw.go.jp/znk-web/juminkanja/S2430/initialize?prefCd=12&kikanCd=1225289100&kikanKbn=4", "url2": null, "内容": "はぐみ母乳育児相談室（助産院）【4:助産院】千葉県八千代市緑が丘西８−１１−３　フェザントヴィラⅢ−１０１" }, "geometry": { "type": "Point", "coordinates": [ 140.068205, 35.745597 ] } },
{ "type": "Feature", "properties": { "ID": 1241225407000, "正式名称": "出張専門　佐和助産院", "機関区分": 4, "都道府県コード": 12, "市区町村コード": 204, "所在地": "千葉県船橋市二子町６２２－１西船橋リリエンハイム２０４", "緯度": 35.708039, "経度": 139.947624, "url": "https://www.iryou.teikyouseido.mhlw.go.jp/znk-web/juminkanja/S2430/initialize?prefCd=12&kikanCd=1225407000&kikanKbn=4", "url2": "https://sawasan.kenkenpa.net/", "内容": "出張専門　佐和助産院【4:助産院】千葉県船橋市二子町６２２－１西船橋リリエンハイム２０４" }, "geometry": { "type": "Point", "coordinates": [ 139.947624, 35.708039 ] } },
{ "type": "Feature", "properties": { "ID": 1241225515700, "正式名称": "田村助産院", "機関区分": 4, "都道府県コード": 12, "市区町村コード": 204, "所在地": "千葉県船橋市海神５－６－６－１０２号室", "緯度": 35.706674, "経度": 139.971299, "url": "https://www.iryou.teikyouseido.mhlw.go.jp/znk-web/juminkanja/S2430/initialize?prefCd=12&kikanCd=1225515700&kikanKbn=4", "url2": "tamuramidwifery.com", "内容": "田村助産院【4:助産院】千葉県船橋市海神５－６－６－１０２号室" }, "geometry": { "type": "Point", "coordinates": [ 139.971299, 35.706674 ] } },
{ "type": "Feature", "properties": { "ID": 1241226090800, "正式名称": "おおたかの森芝崎助産院", "機関区分": 4, "都道府県コード": 12, "市区町村コード": 220, "所在地": "千葉県流山市おおたかの森北３－４４－７", "緯度": 35.879876, "経度": 139.93185, "url": "https://www.iryou.teikyouseido.mhlw.go.jp/znk-web/juminkanja/S2430/initialize?prefCd=12&kikanCd=1226090800&kikanKbn=4", "url2": null, "内容": "おおたかの森芝崎助産院【4:助産院】千葉県流山市おおたかの森北３－４４－７" }, "geometry": { "type": "Point", "coordinates": [ 139.93185, 35.879876 ] } },
{ "type": "Feature", "properties": { "ID": 1241226321400, "正式名称": "ばおばぶ助産院", "機関区分": 4, "都道府県コード": 12, "市区町村コード": 204, "所在地": "千葉県船橋市西船２－１６－３", "緯度": 35.713161, "経度": 139.966291, "url": "https://www.iryou.teikyouseido.mhlw.go.jp/znk-web/juminkanja/S2430/initialize?prefCd=12&kikanCd=1226321400&kikanKbn=4", "url2": "https://baobabu.online", "内容": "ばおばぶ助産院【4:助産院】千葉県船橋市西船２－１６－３" }, "geometry": { "type": "Point", "coordinates": [ 139.966291, 35.713161 ] } },
{ "type": "Feature", "properties": { "ID": 1241226452000, "正式名称": "ますみ助産所", "機関区分": 4, "都道府県コード": 12, "市区町村コード": 229, "所在地": "千葉県袖ケ浦市神納１２９８－１８", "緯度": 35.420181, "経度": 139.953173, "url": "https://www.iryou.teikyouseido.mhlw.go.jp/znk-web/juminkanja/S2430/initialize?prefCd=12&kikanCd=1226452000&kikanKbn=4", "url2": null, "内容": "ますみ助産所【4:助産院】千葉県袖ケ浦市神納１２９８－１８" }, "geometry": { "type": "Point", "coordinates": [ 139.953173, 35.420181 ] } },
{ "type": "Feature", "properties": { "ID": 1241226461000, "正式名称": "ハッピーマンマ羽鳥助産院", "機関区分": 4, "都道府県コード": 12, "市区町村コード": 422, "所在地": "千葉県長生郡睦沢町下之郷１６１９－３", "緯度": 35.364599, "経度": 140.322928, "url": "https://www.iryou.teikyouseido.mhlw.go.jp/znk-web/juminkanja/S2430/initialize?prefCd=12&kikanCd=1226461000&kikanKbn=4", "url2": "https://38hatori.jimdofree.com/", "内容": "ハッピーマンマ羽鳥助産院【4:助産院】千葉県長生郡睦沢町下之郷１６１９－３" }, "geometry": { "type": "Point", "coordinates": [ 140.322928, 35.364599 ] } },
{ "type": "Feature", "properties": { "ID": 1241226814300, "正式名称": "桃李助産院　母乳育児相談室", "機関区分": 4, "都道府県コード": 12, "市区町村コード": 224, "所在地": "千葉県鎌ケ谷市新鎌ケ谷１－１０－２６　新鎌スカイタワー６０２号室", "緯度": 35.777846, "経度": 139.998941, "url": "https://www.iryou.teikyouseido.mhlw.go.jp/znk-web/juminkanja/S2430/initialize?prefCd=12&kikanCd=1226814300&kikanKbn=4", "url2": "oppa.oketani.or.jp", "内容": "桃李助産院　母乳育児相談室【4:助産院】千葉県鎌ケ谷市新鎌ケ谷１－１０－２６　新鎌スカイタワー６０２号室" }, "geometry": { "type": "Point", "coordinates": [ 139.998941, 35.777846 ] } },
{ "type": "Feature", "properties": { "ID": 1241226844500, "正式名称": "かまた助産院東松戸母乳育児相談室", "機関区分": 4, "都道府県コード": 12, "市区町村コード": 207, "所在地": "千葉県松戸市東松戸２丁目１２ー１３－１０１", "緯度": 35.770177, "経度": 139.948279, "url": "https://www.iryou.teikyouseido.mhlw.go.jp/znk-web/juminkanja/S2430/initialize?prefCd=12&kikanCd=1226844500&kikanKbn=4", "url2": "https://oppa.oketani.or.jp/view/XJygLFLy9x6k9qiENwytVuuhSNh8Jutwhx9SEnZo90C", "内容": "かまた助産院東松戸母乳育児相談室【4:助産院】千葉県松戸市東松戸２丁目１２ー１３－１０１" }, "geometry": { "type": "Point", "coordinates": [ 139.948279, 35.770177 ] } },
{ "type": "Feature", "properties": { "ID": 1241227334100, "正式名称": "つなぐ助産院", "機関区分": 4, "都道府県コード": 12, "市区町村コード": 207, "所在地": "千葉県松戸市稔台１－３１－１４", "緯度": 35.787014, "経度": 139.931227, "url": "https://www.iryou.teikyouseido.mhlw.go.jp/znk-web/juminkanja/S2430/initialize?prefCd=12&kikanCd=1227334100&kikanKbn=4", "url2": "https://tsunagu-i.studio.site", "内容": "つなぐ助産院【4:助産院】千葉県松戸市稔台１－３１－１４" }, "geometry": { "type": "Point", "coordinates": [ 139.931227, 35.787014 ] } },
{ "type": "Feature", "properties": { "ID": 1241227477100, "正式名称": "まりん助産院（出張専門）", "機関区分": 4, "都道府県コード": 12, "市区町村コード": 101, "所在地": "千葉県千葉市中央区青葉町", "緯度": 35.607417, "経度": 140.123014, "url": "https://www.iryou.teikyouseido.mhlw.go.jp/znk-web/juminkanja/S2430/initialize?prefCd=12&kikanCd=1227477100&kikanKbn=4", "url2": "http://midwifemap.com/marin/my site/", "内容": "まりん助産院（出張専門）【4:助産院】千葉県千葉市中央区青葉町" }, "geometry": { "type": "Point", "coordinates": [ 140.123014, 35.607417 ] } },
{ "type": "Feature", "properties": { "ID": 1241227716900, "正式名称": "出張専門助産院ｄａｙｓ", "機関区分": 4, "都道府県コード": 12, "市区町村コード": 101, "所在地": "千葉県千葉市中央区蘇我", "緯度": 35.607417, "経度": 140.123014, "url": "https://www.iryou.teikyouseido.mhlw.go.jp/znk-web/juminkanja/S2430/initialize?prefCd=12&kikanCd=1227716900&kikanKbn=4", "url2": null, "内容": "出張専門助産院ｄａｙｓ【4:助産院】千葉県千葉市中央区蘇我" }, "geometry": { "type": "Point", "coordinates": [ 140.123014, 35.607417 ] } },
{ "type": "Feature", "properties": { "ID": 1241227723100, "正式名称": "助産師　とくみあや", "機関区分": 4, "都道府県コード": 12, "市区町村コード": 216, "所在地": "千葉県習志野市谷津５－４０－１８－１０２", "緯度": 35.68857, "経度": 140.004512, "url": "https://www.iryou.teikyouseido.mhlw.go.jp/znk-web/juminkanja/S2430/initialize?prefCd=12&kikanCd=1227723100&kikanKbn=4", "url2": "http://ayatokumi.com", "内容": "助産師　とくみあや【4:助産院】千葉県習志野市谷津５－４０－１８－１０２" }, "geometry": { "type": "Point", "coordinates": [ 140.004512, 35.68857 ] } },
{ "type": "Feature", "properties": { "ID": 1241227874200, "正式名称": "やどりぎ助産院", "機関区分": 4, "都道府県コード": 12, "市区町村コード": 220, "所在地": "千葉県流山市おおたかの森４－３０－９", "緯度": 35.872382, "経度": 139.932673, "url": "https://www.iryou.teikyouseido.mhlw.go.jp/znk-web/juminkanja/S2430/initialize?prefCd=12&kikanCd=1227874200&kikanKbn=4", "url2": "https://r.goope.jp/yadorigi", "内容": "やどりぎ助産院【4:助産院】千葉県流山市おおたかの森４－３０－９" }, "geometry": { "type": "Point", "coordinates": [ 139.932673, 35.872382 ] } },
{ "type": "Feature", "properties": { "ID": 1241227875000, "正式名称": "ひかり助産院", "機関区分": 4, "都道府県コード": 12, "市区町村コード": 203, "所在地": "千葉県市川市南八幡２－８－１４", "緯度": 35.712727, "経度": 139.932547, "url": "https://www.iryou.teikyouseido.mhlw.go.jp/znk-web/juminkanja/S2430/initialize?prefCd=12&kikanCd=1227875000&kikanKbn=4", "url2": null, "内容": "ひかり助産院【4:助産院】千葉県市川市南八幡２－８－１４" }, "geometry": { "type": "Point", "coordinates": [ 139.932547, 35.712727 ] } },
{ "type": "Feature", "properties": { "ID": 1241227936600, "正式名称": "助産院　アロマ・バース", "機関区分": 4, "都道府県コード": 12, "市区町村コード": 219, "所在地": "千葉県市原市能満１８５６－２", "緯度": 35.510436, "経度": 140.143497, "url": "https://www.iryou.teikyouseido.mhlw.go.jp/znk-web/juminkanja/S2430/initialize?prefCd=12&kikanCd=1227936600&kikanKbn=4", "url2": "http://aromabirth.info", "内容": "助産院　アロマ・バース【4:助産院】千葉県市原市能満１８５６－２" }, "geometry": { "type": "Point", "coordinates": [ 140.143497, 35.510436 ] } },
{ "type": "Feature", "properties": { "ID": 1241228090900, "正式名称": "日菜多助産院", "機関区分": 4, "都道府県コード": 12, "市区町村コード": 203, "所在地": "千葉県市川市菅野２－４－６", "緯度": 35.72685, "経度": 139.92268, "url": "https://www.iryou.teikyouseido.mhlw.go.jp/znk-web/juminkanja/S2430/initialize?prefCd=12&kikanCd=1228090900&kikanKbn=4", "url2": "https://hinata-wellness.com/", "内容": "日菜多助産院【4:助産院】千葉県市川市菅野２－４－６" }, "geometry": { "type": "Point", "coordinates": [ 139.92268, 35.72685 ] } },
{ "type": "Feature", "properties": { "ID": 1241228192100, "正式名称": "せきぐち助産院", "機関区分": 4, "都道府県コード": 12, "市区町村コード": 206, "所在地": "千葉県木更津市木更津２－１５－９", "緯度": 35.383904, "経度": 139.932218, "url": "https://www.iryou.teikyouseido.mhlw.go.jp/znk-web/juminkanja/S2430/initialize?prefCd=12&kikanCd=1228192100&kikanKbn=4", "url2": null, "内容": "せきぐち助産院【4:助産院】千葉県木更津市木更津２－１５－９" }, "geometry": { "type": "Point", "coordinates": [ 139.932218, 35.383904 ] } },
{ "type": "Feature", "properties": { "ID": 1241228626500, "正式名称": "うのかみ助産院", "機関区分": 4, "都道府県コード": 12, "市区町村コード": 204, "所在地": "千葉県船橋市北本町２－４０－１ブライトシティ船橋１０２２", "緯度": 35.719211, "経度": 139.984867, "url": "https://www.iryou.teikyouseido.mhlw.go.jp/znk-web/juminkanja/S2430/initialize?prefCd=12&kikanCd=1228626500&kikanKbn=4", "url2": null, "内容": "うのかみ助産院【4:助産院】千葉県船橋市北本町２－４０－１ブライトシティ船橋１０２２" }, "geometry": { "type": "Point", "coordinates": [ 139.984867, 35.719211 ] } },
{ "type": "Feature", "properties": { "ID": 1241230000032, "正式名称": "母乳ケアみのり助産院【出張】", "機関区分": 4, "都道府県コード": 12, "市区町村コード": 204, "所在地": "千葉県船橋市滝台１", "緯度": 35.704953, "経度": 140.036027, "url": "https://www.iryou.teikyouseido.mhlw.go.jp/znk-web/juminkanja/S2430/initialize?prefCd=12&kikanCd=1230000032&kikanKbn=4", "url2": "https://sites.google.com/view/b-minori-j", "内容": "母乳ケアみのり助産院【出張】【4:助産院】千葉県船橋市滝台１" }, "geometry": { "type": "Point", "coordinates": [ 140.036027, 35.704953 ] } },
{ "type": "Feature", "properties": { "ID": 1241230000381, "正式名称": "ゆずの木助産院", "機関区分": 4, "都道府県コード": 12, "市区町村コード": 220, "所在地": "千葉県流山市西平井２丁目１６の６", "緯度": 35.849148, "経度": 139.910737, "url": "https://www.iryou.teikyouseido.mhlw.go.jp/znk-web/juminkanja/S2430/initialize?prefCd=12&kikanCd=1230000381&kikanKbn=4", "url2": "https://a3y93.hp.peraichi.com/", "内容": "ゆずの木助産院【4:助産院】千葉県流山市西平井２丁目１６の６" }, "geometry": { "type": "Point", "coordinates": [ 139.910737, 35.849148 ] } }
]
}
