{
"type": "FeatureCollection",
"name": "geo_12_福祉用具貸与",
"crs": { "type": "name", "properties": { "name": "urn:ogc:def:crs:OGC:1.3:CRS84" } },
"features": [
{ "type": "Feature", "properties": { "内容": "介護用品の店　陽だまり【福祉用具貸与】千葉市中央区新田町2-10サイトービルNo.3", "url2": "https://www.kaigokensaku.mhlw.go.jp/12/index.php?action_kouhyou_detail_004_kani=true&JigyosyoCd=1270100223-00&ServiceCd=170&Type=search" }, "geometry": { "type": "Point", "coordinates": [ 140.115579028825493, 35.608886564649801 ] } },
{ "type": "Feature", "properties": { "内容": "やさしい手住環境事業部千葉営業所【福祉用具貸与】千葉県千葉市中央区院内1-9-1亜土ビル101", "url2": "https://www.kaigokensaku.mhlw.go.jp/12/index.php?action_kouhyou_detail_004_kani=true&JigyosyoCd=1270104407-00&ServiceCd=170&Type=search" }, "geometry": { "type": "Point", "coordinates": [ 140.1230557, 35.6128366 ] } },
{ "type": "Feature", "properties": { "内容": "グッドケア千葉【福祉用具貸与】千葉県千葉市中央区蘇我３－３２－３５", "url2": "https://www.kaigokensaku.mhlw.go.jp/12/index.php?action_kouhyou_detail_004_kani=true&JigyosyoCd=1270105628-00&ServiceCd=170&Type=search" }, "geometry": { "type": "Point", "coordinates": [ 140.1306368, 35.5654866 ] } },
{ "type": "Feature", "properties": { "内容": "福祉用具貸与・販売　りべるたす【福祉用具貸与】千葉県千葉市中央区川戸町468-1", "url2": "https://www.kaigokensaku.mhlw.go.jp/12/index.php?action_kouhyou_detail_004_kani=true&JigyosyoCd=1270104985-00&ServiceCd=170&Type=search" }, "geometry": { "type": "Point", "coordinates": [ 140.166993300000058, 35.583848 ] } },
{ "type": "Feature", "properties": { "内容": "福祉用具あいか【福祉用具貸与】千葉県千葉市中央区末広3-18-4", "url2": "https://www.kaigokensaku.mhlw.go.jp/12/index.php?action_kouhyou_detail_004_kani=true&JigyosyoCd=1270105511-00&ServiceCd=170&Type=search" }, "geometry": { "type": "Point", "coordinates": [ 140.128327060308521, 35.593576772754531 ] } },
{ "type": "Feature", "properties": { "内容": "セントケアりまいんちば【福祉用具貸与】千葉市中央区蘇我2-5-3", "url2": "https://www.kaigokensaku.mhlw.go.jp/12/index.php?action_kouhyou_detail_004_kani=true&JigyosyoCd=1270105750-00&ServiceCd=170&Type=search" }, "geometry": { "type": "Point", "coordinates": [ 140.132444, 35.5731987 ] } },
{ "type": "Feature", "properties": { "内容": "ライフアドバンスセノバちば【福祉用具貸与】千葉市中央区新宿1-23-5山中ビル1階", "url2": "https://www.kaigokensaku.mhlw.go.jp/12/index.php?action_kouhyou_detail_004_kani=true&JigyosyoCd=1270105289-00&ServiceCd=170&Type=search" }, "geometry": { "type": "Point", "coordinates": [ 140.113225786293214, 35.604479916800919 ] } },
{ "type": "Feature", "properties": { "内容": "日本ウイール・チェアー株式会社　千葉支店【福祉用具貸与】千葉県千葉市中央区鵜の森町12-11鵜の森ビル", "url2": "https://www.kaigokensaku.mhlw.go.jp/12/index.php?action_kouhyou_detail_004_kani=true&JigyosyoCd=1270100538-00&ServiceCd=170&Type=search" }, "geometry": { "type": "Point", "coordinates": [ 140.139726418159626, 35.574261484426486 ] } },
{ "type": "Feature", "properties": { "内容": "カインドクルー【福祉用具貸与】千葉県千葉市中央区蘇我3-29-18", "url2": "https://www.kaigokensaku.mhlw.go.jp/12/index.php?action_kouhyou_detail_004_kani=true&JigyosyoCd=1270105255-00&ServiceCd=170&Type=search" }, "geometry": { "type": "Point", "coordinates": [ 140.130003122324496, 35.567396297885395 ] } },
{ "type": "Feature", "properties": { "内容": "カシダス千葉【福祉用具貸与】千葉県千葉市中央区椿森1-22-5", "url2": "https://www.kaigokensaku.mhlw.go.jp/12/index.php?action_kouhyou_detail_004_kani=true&JigyosyoCd=1270103912-00&ServiceCd=170&Type=search" }, "geometry": { "type": "Point", "coordinates": [ 140.112770599999948, 35.61008360000001 ] } },
{ "type": "Feature", "properties": { "内容": "スペースケア千葉営業所【福祉用具貸与】千葉県千葉市中央区都町4-6-8", "url2": "https://www.kaigokensaku.mhlw.go.jp/12/index.php?action_kouhyou_detail_004_kani=true&JigyosyoCd=1270101791-00&ServiceCd=170&Type=search" }, "geometry": { "type": "Point", "coordinates": [ 140.147398637434435, 35.613164026789242 ] } },
{ "type": "Feature", "properties": { "内容": "Ｈａｎａ福祉用具花見川【福祉用具貸与】千葉県千葉市花見川区幕張本郷2-41-5", "url2": "https://www.kaigokensaku.mhlw.go.jp/12/index.php?action_kouhyou_detail_004_kani=true&JigyosyoCd=1270204132-00&ServiceCd=170&Type=search" }, "geometry": { "type": "Point", "coordinates": [ 140.0452439, 35.6694311 ] } },
{ "type": "Feature", "properties": { "内容": "株式会社福祉協同サービス　千葉営業所【福祉用具貸与】千葉県千葉市花見川区幕張町5-417-65　1階", "url2": "https://www.kaigokensaku.mhlw.go.jp/12/index.php?action_kouhyou_detail_004_kani=true&JigyosyoCd=1270202029-00&ServiceCd=170&Type=search" }, "geometry": { "type": "Point", "coordinates": [ 140.051066787077218, 35.654341496066905 ] } },
{ "type": "Feature", "properties": { "内容": "フェイバーケア【福祉用具貸与】天戸町1472-2", "url2": "https://www.kaigokensaku.mhlw.go.jp/12/index.php?action_kouhyou_detail_004_kani=true&JigyosyoCd=1270203811-00&ServiceCd=170&Type=search" }, "geometry": { "type": "Point", "coordinates": [ 140.08785485441021, 35.684109329312925 ] } },
{ "type": "Feature", "properties": { "内容": "株式会社マツカワ住器【福祉用具貸与】千葉県千葉市稲毛区小仲台7-9-5", "url2": "https://www.kaigokensaku.mhlw.go.jp/12/index.php?action_kouhyou_detail_004_kani=true&JigyosyoCd=1270300955-00&ServiceCd=170&Type=search" }, "geometry": { "type": "Point", "coordinates": [ 140.088779599999953, 35.6450877 ] } },
{ "type": "Feature", "properties": { "内容": "福祉用具つむぎ【福祉用具貸与】千葉県千葉市稲毛区柏台1-5-105", "url2": "https://www.kaigokensaku.mhlw.go.jp/12/index.php?action_kouhyou_detail_004_kani=true&JigyosyoCd=1270302415-00&ServiceCd=170&Type=search" }, "geometry": { "type": "Point", "coordinates": [ 140.110546500000027, 35.6526711 ] } },
{ "type": "Feature", "properties": { "内容": "株式会社　星医療酸器　千葉支店【福祉用具貸与】千葉県千葉市稲毛区山王町305-10", "url2": "https://www.kaigokensaku.mhlw.go.jp/12/index.php?action_kouhyou_detail_004_kani=true&JigyosyoCd=1270300542-00&ServiceCd=170&Type=search" }, "geometry": { "type": "Point", "coordinates": [ 140.137725899999964, 35.6617956 ] } },
{ "type": "Feature", "properties": { "内容": "株式会社ヤマシタ　千葉稲毛営業所【福祉用具貸与】千葉県千葉市稲毛区長沼原町717-2", "url2": "https://www.kaigokensaku.mhlw.go.jp/12/index.php?action_kouhyou_detail_004_kani=true&JigyosyoCd=1270302944-00&ServiceCd=170&Type=search" }, "geometry": { "type": "Point", "coordinates": [ 140.12779412496252, 35.660512352439717 ] } },
{ "type": "Feature", "properties": { "内容": "ひよこケア【福祉用具貸与】千葉県千葉市稲毛区柏台1-13-403", "url2": "https://www.kaigokensaku.mhlw.go.jp/12/index.php?action_kouhyou_detail_004_kani=true&JigyosyoCd=1270302746-00&ServiceCd=170&Type=search" }, "geometry": { "type": "Point", "coordinates": [ 140.109993799999984, 35.650596300000011 ] } },
{ "type": "Feature", "properties": { "内容": "パーク穴川【福祉用具貸与】千葉県千葉市稲毛区穴川2-3-24土橋ビル2階", "url2": "https://www.kaigokensaku.mhlw.go.jp/12/index.php?action_kouhyou_detail_004_kani=true&JigyosyoCd=1270302902-00&ServiceCd=170&Type=search" }, "geometry": { "type": "Point", "coordinates": [ 140.1062236, 35.6350571 ] } },
{ "type": "Feature", "properties": { "内容": "癒しのレンタルステーション稲毛園生【福祉用具貸与】千葉県千葉市稲毛区園生町268-3シニア町内会稲毛園生", "url2": "https://www.kaigokensaku.mhlw.go.jp/12/index.php?action_kouhyou_detail_004_kani=true&JigyosyoCd=1270302498-00&ServiceCd=170&Type=search" }, "geometry": { "type": "Point", "coordinates": [ 140.106941972946146, 35.650139402375622 ] } },
{ "type": "Feature", "properties": { "内容": "ダスキンヘルスレント千葉西ステーション【福祉用具貸与】千草台1-1-24-104", "url2": "https://www.kaigokensaku.mhlw.go.jp/12/index.php?action_kouhyou_detail_004_kani=true&JigyosyoCd=1270300336-00&ServiceCd=170&Type=search" }, "geometry": { "type": "Point", "coordinates": [ 140.119279369416546, 35.634893970574616 ] } },
{ "type": "Feature", "properties": { "内容": "フランスベッド株式会社メディカル千葉営業所【福祉用具貸与】千葉県千葉市稲毛区長沼町１２４－８", "url2": "https://www.kaigokensaku.mhlw.go.jp/12/index.php?action_kouhyou_detail_004_kani=true&JigyosyoCd=1270301219-00&ServiceCd=170&Type=search" }, "geometry": { "type": "Point", "coordinates": [ 140.1226203, 35.6606149 ] } },
{ "type": "Feature", "properties": { "内容": "パナソニックエイジフリーショップ千葉西【福祉用具貸与】千葉県千葉市稲毛区弥生町２－１１－１０２", "url2": "https://www.kaigokensaku.mhlw.go.jp/12/index.php?action_kouhyou_detail_004_kani=true&JigyosyoCd=1270302050-00&ServiceCd=170&Type=search" }, "geometry": { "type": "Point", "coordinates": [ 140.10273989999996, 35.6243249 ] } },
{ "type": "Feature", "properties": { "内容": "生活クラブ風の村福祉用具事業部【福祉用具貸与】千葉県千葉市稲毛区作草部町601-3", "url2": "https://www.kaigokensaku.mhlw.go.jp/12/index.php?action_kouhyou_detail_004_kani=true&JigyosyoCd=1270302175-00&ServiceCd=170&Type=search" }, "geometry": { "type": "Point", "coordinates": [ 140.117156648955643, 35.624643298544989 ] } },
{ "type": "Feature", "properties": { "内容": "ライフケアタカサ千葉支店【福祉用具貸与】千葉県千葉市稲毛区園生町987-19", "url2": "https://www.kaigokensaku.mhlw.go.jp/12/index.php?action_kouhyou_detail_004_kani=true&JigyosyoCd=1270300021-00&ServiceCd=170&Type=search" }, "geometry": { "type": "Point", "coordinates": [ 140.108682934393329, 35.64153095416696 ] } },
{ "type": "Feature", "properties": { "内容": "アイテム福祉用具【福祉用具貸与】千葉県千葉市稲毛区園生町781-1ダイアパレス稲毛緑園都市Ｂ棟425号", "url2": "https://www.kaigokensaku.mhlw.go.jp/12/index.php?action_kouhyou_detail_004_kani=true&JigyosyoCd=1270302688-00&ServiceCd=170&Type=search" }, "geometry": { "type": "Point", "coordinates": [ 140.1075416, 35.6460821 ] } },
{ "type": "Feature", "properties": { "内容": "株式会社　シルバーとっぷ【福祉用具貸与】千葉市稲毛区長沼原町654-1", "url2": "https://www.kaigokensaku.mhlw.go.jp/12/index.php?action_kouhyou_detail_004_kani=true&JigyosyoCd=1270300187-00&ServiceCd=170&Type=search" }, "geometry": { "type": "Point", "coordinates": [ 140.131798659309425, 35.664516527103345 ] } },
{ "type": "Feature", "properties": { "内容": "株式会社トーカイ　千葉支店【福祉用具貸与】千葉県千葉市稲毛区山王町３３４番地", "url2": "https://www.kaigokensaku.mhlw.go.jp/12/index.php?action_kouhyou_detail_004_kani=true&JigyosyoCd=1270300013-00&ServiceCd=170&Type=search" }, "geometry": { "type": "Point", "coordinates": [ 140.140340199999969, 35.6603375 ] } },
{ "type": "Feature", "properties": { "内容": "シャローム若葉福祉用具貸与事業所【福祉用具貸与】千葉市若葉区若松町２１７０－８", "url2": "https://www.kaigokensaku.mhlw.go.jp/12/index.php?action_kouhyou_detail_004_kani=true&JigyosyoCd=1270401076-00&ServiceCd=170&Type=search" }, "geometry": { "type": "Point", "coordinates": [ 140.1742865, 35.6347355 ] } },
{ "type": "Feature", "properties": { "内容": "オアシスレンタルステーション【福祉用具貸与】千葉県千葉市若葉区御成台3-8-1", "url2": "https://www.kaigokensaku.mhlw.go.jp/12/index.php?action_kouhyou_detail_004_kani=true&JigyosyoCd=1270402637-00&ServiceCd=170&Type=search" }, "geometry": { "type": "Point", "coordinates": [ 140.200214211806099, 35.634042199172264 ] } },
{ "type": "Feature", "properties": { "内容": "パラメディカル株式会社千葉営業所【福祉用具貸与】千葉県千葉市若葉区貝塚2-9-4", "url2": "https://www.kaigokensaku.mhlw.go.jp/12/index.php?action_kouhyou_detail_004_kani=true&JigyosyoCd=1270404138-00&ServiceCd=170&Type=search" }, "geometry": { "type": "Point", "coordinates": [ 140.149619299999983, 35.6306128 ] } },
{ "type": "Feature", "properties": { "内容": "モナークケア【福祉用具貸与】千葉県千葉市若葉区桜木７-７-３６", "url2": "https://www.kaigokensaku.mhlw.go.jp/12/index.php?action_kouhyou_detail_004_kani=true&JigyosyoCd=1270403742-00&ServiceCd=170&Type=search" }, "geometry": { "type": "Point", "coordinates": [ 140.1613075, 35.6289238 ] } },
{ "type": "Feature", "properties": { "内容": "福祉用具　彩【福祉用具貸与】千葉県千葉市若葉区みつわ台2-11-8けやきハイム102号", "url2": "https://www.kaigokensaku.mhlw.go.jp/12/index.php?action_kouhyou_detail_004_kani=true&JigyosyoCd=1270403775-00&ServiceCd=170&Type=search" }, "geometry": { "type": "Point", "coordinates": [ 140.131459800000016, 35.6408224 ] } },
{ "type": "Feature", "properties": { "内容": "千葉ムツミ福祉用具高品【福祉用具貸与】千葉県千葉市若葉区高品町1591-5三恭ビル0001号室", "url2": "https://www.kaigokensaku.mhlw.go.jp/12/index.php?action_kouhyou_detail_004_kani=true&JigyosyoCd=1270402124-00&ServiceCd=170&Type=search" }, "geometry": { "type": "Point", "coordinates": [ 140.134262002130043, 35.620247779303483 ] } },
{ "type": "Feature", "properties": { "内容": "マーチン介護サービス若葉【福祉用具貸与】千葉県千葉市若葉区都賀4-9-5クレインハイツ都賀102号", "url2": "https://www.kaigokensaku.mhlw.go.jp/12/index.php?action_kouhyou_detail_004_kani=true&JigyosyoCd=1270401589-00&ServiceCd=170&Type=search" }, "geometry": { "type": "Point", "coordinates": [ 140.153150166270478, 35.634206019636913 ] } },
{ "type": "Feature", "properties": { "内容": "介護ショップとまと【福祉用具貸与】千葉県千葉市若葉区千城台東1-4-10", "url2": "https://www.kaigokensaku.mhlw.go.jp/12/index.php?action_kouhyou_detail_004_kani=true&JigyosyoCd=1270400177-00&ServiceCd=170&Type=search" }, "geometry": { "type": "Point", "coordinates": [ 140.191498799999977, 35.6198336 ] } },
{ "type": "Feature", "properties": { "内容": "有限会社　トータル介護サービスアイ　千葉営業所【福祉用具貸与】千葉市緑区あすみが丘2－41－11", "url2": "https://www.kaigokensaku.mhlw.go.jp/12/index.php?action_kouhyou_detail_004_kani=true&JigyosyoCd=1270500281-00&ServiceCd=170&Type=search" }, "geometry": { "type": "Point", "coordinates": [ 140.269252899999969, 35.521923 ] } },
{ "type": "Feature", "properties": { "内容": "たんぽぽレンタルサービス【福祉用具貸与】千葉県千葉市緑区高津戸町２９－３サンヴェール千葉７０２", "url2": "https://www.kaigokensaku.mhlw.go.jp/12/index.php?action_kouhyou_detail_004_kani=true&JigyosyoCd=1270502139-00&ServiceCd=170&Type=search" }, "geometry": { "type": "Point", "coordinates": [ 140.2602654, 35.5330523 ] } },
{ "type": "Feature", "properties": { "内容": "三希工房　猫の手【福祉用具貸与】千葉県千葉市緑区おゆみ野5-32-11-105", "url2": "https://www.kaigokensaku.mhlw.go.jp/12/index.php?action_kouhyou_detail_004_kani=true&JigyosyoCd=1270501412-00&ServiceCd=170&Type=search" }, "geometry": { "type": "Point", "coordinates": [ 140.186597099999972, 35.5547876 ] } },
{ "type": "Feature", "properties": { "内容": "アビリティーズ・ケアネット株式会社千葉営業所【福祉用具貸与】千葉県千葉市緑区平山町477-1", "url2": "https://www.kaigokensaku.mhlw.go.jp/12/index.php?action_kouhyou_detail_004_kani=true&JigyosyoCd=1270501776-00&ServiceCd=170&Type=search" }, "geometry": { "type": "Point", "coordinates": [ 140.2028004, 35.5824175 ] } },
{ "type": "Feature", "properties": { "内容": "カイゴバンク【福祉用具貸与】千葉県千葉市緑区東山科町14-32", "url2": "https://www.kaigokensaku.mhlw.go.jp/12/index.php?action_kouhyou_detail_004_kani=true&JigyosyoCd=1270501438-00&ServiceCd=170&Type=search" }, "geometry": { "type": "Point", "coordinates": [ 140.191990300000043, 35.5804067 ] } },
{ "type": "Feature", "properties": { "内容": "株式会社ヤマシタ　千葉緑営業所【福祉用具貸与】千葉県千葉市緑区おゆみ野中央９－６", "url2": "https://www.kaigokensaku.mhlw.go.jp/12/index.php?action_kouhyou_detail_004_kani=true&JigyosyoCd=1270501289-00&ServiceCd=170&Type=search" }, "geometry": { "type": "Point", "coordinates": [ 140.1813587, 35.5461495 ] } },
{ "type": "Feature", "properties": { "内容": "ダスキンヘルスレント千葉東ステーション【福祉用具貸与】千葉県千葉市緑区おゆみ野1-18", "url2": "https://www.kaigokensaku.mhlw.go.jp/12/index.php?action_kouhyou_detail_004_kani=true&JigyosyoCd=1270502410-00&ServiceCd=170&Type=search" }, "geometry": { "type": "Point", "coordinates": [ 140.1599731, 35.5619789 ] } },
{ "type": "Feature", "properties": { "内容": "あすみが丘訪問看護ステーション【福祉用具貸与】千葉県千葉市緑区あすみが丘2-17-5", "url2": "https://www.kaigokensaku.mhlw.go.jp/12/index.php?action_kouhyou_detail_004_kani=true&JigyosyoCd=1260190918-00&ServiceCd=170&Type=search" }, "geometry": { "type": "Point", "coordinates": [ 140.2698101, 35.5250492 ] } },
{ "type": "Feature", "properties": { "内容": "パナソニックエイジフリーショップ千葉東【福祉用具貸与】千葉県千葉市緑区おゆみ野南2-20-6-1Aラ・ツエム1A", "url2": "https://www.kaigokensaku.mhlw.go.jp/12/index.php?action_kouhyou_detail_004_kani=true&JigyosyoCd=1270501883-00&ServiceCd=170&Type=search" }, "geometry": { "type": "Point", "coordinates": [ 140.167169800000011, 35.5502405 ] } },
{ "type": "Feature", "properties": { "内容": "ケアウェル千葉店【福祉用具貸与】千葉市緑区誉田町１丁目３９２－６", "url2": "https://www.kaigokensaku.mhlw.go.jp/12/index.php?action_kouhyou_detail_004_kani=true&JigyosyoCd=1270501107-00&ServiceCd=170&Type=search" }, "geometry": { "type": "Point", "coordinates": [ 140.186460354432143, 35.557864995317289 ] } },
{ "type": "Feature", "properties": { "内容": "ぽかぽか介護おてんとさん【福祉用具貸与】千葉県千葉市緑区あすみが丘1-38-1", "url2": "https://www.kaigokensaku.mhlw.go.jp/12/index.php?action_kouhyou_detail_004_kani=true&JigyosyoCd=1270501206-00&ServiceCd=170&Type=search" }, "geometry": { "type": "Point", "coordinates": [ 140.269024299999955, 35.5302766 ] } },
{ "type": "Feature", "properties": { "内容": "株式会社　イノベイションオブメディカルサービス　千葉営業所【福祉用具貸与】千葉県千葉市緑区古市場町718番地1号", "url2": "https://www.kaigokensaku.mhlw.go.jp/12/index.php?action_kouhyou_detail_004_kani=true&JigyosyoCd=1270502048-00&ServiceCd=170&Type=search" }, "geometry": { "type": "Point", "coordinates": [ 140.142961386508176, 35.54835999369989 ] } },
{ "type": "Feature", "properties": { "内容": "スマイルケア【福祉用具貸与】千葉県千葉市緑区おゆみ野2-3-8", "url2": "https://www.kaigokensaku.mhlw.go.jp/12/index.php?action_kouhyou_detail_004_kani=true&JigyosyoCd=1270501032-00&ServiceCd=170&Type=search" }, "geometry": { "type": "Point", "coordinates": [ 140.175055199999946, 35.5646613 ] } },
{ "type": "Feature", "properties": { "内容": "株式会社至誠堂　Hanaムツミ福祉用具【福祉用具貸与】千葉県千葉市緑区誉田町2丁目27-10", "url2": "https://www.kaigokensaku.mhlw.go.jp/12/index.php?action_kouhyou_detail_004_kani=true&JigyosyoCd=1270502097-00&ServiceCd=170&Type=search" }, "geometry": { "type": "Point", "coordinates": [ 140.202111391577034, 35.549639213200571 ] } },
{ "type": "Feature", "properties": { "内容": "かぜのおと福祉用具【福祉用具貸与】千葉県千葉市美浜区中瀬2-6-1ﾜｰﾙﾄﾞﾋﾞｼﾞﾈｽｶﾞｰﾃﾞﾝﾏﾘﾌﾞｳｴｽﾄ20階", "url2": "https://www.kaigokensaku.mhlw.go.jp/12/index.php?action_kouhyou_detail_004_kani=true&JigyosyoCd=1270601402-00&ServiceCd=170&Type=search" }, "geometry": { "type": "Point", "coordinates": [ 140.0392062, 35.6485863 ] } },
{ "type": "Feature", "properties": { "内容": "株式会社フロンティア　千葉営業所【福祉用具貸与】千葉県千葉市美浜区新港42-4", "url2": "https://www.kaigokensaku.mhlw.go.jp/12/index.php?action_kouhyou_detail_004_kani=true&JigyosyoCd=1270600735-00&ServiceCd=170&Type=search" }, "geometry": { "type": "Point", "coordinates": [ 140.093833, 35.6110957 ] } },
{ "type": "Feature", "properties": { "内容": "フランスベッド株式会社　メディカル銚子営業所【福祉用具貸与】千葉県銚子市春日町105番地アステルサポート株式会社　2F", "url2": "https://www.kaigokensaku.mhlw.go.jp/12/index.php?action_kouhyou_detail_004_kani=true&JigyosyoCd=1270701467-00&ServiceCd=170&Type=search" }, "geometry": { "type": "Point", "coordinates": [ 140.825180990212999, 35.724506855016323 ] } },
{ "type": "Feature", "properties": { "内容": "フタバ薬局介護事業部【福祉用具貸与】千葉県銚子市西芝町１３番地６", "url2": "https://www.kaigokensaku.mhlw.go.jp/12/index.php?action_kouhyou_detail_004_kani=true&JigyosyoCd=1270700931-00&ServiceCd=170&Type=search" }, "geometry": { "type": "Point", "coordinates": [ 140.827803437165244, 35.730880173950425 ] } },
{ "type": "Feature", "properties": { "内容": "セット市川営業所【福祉用具貸与】千葉県市川市国府台3-11-1", "url2": "https://www.kaigokensaku.mhlw.go.jp/12/index.php?action_kouhyou_detail_004_kani=true&JigyosyoCd=1270805805-00&ServiceCd=170&Type=search" }, "geometry": { "type": "Point", "coordinates": [ 139.9003169, 35.7489259 ] } },
{ "type": "Feature", "properties": { "内容": "パナソニックエイジフリーショップ市川【福祉用具貸与】千葉県市川市鬼越2-11-1オーテックビル0001号室", "url2": "https://www.kaigokensaku.mhlw.go.jp/12/index.php?action_kouhyou_detail_004_kani=true&JigyosyoCd=1270802323-00&ServiceCd=170&Type=search" }, "geometry": { "type": "Point", "coordinates": [ 139.93968380000004, 35.717303200000011 ] } },
{ "type": "Feature", "properties": { "内容": "福祉用具すみれ【福祉用具貸与】千葉県市川市中国分２－１１－６", "url2": "https://www.kaigokensaku.mhlw.go.jp/12/index.php?action_kouhyou_detail_004_kani=true&JigyosyoCd=1270803636-00&ServiceCd=170&Type=search" }, "geometry": { "type": "Point", "coordinates": [ 139.91086329999996, 35.7504986 ] } },
{ "type": "Feature", "properties": { "内容": "ダスキンヘルスレント市川ステーション【福祉用具貸与】千葉県市川市田尻5-5-1センテビル", "url2": "https://www.kaigokensaku.mhlw.go.jp/12/index.php?action_kouhyou_detail_004_kani=true&JigyosyoCd=1270805706-00&ServiceCd=170&Type=search" }, "geometry": { "type": "Point", "coordinates": [ 139.930829499999987, 35.7033618 ] } },
{ "type": "Feature", "properties": { "内容": "フランスベッド株式会社　メディカル市川営業所【福祉用具貸与】千葉県市川市妙典6-4-19", "url2": "https://www.kaigokensaku.mhlw.go.jp/12/index.php?action_kouhyou_detail_004_kani=true&JigyosyoCd=1270805524-00&ServiceCd=170&Type=search" }, "geometry": { "type": "Point", "coordinates": [ 139.930350398147624, 35.692538827054371 ] } },
{ "type": "Feature", "properties": { "内容": "介護のパムコ【福祉用具貸与】千葉県市川市南八幡4-2-5いちかわ情報プラザ301", "url2": "https://www.kaigokensaku.mhlw.go.jp/12/index.php?action_kouhyou_detail_004_kani=true&JigyosyoCd=1270800145-00&ServiceCd=170&Type=search" }, "geometry": { "type": "Point", "coordinates": [ 139.926498400000014, 35.720603899999936 ] } },
{ "type": "Feature", "properties": { "内容": "新日本設備株式会社京葉ガスホームケアショップ市川【福祉用具貸与】千葉県市川市堀之内3丁目18番20号", "url2": "https://www.kaigokensaku.mhlw.go.jp/12/index.php?action_kouhyou_detail_004_kani=true&JigyosyoCd=1270804204-00&ServiceCd=170&Type=search" }, "geometry": { "type": "Point", "coordinates": [ 139.914135370858418, 35.762601912106035 ] } },
{ "type": "Feature", "properties": { "内容": "ファーマシーアオノ薬局【福祉用具貸与】千葉県市川市相之川4-15-1", "url2": "https://www.kaigokensaku.mhlw.go.jp/12/index.php?action_kouhyou_detail_004_kani=true&JigyosyoCd=1270805318-00&ServiceCd=170&Type=search" }, "geometry": { "type": "Point", "coordinates": [ 139.90096410000001, 35.6722622 ] } },
{ "type": "Feature", "properties": { "内容": "株式会社ヤマシタ　市川営業所【福祉用具貸与】千葉県市川市新田4‐12‐16大貫ビル３階", "url2": "https://www.kaigokensaku.mhlw.go.jp/12/index.php?action_kouhyou_detail_004_kani=true&JigyosyoCd=1270805441-00&ServiceCd=170&Type=search" }, "geometry": { "type": "Point", "coordinates": [ 139.90839230000006, 35.7261717 ] } },
{ "type": "Feature", "properties": { "内容": "シルバン介護センター・福祉用具【福祉用具貸与】千葉県市川市宮久保3-15-15", "url2": "https://www.kaigokensaku.mhlw.go.jp/12/index.php?action_kouhyou_detail_004_kani=true&JigyosyoCd=1270805052-00&ServiceCd=170&Type=search" }, "geometry": { "type": "Point", "coordinates": [ 139.938023578393938, 35.735082917265871 ] } },
{ "type": "Feature", "properties": { "内容": "ケア・スポットかんどり【福祉用具貸与】千葉県市川市香取2-9-11", "url2": "https://www.kaigokensaku.mhlw.go.jp/12/index.php?action_kouhyou_detail_004_kani=true&JigyosyoCd=1270805565-00&ServiceCd=170&Type=search" }, "geometry": { "type": "Point", "coordinates": [ 139.9085124, 35.6781913 ] } },
{ "type": "Feature", "properties": { "内容": "レンティケアサービス市川【福祉用具貸与】千葉県市川市東大和田1-7-7", "url2": "https://www.kaigokensaku.mhlw.go.jp/12/index.php?action_kouhyou_detail_004_kani=true&JigyosyoCd=1270801929-00&ServiceCd=170&Type=search" }, "geometry": { "type": "Point", "coordinates": [ 139.925502728855349, 35.715708717170088 ] } },
{ "type": "Feature", "properties": { "内容": "株式会社ビッグハート【福祉用具貸与】千葉県市川市柏井町4-362-5", "url2": "https://www.kaigokensaku.mhlw.go.jp/12/index.php?action_kouhyou_detail_004_kani=true&JigyosyoCd=1270805045-00&ServiceCd=170&Type=search" }, "geometry": { "type": "Point", "coordinates": [ 139.970478108760489, 35.750974201503631 ] } },
{ "type": "Feature", "properties": { "内容": "有限会社　アルファメディカル市川営業所【福祉用具貸与】千葉県市川市市川南2-6-4ヴェルディール市川南4-101", "url2": "https://www.kaigokensaku.mhlw.go.jp/12/index.php?action_kouhyou_detail_004_kani=true&JigyosyoCd=1270805128-00&ServiceCd=170&Type=search" }, "geometry": { "type": "Point", "coordinates": [ 139.904358825700086, 35.723661590581841 ] } },
{ "type": "Feature", "properties": { "内容": "ウエルアイ【福祉用具貸与】千葉県市川市大和田４－６－２０", "url2": "https://www.kaigokensaku.mhlw.go.jp/12/index.php?action_kouhyou_detail_004_kani=true&JigyosyoCd=1270801812-00&ServiceCd=170&Type=search" }, "geometry": { "type": "Point", "coordinates": [ 139.915177942108954, 35.72005643239568 ] } },
{ "type": "Feature", "properties": { "内容": "ライフアドバンスセノバいちかわ【福祉用具貸与】千葉県市川市南大野3-3-13", "url2": "https://www.kaigokensaku.mhlw.go.jp/12/index.php?action_kouhyou_detail_004_kani=true&JigyosyoCd=1270800731-00&ServiceCd=170&Type=search" }, "geometry": { "type": "Point", "coordinates": [ 139.957152700000023, 35.7463797 ] } },
{ "type": "Feature", "properties": { "内容": "ふぅじ【福祉用具貸与】千葉県市川市本北方2-5-14", "url2": "https://www.kaigokensaku.mhlw.go.jp/12/index.php?action_kouhyou_detail_004_kani=true&JigyosyoCd=1270804568-00&ServiceCd=170&Type=search" }, "geometry": { "type": "Point", "coordinates": [ 139.943544626780152, 35.730050588715486 ] } },
{ "type": "Feature", "properties": { "内容": "はあとふる・ほのか【福祉用具貸与】千葉県市川市平田2－6－1", "url2": "https://www.kaigokensaku.mhlw.go.jp/12/index.php?action_kouhyou_detail_004_kani=true&JigyosyoCd=1270801051-00&ServiceCd=170&Type=search" }, "geometry": { "type": "Point", "coordinates": [ 139.9271268, 35.7256581 ] } },
{ "type": "Feature", "properties": { "内容": "株式会社　東京酸器介護センター【福祉用具貸与】千葉県船橋市前原西6-6-44", "url2": "https://www.kaigokensaku.mhlw.go.jp/12/index.php?action_kouhyou_detail_004_kani=true&JigyosyoCd=1270901463-00&ServiceCd=170&Type=search" }, "geometry": { "type": "Point", "coordinates": [ 140.021558899999945, 35.7015382 ] } },
{ "type": "Feature", "properties": { "内容": "丸美ライフサービス福祉用具事業部【福祉用具貸与】千葉県船橋市本町2-26-21本町ビル２階", "url2": "https://www.kaigokensaku.mhlw.go.jp/12/index.php?action_kouhyou_detail_004_kani=true&JigyosyoCd=1270904731-00&ServiceCd=170&Type=search" }, "geometry": { "type": "Point", "coordinates": [ 139.982932823556553, 35.698679267074496 ] } },
{ "type": "Feature", "properties": { "内容": "合同会社ウェルワン【福祉用具貸与】千葉県船橋市習志野台4-24-5-1", "url2": "https://www.kaigokensaku.mhlw.go.jp/12/index.php?action_kouhyou_detail_004_kani=true&JigyosyoCd=1270909532-00&ServiceCd=170&Type=search" }, "geometry": { "type": "Point", "coordinates": [ 140.048501286508184, 35.719168553091855 ] } },
{ "type": "Feature", "properties": { "内容": "まいむケアサポート【福祉用具貸与】千葉県船橋市本中山1-7-10　キョウエイビル３階", "url2": "https://www.kaigokensaku.mhlw.go.jp/12/index.php?action_kouhyou_detail_004_kani=true&JigyosyoCd=1270902313-00&ServiceCd=170&Type=search" }, "geometry": { "type": "Point", "coordinates": [ 139.945851700000048, 35.7157046 ] } },
{ "type": "Feature", "properties": { "内容": "株式会社フロンティア　船橋営業所【福祉用具貸与】千葉県船橋市海神町2-3-17メゾン海神101", "url2": "https://www.kaigokensaku.mhlw.go.jp/12/index.php?action_kouhyou_detail_004_kani=true&JigyosyoCd=1270908559-00&ServiceCd=170&Type=search" }, "geometry": { "type": "Point", "coordinates": [ 139.973174, 35.6986 ] } },
{ "type": "Feature", "properties": { "内容": "SOMPOケア船橋福祉用具【福祉用具貸与】千葉県船橋市本町7-11-5KDX船橋ﾋﾞﾙ5F", "url2": "https://www.kaigokensaku.mhlw.go.jp/12/index.php?action_kouhyou_detail_004_kani=true&JigyosyoCd=1270910787-00&ServiceCd=170&Type=search" }, "geometry": { "type": "Point", "coordinates": [ 139.984388, 35.703873400000056 ] } },
{ "type": "Feature", "properties": { "内容": "スペースケア　船橋営業所【福祉用具貸与】千葉県船橋市栄町1－21－28", "url2": "https://www.kaigokensaku.mhlw.go.jp/12/index.php?action_kouhyou_detail_004_kani=true&JigyosyoCd=1270900226-00&ServiceCd=170&Type=search" }, "geometry": { "type": "Point", "coordinates": [ 139.974988100000019, 35.6907508 ] } },
{ "type": "Feature", "properties": { "内容": "株式会社ヤマシタ南船橋営業所【福祉用具貸与】千葉県船橋市西浦2-5-4株式会社ヤマシタ千葉オペレーションセンター内", "url2": "https://www.kaigokensaku.mhlw.go.jp/12/index.php?action_kouhyou_detail_004_kani=true&JigyosyoCd=1270910795-00&ServiceCd=170&Type=search" }, "geometry": { "type": "Point", "coordinates": [ 139.968029199999989, 35.6891141 ] } },
{ "type": "Feature", "properties": { "内容": "日本パムコ株式会社船橋営業所【福祉用具貸与】千葉県船橋市三山8-2-4", "url2": "https://www.kaigokensaku.mhlw.go.jp/12/index.php?action_kouhyou_detail_004_kani=true&JigyosyoCd=1270907767-00&ServiceCd=170&Type=search" }, "geometry": { "type": "Point", "coordinates": [ 140.055469899999906, 35.6967703 ] } },
{ "type": "Feature", "properties": { "内容": "あいふれんど千葉店【福祉用具貸与】千葉県船橋市北本町2-66-20", "url2": "https://www.kaigokensaku.mhlw.go.jp/12/index.php?action_kouhyou_detail_004_kani=true&JigyosyoCd=1270901471-00&ServiceCd=170&Type=search" }, "geometry": { "type": "Point", "coordinates": [ 139.984050700000012, 35.7136452 ] } },
{ "type": "Feature", "properties": { "内容": "株式会社トーカイ千葉西営業所【福祉用具貸与】千葉県船橋市印内町628番1", "url2": "https://www.kaigokensaku.mhlw.go.jp/12/index.php?action_kouhyou_detail_004_kani=true&JigyosyoCd=1270905902-00&ServiceCd=170&Type=search" }, "geometry": { "type": "Point", "coordinates": [ 139.957485899999938, 35.7046443 ] } },
{ "type": "Feature", "properties": { "内容": "京葉ガスホームケアショップ船橋【福祉用具貸与】千葉県船橋市市場5-1-16ケージェイリビング株式会社　市場事務所", "url2": "https://www.kaigokensaku.mhlw.go.jp/12/index.php?action_kouhyou_detail_004_kani=true&JigyosyoCd=1270907551-00&ServiceCd=170&Type=search" }, "geometry": { "type": "Point", "coordinates": [ 139.999266789660567, 35.704640729353549 ] } },
{ "type": "Feature", "properties": { "内容": "ライフサポートスマイル【福祉用具貸与】千葉県船橋市前原西2丁目17番12号DOGO津田沼ビル　202号室", "url2": "https://www.kaigokensaku.mhlw.go.jp/12/index.php?action_kouhyou_detail_004_kani=true&JigyosyoCd=1270906256-00&ServiceCd=170&Type=search" }, "geometry": { "type": "Point", "coordinates": [ 140.018546698984892, 35.692335415864335 ] } },
{ "type": "Feature", "properties": { "内容": "パナソニックエイジフリーショップ千葉船橋【福祉用具貸与】千葉県船橋市習志野台1-6-7ＬＩＧＨＴＳ１階Ａ号室", "url2": "https://www.kaigokensaku.mhlw.go.jp/12/index.php?action_kouhyou_detail_004_kani=true&JigyosyoCd=1270907783-00&ServiceCd=170&Type=search" }, "geometry": { "type": "Point", "coordinates": [ 140.037667199999987, 35.726225 ] } },
{ "type": "Feature", "properties": { "内容": "さわやかケア船橋・福祉用具【福祉用具貸与】千葉県船橋市本中山2-10-1ミレニティ中山4階", "url2": "https://www.kaigokensaku.mhlw.go.jp/12/index.php?action_kouhyou_detail_004_kani=true&JigyosyoCd=1270903568-00&ServiceCd=170&Type=search" }, "geometry": { "type": "Point", "coordinates": [ 139.94413940000004, 35.7142949 ] } },
{ "type": "Feature", "properties": { "内容": "アースサポート西船橋【福祉用具貸与】千葉県船橋市西船5丁目18番19号", "url2": "https://www.kaigokensaku.mhlw.go.jp/12/index.php?action_kouhyou_detail_004_kani=true&JigyosyoCd=1270910027-00&ServiceCd=170&Type=search" }, "geometry": { "type": "Point", "coordinates": [ 139.9549448, 35.7111199 ] } },
{ "type": "Feature", "properties": { "内容": "有限会社筑後メディカル船橋事業所【福祉用具貸与】千葉県船橋市前原東2-10-3ウェルズ21津田沼パート8D", "url2": "https://www.kaigokensaku.mhlw.go.jp/12/index.php?action_kouhyou_detail_004_kani=true&JigyosyoCd=1270903477-00&ServiceCd=170&Type=search" }, "geometry": { "type": "Point", "coordinates": [ 140.028932400000031, 35.6951169 ] } },
{ "type": "Feature", "properties": { "内容": "カシダス船橋【福祉用具貸与】千葉県船橋市山野町190-3", "url2": "https://www.kaigokensaku.mhlw.go.jp/12/index.php?action_kouhyou_detail_004_kani=true&JigyosyoCd=1270905910-00&ServiceCd=170&Type=search" }, "geometry": { "type": "Point", "coordinates": [ 139.965527100000031, 35.703124799999983 ] } },
{ "type": "Feature", "properties": { "内容": "レビー・ケア株式会社「レビー船橋」【福祉用具貸与】千葉県船橋市上山町1-157-1", "url2": "https://www.kaigokensaku.mhlw.go.jp/12/index.php?action_kouhyou_detail_004_kani=true&JigyosyoCd=1270900721-00&ServiceCd=170&Type=search" }, "geometry": { "type": "Point", "coordinates": [ 139.971601, 35.7278657 ] } },
{ "type": "Feature", "properties": { "内容": "ペアレントホームケア親おもい【福祉用具貸与】千葉県船橋市薬円台６ー１１ー１１", "url2": "https://www.kaigokensaku.mhlw.go.jp/12/index.php?action_kouhyou_detail_004_kani=true&JigyosyoCd=1270902438-00&ServiceCd=170&Type=search" }, "geometry": { "type": "Point", "coordinates": [ 140.038890199999969, 35.7114821 ] } },
{ "type": "Feature", "properties": { "内容": "アビリティーズ・ケアネット株式会社　千葉東葛営業所【福祉用具貸与】千葉県船橋市丸山5-30-3　第六松宮ビル１階", "url2": "https://www.kaigokensaku.mhlw.go.jp/12/index.php?action_kouhyou_detail_004_kani=true&JigyosyoCd=1270902784-00&ServiceCd=170&Type=search" }, "geometry": { "type": "Point", "coordinates": [ 139.9928241, 35.743343900000035 ] } },
{ "type": "Feature", "properties": { "内容": "ダスキン　ヘルスレント船橋ステーション【福祉用具貸与】千葉県船橋市高根台6-43-2ブックオフ駐車場内", "url2": "https://www.kaigokensaku.mhlw.go.jp/12/index.php?action_kouhyou_detail_004_kani=true&JigyosyoCd=1270908328-00&ServiceCd=170&Type=search" }, "geometry": { "type": "Point", "coordinates": [ 140.036026070500128, 35.72870130968478 ] } },
{ "type": "Feature", "properties": { "内容": "きぬせん福祉用具研究会【福祉用具貸与】千葉県船橋市海神4-9-18", "url2": "https://www.kaigokensaku.mhlw.go.jp/12/index.php?action_kouhyou_detail_004_kani=true&JigyosyoCd=1270905845-00&ServiceCd=170&Type=search" }, "geometry": { "type": "Point", "coordinates": [ 139.973557199999959, 35.7050854 ] } },
{ "type": "Feature", "properties": { "内容": "フランスベッド株式会社　メディカル船橋営業所【福祉用具貸与】千葉県船橋市北本町1-7-6-2Ｆ", "url2": "https://www.kaigokensaku.mhlw.go.jp/12/index.php?action_kouhyou_detail_004_kani=true&JigyosyoCd=1270904558-00&ServiceCd=170&Type=search" }, "geometry": { "type": "Point", "coordinates": [ 139.981534300000021, 35.7087458 ] } },
{ "type": "Feature", "properties": { "内容": "セントケアりまいん船橋【福祉用具貸与】千葉県船橋市栄町1-6-14102", "url2": "https://www.kaigokensaku.mhlw.go.jp/12/index.php?action_kouhyou_detail_004_kani=true&JigyosyoCd=1270910878-00&ServiceCd=170&Type=search" }, "geometry": { "type": "Point", "coordinates": [ 139.976531900000026, 35.692709200000017 ] } },
{ "type": "Feature", "properties": { "内容": "オーケーサービス船橋営業所【福祉用具貸与】千葉県船橋市飯山満町2-1015-1-7-2街区1画地ＤＡＩＣＨＩ　ＧＡＲＡＧＥ　ＨＡＳＡＭＡ　Ａ号室", "url2": "https://www.kaigokensaku.mhlw.go.jp/12/index.php?action_kouhyou_detail_004_kani=true&JigyosyoCd=1270908740-00&ServiceCd=170&Type=search" }, "geometry": { "type": "Point", "coordinates": [ 140.021070300000019, 35.7133252 ] } },
{ "type": "Feature", "properties": { "内容": "ライフケアタカサ船橋支店【福祉用具貸与】千葉県船橋市三咲2-9-37", "url2": "https://www.kaigokensaku.mhlw.go.jp/12/index.php?action_kouhyou_detail_004_kani=true&JigyosyoCd=1270901752-00&ServiceCd=170&Type=search" }, "geometry": { "type": "Point", "coordinates": [ 140.029083735937547, 35.751864342200136 ] } },
{ "type": "Feature", "properties": { "内容": "チヤフルキョウエイ館山事業所【福祉用具貸与】千葉県館山市長須賀447-6", "url2": "https://www.kaigokensaku.mhlw.go.jp/12/index.php?action_kouhyou_detail_004_kani=true&JigyosyoCd=1271001149-00&ServiceCd=170&Type=search" }, "geometry": { "type": "Point", "coordinates": [ 140.393223700000021, 35.5285011 ] } },
{ "type": "Feature", "properties": { "内容": "すりーえす【福祉用具貸与】千葉県館山市沼1623-1", "url2": "https://www.kaigokensaku.mhlw.go.jp/12/index.php?action_kouhyou_detail_004_kani=true&JigyosyoCd=1271000943-00&ServiceCd=170&Type=search" }, "geometry": { "type": "Point", "coordinates": [ 139.845640897553267, 34.982228321251078 ] } },
{ "type": "Feature", "properties": { "内容": "有限会社ウエルネス上総【福祉用具貸与】千葉県木更津市大和1丁目4番10号102", "url2": "https://www.kaigokensaku.mhlw.go.jp/12/index.php?action_kouhyou_detail_004_kani=true&JigyosyoCd=1271100552-00&ServiceCd=170&Type=search" }, "geometry": { "type": "Point", "coordinates": [ 139.9280374, 35.379499 ] } },
{ "type": "Feature", "properties": { "内容": "チヤフルキョウエイ木更津事業所【福祉用具貸与】千葉県木更津市東太田1-9-27", "url2": "https://www.kaigokensaku.mhlw.go.jp/12/index.php?action_kouhyou_detail_004_kani=true&JigyosyoCd=1271103135-00&ServiceCd=170&Type=search" }, "geometry": { "type": "Point", "coordinates": [ 139.951274673310081, 35.377159705899814 ] } },
{ "type": "Feature", "properties": { "内容": "福祉用具サービスたんぽぽ【福祉用具貸与】千葉県木更津市祇園２－３０－２１", "url2": "https://www.kaigokensaku.mhlw.go.jp/12/index.php?action_kouhyou_detail_004_kani=true&JigyosyoCd=1271100636-00&ServiceCd=170&Type=search" }, "geometry": { "type": "Point", "coordinates": [ 139.952857200000039, 35.392647 ] } },
{ "type": "Feature", "properties": { "内容": "アイリーライフ木更津【福祉用具貸与】千葉県木更津市太田4-20-8", "url2": "https://www.kaigokensaku.mhlw.go.jp/12/index.php?action_kouhyou_detail_004_kani=true&JigyosyoCd=1271102897-00&ServiceCd=170&Type=search" }, "geometry": { "type": "Point", "coordinates": [ 139.943558599999989, 35.3773 ] } },
{ "type": "Feature", "properties": { "内容": "有限会社アビリティサービス木更津【福祉用具貸与】千葉県木更津市真舟５－５－４", "url2": "https://www.kaigokensaku.mhlw.go.jp/12/index.php?action_kouhyou_detail_004_kani=true&JigyosyoCd=1271101782-00&ServiceCd=170&Type=search" }, "geometry": { "type": "Point", "coordinates": [ 139.9307066, 35.3640152 ] } },
{ "type": "Feature", "properties": { "内容": "ライフケアタカサ木更津支店【福祉用具貸与】千葉県木更津市請西南3-1-7", "url2": "https://www.kaigokensaku.mhlw.go.jp/12/index.php?action_kouhyou_detail_004_kani=true&JigyosyoCd=1271102863-00&ServiceCd=170&Type=search" }, "geometry": { "type": "Point", "coordinates": [ 139.942908499999987, 35.3585597 ] } },
{ "type": "Feature", "properties": { "内容": "ふきのとう木更津【福祉用具貸与】千葉県木更津市長須賀1740-1", "url2": "https://www.kaigokensaku.mhlw.go.jp/12/index.php?action_kouhyou_detail_004_kani=true&JigyosyoCd=1271102657-00&ServiceCd=170&Type=search" }, "geometry": { "type": "Point", "coordinates": [ 139.938713140255857, 35.397304138787312 ] } },
{ "type": "Feature", "properties": { "内容": "カシダス木更津【福祉用具貸与】千葉県木更津市大和2-4-1VIOS木更津A号室", "url2": "https://www.kaigokensaku.mhlw.go.jp/12/index.php?action_kouhyou_detail_004_kani=true&JigyosyoCd=1271101741-00&ServiceCd=170&Type=search" }, "geometry": { "type": "Point", "coordinates": [ 139.934912299999951, 35.4133856 ] } },
{ "type": "Feature", "properties": { "内容": "セントケアりまいん木更津【福祉用具貸与】千葉県木更津市畑沢南3-13-19", "url2": "https://www.kaigokensaku.mhlw.go.jp/12/index.php?action_kouhyou_detail_004_kani=true&JigyosyoCd=1271102988-00&ServiceCd=170&Type=search" }, "geometry": { "type": "Point", "coordinates": [ 139.9072306, 35.3414841 ] } },
{ "type": "Feature", "properties": { "内容": "たくみケアサポート【福祉用具貸与】千葉県松戸市西馬橋広手町101-1", "url2": "https://www.kaigokensaku.mhlw.go.jp/12/index.php?action_kouhyou_detail_004_kani=true&JigyosyoCd=1271204677-00&ServiceCd=170&Type=search" }, "geometry": { "type": "Point", "coordinates": [ 139.907156793874861, 35.814060467337875 ] } },
{ "type": "Feature", "properties": { "内容": "株式会社ユジュライフ　福祉事業所【福祉用具貸与】千葉県松戸市小金きよしヶ丘2丁目1-7エスポワール103号室", "url2": "https://www.kaigokensaku.mhlw.go.jp/12/index.php?action_kouhyou_detail_004_kani=true&JigyosyoCd=1271209007-00&ServiceCd=170&Type=search" }, "geometry": { "type": "Point", "coordinates": [ 139.9354084, 35.8283193 ] } },
{ "type": "Feature", "properties": { "内容": "なぎ福祉サービス【福祉用具貸与】千葉県松戸市大金平５丁目３６５番８号", "url2": "https://www.kaigokensaku.mhlw.go.jp/12/index.php?action_kouhyou_detail_004_kani=true&JigyosyoCd=1271208827-00&ServiceCd=170&Type=search" }, "geometry": { "type": "Point", "coordinates": [ 139.918236564785246, 35.840736586753806 ] } },
{ "type": "Feature", "properties": { "内容": "株式会社KDケアサービス【福祉用具貸与】千葉県松戸市根木内624-2", "url2": "https://www.kaigokensaku.mhlw.go.jp/12/index.php?action_kouhyou_detail_004_kani=true&JigyosyoCd=1271209254-00&ServiceCd=170&Type=search" }, "geometry": { "type": "Point", "coordinates": [ 139.948966500000012, 35.8289156 ] } },
{ "type": "Feature", "properties": { "内容": "めいとケア福祉用具レンタル【福祉用具貸与】千葉県松戸市常盤平1-29-3", "url2": "https://www.kaigokensaku.mhlw.go.jp/12/index.php?action_kouhyou_detail_004_kani=true&JigyosyoCd=1271201418-00&ServiceCd=170&Type=search" }, "geometry": { "type": "Point", "coordinates": [ 139.950248250268658, 35.803208722324939 ] } },
{ "type": "Feature", "properties": { "内容": "ケアウェル松戸店【福祉用具貸与】千葉県松戸市竹ヶ花西町３０４－１４", "url2": "https://www.kaigokensaku.mhlw.go.jp/12/index.php?action_kouhyou_detail_004_kani=true&JigyosyoCd=1271207134-00&ServiceCd=170&Type=search" }, "geometry": { "type": "Point", "coordinates": [ 139.902348399999937, 35.7928568 ] } },
{ "type": "Feature", "properties": { "内容": "元気介護サービス【福祉用具貸与】千葉県松戸市中根517", "url2": "https://www.kaigokensaku.mhlw.go.jp/12/index.php?action_kouhyou_detail_004_kani=true&JigyosyoCd=1271200097-00&ServiceCd=170&Type=search" }, "geometry": { "type": "Point", "coordinates": [ 139.917282600000021, 35.8060385 ] } },
{ "type": "Feature", "properties": { "内容": "福祉用具あい【福祉用具貸与】千葉県松戸市常盤平2-26-16", "url2": "https://www.kaigokensaku.mhlw.go.jp/12/index.php?action_kouhyou_detail_004_kani=true&JigyosyoCd=1271206896-00&ServiceCd=170&Type=search" }, "geometry": { "type": "Point", "coordinates": [ 139.947039300000029, 35.799504700000021 ] } },
{ "type": "Feature", "properties": { "内容": "福祉用具レンタル事業所　ひぐらし【福祉用具貸与】千葉県松戸市松戸1679", "url2": "https://www.kaigokensaku.mhlw.go.jp/12/index.php?action_kouhyou_detail_004_kani=true&JigyosyoCd=1271201327-00&ServiceCd=170&Type=search" }, "geometry": { "type": "Point", "coordinates": [ 139.896234852639736, 35.778470987899844 ] } },
{ "type": "Feature", "properties": { "内容": "マムズケア【福祉用具貸与】千葉県松戸市根木内716-14-5", "url2": "https://www.kaigokensaku.mhlw.go.jp/12/index.php?action_kouhyou_detail_004_kani=true&JigyosyoCd=1271209171-00&ServiceCd=170&Type=search" }, "geometry": { "type": "Point", "coordinates": [ 139.946712900000023, 35.8307952 ] } },
{ "type": "Feature", "properties": { "内容": "株式会社かんきょう　千葉西支店【福祉用具貸与】千葉県松戸市中根長津町247番地の1", "url2": "https://www.kaigokensaku.mhlw.go.jp/12/index.php?action_kouhyou_detail_004_kani=true&JigyosyoCd=1271208256-00&ServiceCd=170&Type=search" }, "geometry": { "type": "Point", "coordinates": [ 139.913025900000036, 35.8096633 ] } },
{ "type": "Feature", "properties": { "内容": "エンジョイ・ライフ　ケアサポート【福祉用具貸与】千葉県松戸市新松戸3-150ハイツオオフチ102号", "url2": "https://www.kaigokensaku.mhlw.go.jp/12/index.php?action_kouhyou_detail_004_kani=true&JigyosyoCd=1271205724-00&ServiceCd=170&Type=search" }, "geometry": { "type": "Point", "coordinates": [ 139.917293200000017, 35.823767 ] } },
{ "type": "Feature", "properties": { "内容": "セントケアりまいん東葛【福祉用具貸与】千葉県松戸市馬橋2436-42階", "url2": "https://www.kaigokensaku.mhlw.go.jp/12/index.php?action_kouhyou_detail_004_kani=true&JigyosyoCd=1271209361-00&ServiceCd=170&Type=search" }, "geometry": { "type": "Point", "coordinates": [ 139.923540800000012, 35.8135212 ] } },
{ "type": "Feature", "properties": { "内容": "株式会社　ワカバ【福祉用具貸与】千葉県松戸市松戸１８９７", "url2": "https://www.kaigokensaku.mhlw.go.jp/12/index.php?action_kouhyou_detail_004_kani=true&JigyosyoCd=1271200584-00&ServiceCd=170&Type=search" }, "geometry": { "type": "Point", "coordinates": [ 139.896388099999967, 35.7843745 ] } },
{ "type": "Feature", "properties": { "内容": "フランスベッド株式会社　メディカル松戸営業所【福祉用具貸与】千葉県松戸市千駄堀1489ジュネス八柱1F", "url2": "https://www.kaigokensaku.mhlw.go.jp/12/index.php?action_kouhyou_detail_004_kani=true&JigyosyoCd=1271204164-00&ServiceCd=170&Type=search" }, "geometry": { "type": "Point", "coordinates": [ 139.935108, 35.7915908 ] } },
{ "type": "Feature", "properties": { "内容": "パナソニックエイジフリーショップ松戸中央【福祉用具貸与】千葉県松戸市岩瀬632-2ソフィア岩瀬", "url2": "https://www.kaigokensaku.mhlw.go.jp/12/index.php?action_kouhyou_detail_004_kani=true&JigyosyoCd=1271204701-00&ServiceCd=170&Type=search" }, "geometry": { "type": "Point", "coordinates": [ 139.909426199999984, 35.7806582 ] } },
{ "type": "Feature", "properties": { "内容": "株式会社星医療酸器松戸営業所【福祉用具貸与】千葉県松戸市馬橋3388番地", "url2": "https://www.kaigokensaku.mhlw.go.jp/12/index.php?action_kouhyou_detail_004_kani=true&JigyosyoCd=1271208249-00&ServiceCd=170&Type=search" }, "geometry": { "type": "Point", "coordinates": [ 139.924447892977923, 35.814656941222822 ] } },
{ "type": "Feature", "properties": { "内容": "まごころ福祉サービス【福祉用具貸与】千葉県松戸市大金平5丁目347まごころレジデンス大金平", "url2": "https://www.kaigokensaku.mhlw.go.jp/12/index.php?action_kouhyou_detail_004_kani=true&JigyosyoCd=1271207183-00&ServiceCd=170&Type=search" }, "geometry": { "type": "Point", "coordinates": [ 139.9195843, 35.8376292 ] } },
{ "type": "Feature", "properties": { "内容": "株式会社　ハンドベル・ケア　千葉営業所【福祉用具貸与】千葉県松戸市新松戸1-245", "url2": "https://www.kaigokensaku.mhlw.go.jp/12/index.php?action_kouhyou_detail_004_kani=true&JigyosyoCd=1271200683-00&ServiceCd=170&Type=search" }, "geometry": { "type": "Point", "coordinates": [ 139.920210137959316, 35.83021891502348 ] } },
{ "type": "Feature", "properties": { "内容": "ダスキンヘルスレント松戸ステーション【福祉用具貸与】千葉県松戸市小金上総町18-1", "url2": "https://www.kaigokensaku.mhlw.go.jp/12/index.php?action_kouhyou_detail_004_kani=true&JigyosyoCd=1271202291-00&ServiceCd=170&Type=search" }, "geometry": { "type": "Point", "coordinates": [ 139.9320947, 35.8253507 ] } },
{ "type": "Feature", "properties": { "内容": "有限会社　アルファメディカル【福祉用具貸与】千葉県松戸市西馬橋蔵元町１７４－１", "url2": "https://www.kaigokensaku.mhlw.go.jp/12/index.php?action_kouhyou_detail_004_kani=true&JigyosyoCd=1271200261-00&ServiceCd=170&Type=search" }, "geometry": { "type": "Point", "coordinates": [ 139.91218559999993, 35.8133515 ] } },
{ "type": "Feature", "properties": { "内容": "たんぽぽ介護サポートセンター福祉用具【福祉用具貸与】千葉県松戸市常盤平5-16-1", "url2": "https://www.kaigokensaku.mhlw.go.jp/12/index.php?action_kouhyou_detail_004_kani=true&JigyosyoCd=1271203034-00&ServiceCd=170&Type=search" }, "geometry": { "type": "Point", "coordinates": [ 139.961549435581873, 35.796920951054112 ] } },
{ "type": "Feature", "properties": { "内容": "プラス・ラブ【福祉用具貸与】千葉県松戸市小金きよしヶ丘3-12-2", "url2": "https://www.kaigokensaku.mhlw.go.jp/12/index.php?action_kouhyou_detail_004_kani=true&JigyosyoCd=1271206748-00&ServiceCd=170&Type=search" }, "geometry": { "type": "Point", "coordinates": [ 139.934699899999941, 35.8280728 ] } },
{ "type": "Feature", "properties": { "内容": "株式会社　仁済　福祉用具貸与事業所【福祉用具貸与】千葉県松戸市北松戸1-1-14ユーカリハイツ102", "url2": "https://www.kaigokensaku.mhlw.go.jp/12/index.php?action_kouhyou_detail_004_kani=true&JigyosyoCd=1271208520-00&ServiceCd=170&Type=search" }, "geometry": { "type": "Point", "coordinates": [ 139.912403300000051, 35.8025833 ] } },
{ "type": "Feature", "properties": { "内容": "メデカル・シンパシィ株式会社【福祉用具貸与】千葉県松戸市常盤平3-1-2", "url2": "https://www.kaigokensaku.mhlw.go.jp/12/index.php?action_kouhyou_detail_004_kani=true&JigyosyoCd=1271201590-00&ServiceCd=170&Type=search" }, "geometry": { "type": "Point", "coordinates": [ 139.9514388, 35.8035767 ] } },
{ "type": "Feature", "properties": { "内容": "ソネット千葉【福祉用具貸与】千葉県松戸市岩瀬167-4", "url2": "https://www.kaigokensaku.mhlw.go.jp/12/index.php?action_kouhyou_detail_004_kani=true&JigyosyoCd=1271208314-00&ServiceCd=170&Type=search" }, "geometry": { "type": "Point", "coordinates": [ 139.90941220000002, 35.782583 ] } },
{ "type": "Feature", "properties": { "内容": "介護ショップ　「ビーバー」【福祉用具貸与】千葉県野田市清水68ｺﾏﾋﾞﾙ　3F", "url2": "https://www.kaigokensaku.mhlw.go.jp/12/index.php?action_kouhyou_detail_004_kani=true&JigyosyoCd=1271300244-00&ServiceCd=170&Type=search" }, "geometry": { "type": "Point", "coordinates": [ 139.861839532807011, 35.948540069716927 ] } },
{ "type": "Feature", "properties": { "内容": "のだ介護サービス【福祉用具貸与】千葉県野田市関宿元町103番地", "url2": "https://www.kaigokensaku.mhlw.go.jp/12/index.php?action_kouhyou_detail_004_kani=true&JigyosyoCd=1271302067-00&ServiceCd=170&Type=search" }, "geometry": { "type": "Point", "coordinates": [ 139.783999699999981, 36.0790449 ] } },
{ "type": "Feature", "properties": { "内容": "サポートアイテムF＆E【福祉用具貸与】千葉県野田市船形902-12", "url2": "https://www.kaigokensaku.mhlw.go.jp/12/index.php?action_kouhyou_detail_004_kani=true&JigyosyoCd=1271302661-00&ServiceCd=170&Type=search" }, "geometry": { "type": "Point", "coordinates": [ 139.8679704, 35.9849199 ] } },
{ "type": "Feature", "properties": { "内容": "介護ショップ関宿【福祉用具貸与】千葉県野田市関宿江戸町557番地", "url2": "https://www.kaigokensaku.mhlw.go.jp/12/index.php?action_kouhyou_detail_004_kani=true&JigyosyoCd=1271301655-00&ServiceCd=170&Type=search" }, "geometry": { "type": "Point", "coordinates": [ 139.783045046032726, 36.084116200418393 ] } },
{ "type": "Feature", "properties": { "内容": "陽だまり【福祉用具貸与】千葉県野田市尾崎１１０９－３", "url2": "https://www.kaigokensaku.mhlw.go.jp/12/index.php?action_kouhyou_detail_004_kani=true&JigyosyoCd=1271300202-00&ServiceCd=170&Type=search" }, "geometry": { "type": "Point", "coordinates": [ 139.83671019999997, 35.986985 ] } },
{ "type": "Feature", "properties": { "内容": "福祉用具店TOMO福【福祉用具貸与】千葉県野田市上花輪1434-27", "url2": "https://www.kaigokensaku.mhlw.go.jp/12/index.php?action_kouhyou_detail_004_kani=true&JigyosyoCd=1271302422-00&ServiceCd=170&Type=search" }, "geometry": { "type": "Point", "coordinates": [ 139.870756300000011, 35.9389064 ] } },
{ "type": "Feature", "properties": { "内容": "ファーストリンク・一期一会【福祉用具貸与】千葉県野田市中根225-15", "url2": "https://www.kaigokensaku.mhlw.go.jp/12/index.php?action_kouhyou_detail_004_kani=true&JigyosyoCd=1271302695-00&ServiceCd=170&Type=search" }, "geometry": { "type": "Point", "coordinates": [ 139.8793413, 35.944280700000014 ] } },
{ "type": "Feature", "properties": { "内容": "トータルサポート・ノダ指定福祉用具貸与事業所【福祉用具貸与】千葉県野田市柳沢24番地", "url2": "https://www.kaigokensaku.mhlw.go.jp/12/index.php?action_kouhyou_detail_004_kani=true&JigyosyoCd=1271300079-00&ServiceCd=170&Type=search" }, "geometry": { "type": "Point", "coordinates": [ 139.867683599999964, 35.9534812 ] } },
{ "type": "Feature", "properties": { "内容": "ダスキンヘルスレント野田ステーション【福祉用具貸与】千葉県野田市柳沢24", "url2": "https://www.kaigokensaku.mhlw.go.jp/12/index.php?action_kouhyou_detail_004_kani=true&JigyosyoCd=1271300863-00&ServiceCd=170&Type=search" }, "geometry": { "type": "Point", "coordinates": [ 139.867683599999964, 35.9534812 ] } },
{ "type": "Feature", "properties": { "内容": "セレクト【福祉用具貸与】千葉県茂原市大芝440-8", "url2": "https://www.kaigokensaku.mhlw.go.jp/12/index.php?action_kouhyou_detail_004_kani=true&JigyosyoCd=1271501411-00&ServiceCd=170&Type=search" }, "geometry": { "type": "Point", "coordinates": [ 140.3170146, 35.4041789 ] } },
{ "type": "Feature", "properties": { "内容": "リンクス福祉用具【福祉用具貸与】千葉県茂原市東茂原15-13", "url2": "https://www.kaigokensaku.mhlw.go.jp/12/index.php?action_kouhyou_detail_004_kani=true&JigyosyoCd=1271502500-00&ServiceCd=170&Type=search" }, "geometry": { "type": "Point", "coordinates": [ 140.323426317254473, 35.413122053001565 ] } },
{ "type": "Feature", "properties": { "内容": "有限会社　石田水道工事店　介護福祉部【福祉用具貸与】千葉県茂原市小林2941－18", "url2": "https://www.kaigokensaku.mhlw.go.jp/12/index.php?action_kouhyou_detail_004_kani=true&JigyosyoCd=1271500256-00&ServiceCd=170&Type=search" }, "geometry": { "type": "Point", "coordinates": [ 140.303562699999929, 35.4481858 ] } },
{ "type": "Feature", "properties": { "内容": "ライフケアタカサ茂原支店【福祉用具貸与】千葉県茂原市国府関1426-3", "url2": "https://www.kaigokensaku.mhlw.go.jp/12/index.php?action_kouhyou_detail_004_kani=true&JigyosyoCd=1271500835-00&ServiceCd=170&Type=search" }, "geometry": { "type": "Point", "coordinates": [ 140.258127235581981, 35.449730779846675 ] } },
{ "type": "Feature", "properties": { "内容": "株式会社ニチモ【福祉用具貸与】千葉県茂原市八千代2丁目5番地5", "url2": "https://www.kaigokensaku.mhlw.go.jp/12/index.php?action_kouhyou_detail_004_kani=true&JigyosyoCd=1271501338-00&ServiceCd=170&Type=search" }, "geometry": { "type": "Point", "coordinates": [ 140.2968158, 35.4228529 ] } },
{ "type": "Feature", "properties": { "内容": "福祉用具エムアイ【福祉用具貸与】千葉県茂原市鷲巣715-2メゾンクレールB103", "url2": "https://www.kaigokensaku.mhlw.go.jp/12/index.php?action_kouhyou_detail_004_kani=true&JigyosyoCd=1271502609-00&ServiceCd=170&Type=search" }, "geometry": { "type": "Point", "coordinates": [ 140.279877699999986, 35.4229368 ] } },
{ "type": "Feature", "properties": { "内容": "ヤックスレンタルサービス茂原【福祉用具貸与】千葉県茂原市谷本1810-1", "url2": "https://www.kaigokensaku.mhlw.go.jp/12/index.php?action_kouhyou_detail_004_kani=true&JigyosyoCd=1271502674-00&ServiceCd=170&Type=search" }, "geometry": { "type": "Point", "coordinates": [ 140.325061799999986, 35.4455174 ] } },
{ "type": "Feature", "properties": { "内容": "あんしん車いす【福祉用具貸与】千葉県茂原市茂原185", "url2": "https://www.kaigokensaku.mhlw.go.jp/12/index.php?action_kouhyou_detail_004_kani=true&JigyosyoCd=1271502211-00&ServiceCd=170&Type=search" }, "geometry": { "type": "Point", "coordinates": [ 140.289018, 35.4260915 ] } },
{ "type": "Feature", "properties": { "内容": "株式会社トーカイ　茂原営業所【福祉用具貸与】千葉県茂原市高師３４７番地１", "url2": "https://www.kaigokensaku.mhlw.go.jp/12/index.php?action_kouhyou_detail_004_kani=true&JigyosyoCd=1271500900-00&ServiceCd=170&Type=search" }, "geometry": { "type": "Point", "coordinates": [ 140.300735700000018, 35.4320243 ] } },
{ "type": "Feature", "properties": { "内容": "フランスベッド株式会社　メディカル成田営業所【福祉用具貸与】千葉県成田市囲護台2-2-9", "url2": "https://www.kaigokensaku.mhlw.go.jp/12/index.php?action_kouhyou_detail_004_kani=true&JigyosyoCd=1271600809-00&ServiceCd=170&Type=search" }, "geometry": { "type": "Point", "coordinates": [ 140.309217799999942, 35.778182300000019 ] } },
{ "type": "Feature", "properties": { "内容": "かなでの杜成田【福祉用具貸与】千葉県成田市東町156-6稲垣ビル101", "url2": "https://www.kaigokensaku.mhlw.go.jp/12/index.php?action_kouhyou_detail_004_kani=true&JigyosyoCd=1271601658-00&ServiceCd=170&Type=search" }, "geometry": { "type": "Point", "coordinates": [ 140.3228646, 35.779189 ] } },
{ "type": "Feature", "properties": { "内容": "ライフケアタカサ成田支店【福祉用具貸与】千葉県成田市公津の杜1丁目25-15", "url2": "https://www.kaigokensaku.mhlw.go.jp/12/index.php?action_kouhyou_detail_004_kani=true&JigyosyoCd=1271600932-00&ServiceCd=170&Type=search" }, "geometry": { "type": "Point", "coordinates": [ 140.297719799999982, 35.7631815 ] } },
{ "type": "Feature", "properties": { "内容": "パナソニックエイジフリーショップ佐倉【福祉用具貸与】千葉県佐倉市王子台2-26-12東丘ビル102", "url2": "https://www.kaigokensaku.mhlw.go.jp/12/index.php?action_kouhyou_detail_004_kani=true&JigyosyoCd=1271702589-00&ServiceCd=170&Type=search" }, "geometry": { "type": "Point", "coordinates": [ 140.183684399999947, 35.7281926 ] } },
{ "type": "Feature", "properties": { "内容": "ヘルスケアさくら【福祉用具貸与】千葉県佐倉市栄町10-17HB佐倉1F", "url2": "https://www.kaigokensaku.mhlw.go.jp/12/index.php?action_kouhyou_detail_004_kani=true&JigyosyoCd=1271703041-00&ServiceCd=170&Type=search" }, "geometry": { "type": "Point", "coordinates": [ 140.231525400000038, 35.7238864 ] } },
{ "type": "Feature", "properties": { "内容": "e-style【福祉用具貸与】千葉県佐倉市本町23‐7", "url2": "https://www.kaigokensaku.mhlw.go.jp/12/index.php?action_kouhyou_detail_004_kani=true&JigyosyoCd=1271703090-00&ServiceCd=170&Type=search" }, "geometry": { "type": "Point", "coordinates": [ 140.2432193, 35.7192244 ] } },
{ "type": "Feature", "properties": { "内容": "ベル・テンポ株式会社【福祉用具貸与】千葉県佐倉市王子台4-17-3", "url2": "https://www.kaigokensaku.mhlw.go.jp/12/index.php?action_kouhyou_detail_004_kani=true&JigyosyoCd=1271703173-00&ServiceCd=170&Type=search" }, "geometry": { "type": "Point", "coordinates": [ 140.1822626, 35.7246621 ] } },
{ "type": "Feature", "properties": { "内容": "ノーヴェル【福祉用具貸与】千葉県佐倉市鏑木町1-7-48", "url2": "https://www.kaigokensaku.mhlw.go.jp/12/index.php?action_kouhyou_detail_004_kani=true&JigyosyoCd=1271703355-00&ServiceCd=170&Type=search" }, "geometry": { "type": "Point", "coordinates": [ 140.224942, 35.7136787 ] } },
{ "type": "Feature", "properties": { "内容": "オーケーサービス佐倉営業所【福祉用具貸与】千葉県佐倉市王子台1-20-15", "url2": "https://www.kaigokensaku.mhlw.go.jp/12/index.php?action_kouhyou_detail_004_kani=true&JigyosyoCd=1271701474-00&ServiceCd=170&Type=search" }, "geometry": { "type": "Point", "coordinates": [ 140.182653800000026, 35.73147 ] } },
{ "type": "Feature", "properties": { "内容": "スペースケア佐倉営業所【福祉用具貸与】千葉県佐倉市稲荷台1-2-7", "url2": "https://www.kaigokensaku.mhlw.go.jp/12/index.php?action_kouhyou_detail_004_kani=true&JigyosyoCd=1271701383-00&ServiceCd=170&Type=search" }, "geometry": { "type": "Point", "coordinates": [ 140.183195299999966, 35.732892 ] } },
{ "type": "Feature", "properties": { "内容": "株式会社寿サービス【福祉用具貸与】千葉県佐倉市上志津1781-21スペース１ビル２０１号室", "url2": "https://www.kaigokensaku.mhlw.go.jp/12/index.php?action_kouhyou_detail_004_kani=true&JigyosyoCd=1271701284-00&ServiceCd=170&Type=search" }, "geometry": { "type": "Point", "coordinates": [ 140.149001128836062, 35.719565210573101 ] } },
{ "type": "Feature", "properties": { "内容": "総合福祉ショッププライマリー【福祉用具貸与】千葉県佐倉市中志津3-34-11-103", "url2": "https://www.kaigokensaku.mhlw.go.jp/12/index.php?action_kouhyou_detail_004_kani=true&JigyosyoCd=1272602937-00&ServiceCd=170&Type=search" }, "geometry": { "type": "Point", "coordinates": [ 140.1585269, 35.7135053 ] } },
{ "type": "Feature", "properties": { "内容": "きこえのて【福祉用具貸与】千葉県佐倉市王子台3-15-15", "url2": "https://www.kaigokensaku.mhlw.go.jp/12/index.php?action_kouhyou_detail_004_kani=true&JigyosyoCd=1271702902-00&ServiceCd=170&Type=search" }, "geometry": { "type": "Point", "coordinates": [ 140.180670099999986, 35.7260795 ] } },
{ "type": "Feature", "properties": { "内容": "有限会社バウハウス【福祉用具貸与】千葉県佐倉市ユーカリが丘2-3-1", "url2": "https://www.kaigokensaku.mhlw.go.jp/12/index.php?action_kouhyou_detail_004_kani=true&JigyosyoCd=1271702910-00&ServiceCd=170&Type=search" }, "geometry": { "type": "Point", "coordinates": [ 140.154446299999989, 35.7312407 ] } },
{ "type": "Feature", "properties": { "内容": "パラメディカル株式会社【福祉用具貸与】千葉県東金市田間3-54-9", "url2": "https://www.kaigokensaku.mhlw.go.jp/12/index.php?action_kouhyou_detail_004_kani=true&JigyosyoCd=1271800045-00&ServiceCd=170&Type=search" }, "geometry": { "type": "Point", "coordinates": [ 140.375633614016692, 35.570715132560153 ] } },
{ "type": "Feature", "properties": { "内容": "有限会社サンライフ【福祉用具貸与】千葉県東金市西中271-1", "url2": "https://www.kaigokensaku.mhlw.go.jp/12/index.php?action_kouhyou_detail_004_kani=true&JigyosyoCd=1271800508-00&ServiceCd=170&Type=search" }, "geometry": { "type": "Point", "coordinates": [ 140.374327572981656, 35.527153270842085 ] } },
{ "type": "Feature", "properties": { "内容": "有限会社アドラップ【福祉用具貸与】千葉県旭市イ4644小松屋シーズ２階", "url2": "https://www.kaigokensaku.mhlw.go.jp/12/index.php?action_kouhyou_detail_004_kani=true&JigyosyoCd=1272000157-00&ServiceCd=170&Type=search" }, "geometry": { "type": "Point", "coordinates": [ 140.660439699999984, 35.725025 ] } },
{ "type": "Feature", "properties": { "内容": "チヤフルキョウエイ旭事業所【福祉用具貸与】千葉県旭市イ171-1", "url2": "https://www.kaigokensaku.mhlw.go.jp/12/index.php?action_kouhyou_detail_004_kani=true&JigyosyoCd=1272000835-00&ServiceCd=170&Type=search" }, "geometry": { "type": "Point", "coordinates": [ 140.6761636, 35.7214842 ] } },
{ "type": "Feature", "properties": { "内容": "ヤックスレンタルサービス旭【福祉用具貸与】千葉県旭市イ２０７４－１", "url2": "https://www.kaigokensaku.mhlw.go.jp/12/index.php?action_kouhyou_detail_004_kani=true&JigyosyoCd=1272001007-00&ServiceCd=170&Type=search" }, "geometry": { "type": "Point", "coordinates": [ 140.6715934, 35.7229521 ] } },
{ "type": "Feature", "properties": { "内容": "福祉用具事業所なごやか【福祉用具貸与】千葉県旭市三川字狢野15001番地2", "url2": "https://www.kaigokensaku.mhlw.go.jp/12/index.php?action_kouhyou_detail_004_kani=true&JigyosyoCd=1272001072-00&ServiceCd=170&Type=search" }, "geometry": { "type": "Point", "coordinates": [ 140.724144, 35.7300362 ] } },
{ "type": "Feature", "properties": { "内容": "サイアム・ケア習志野【福祉用具貸与】千葉県習志野市実籾1-6-2ロワール実籾201", "url2": "https://www.kaigokensaku.mhlw.go.jp/12/index.php?action_kouhyou_detail_004_kani=true&JigyosyoCd=1272102276-00&ServiceCd=170&Type=search" }, "geometry": { "type": "Point", "coordinates": [ 140.0668081, 35.6871003 ] } },
{ "type": "Feature", "properties": { "内容": "福祉用具ハチケア【福祉用具貸与】千葉県習志野市津田沼3-4-23", "url2": "https://www.kaigokensaku.mhlw.go.jp/12/index.php?action_kouhyou_detail_004_kani=true&JigyosyoCd=1272102573-00&ServiceCd=170&Type=search" }, "geometry": { "type": "Point", "coordinates": [ 140.0251131, 35.6849165 ] } },
{ "type": "Feature", "properties": { "内容": "レンティケアサービス習志野【福祉用具貸与】千葉県習志野市芝園２－６－７", "url2": "https://www.kaigokensaku.mhlw.go.jp/12/index.php?action_kouhyou_detail_004_kani=true&JigyosyoCd=1272100866-00&ServiceCd=170&Type=search" }, "geometry": { "type": "Point", "coordinates": [ 140.021151599999939, 35.6586295 ] } },
{ "type": "Feature", "properties": { "内容": "あゆみコーポレーション【福祉用具貸与】千葉県習志野市香澄5-12-2", "url2": "https://www.kaigokensaku.mhlw.go.jp/12/index.php?action_kouhyou_detail_004_kani=true&JigyosyoCd=1272100924-00&ServiceCd=170&Type=search" }, "geometry": { "type": "Point", "coordinates": [ 140.025045699999964, 35.6637873 ] } },
{ "type": "Feature", "properties": { "内容": "カイト福祉用具【福祉用具貸与】千葉県習志野市津田沼1-2-19つるやビル5階", "url2": "https://www.kaigokensaku.mhlw.go.jp/12/index.php?action_kouhyou_detail_004_kani=true&JigyosyoCd=1272102193-00&ServiceCd=170&Type=search" }, "geometry": { "type": "Point", "coordinates": [ 140.0216522, 35.6910015 ] } },
{ "type": "Feature", "properties": { "内容": "グッドスペース善庵【福祉用具貸与】千葉県習志野市鷺沼台3-13-26", "url2": "https://www.kaigokensaku.mhlw.go.jp/12/index.php?action_kouhyou_detail_004_kani=true&JigyosyoCd=1272102581-00&ServiceCd=170&Type=search" }, "geometry": { "type": "Point", "coordinates": [ 140.0403164, 35.680480400000029 ] } },
{ "type": "Feature", "properties": { "内容": "みどりの家【福祉用具貸与】千葉県柏市南増尾7-1-36ウィステリア101", "url2": "https://www.kaigokensaku.mhlw.go.jp/12/index.php?action_kouhyou_detail_004_kani=true&JigyosyoCd=1272203637-00&ServiceCd=170&Type=search" }, "geometry": { "type": "Point", "coordinates": [ 139.960543599999937, 35.8120335 ] } },
{ "type": "Feature", "properties": { "内容": "ハウスケアネット【福祉用具貸与】千葉県柏市泉町２番６号", "url2": "https://www.kaigokensaku.mhlw.go.jp/12/index.php?action_kouhyou_detail_004_kani=true&JigyosyoCd=1272205897-00&ServiceCd=170&Type=search" }, "geometry": { "type": "Point", "coordinates": [ 139.969167624687174, 35.858738953326771 ] } },
{ "type": "Feature", "properties": { "内容": "リノテックハウス【福祉用具貸与】千葉県柏市増尾1-5-17", "url2": "https://www.kaigokensaku.mhlw.go.jp/12/index.php?action_kouhyou_detail_004_kani=true&JigyosyoCd=1272207711-00&ServiceCd=170&Type=search" }, "geometry": { "type": "Point", "coordinates": [ 139.976611600000012, 35.8307814 ] } },
{ "type": "Feature", "properties": { "内容": "いろはケンキョーケアサービス【福祉用具貸与】千葉県柏市大島田444番地1", "url2": "https://www.kaigokensaku.mhlw.go.jp/12/index.php?action_kouhyou_detail_004_kani=true&JigyosyoCd=1272206754-00&ServiceCd=170&Type=search" }, "geometry": { "type": "Point", "coordinates": [ 140.007517399999983, 35.8391465 ] } },
{ "type": "Feature", "properties": { "内容": "福祉用具ステーションハーベスト【福祉用具貸与】千葉県柏市高柳1460-1フラットワン　A号室", "url2": "https://www.kaigokensaku.mhlw.go.jp/12/index.php?action_kouhyou_detail_004_kani=true&JigyosyoCd=1272207026-00&ServiceCd=170&Type=search" }, "geometry": { "type": "Point", "coordinates": [ 139.9533324, 35.844456200000018 ] } },
{ "type": "Feature", "properties": { "内容": "福祉用具ほほえみ【福祉用具貸与】千葉県柏市高柳新田２番３６", "url2": "https://www.kaigokensaku.mhlw.go.jp/12/index.php?action_kouhyou_detail_004_kani=true&JigyosyoCd=1272204908-00&ServiceCd=170&Type=search" }, "geometry": { "type": "Point", "coordinates": [ 139.992361564418047, 35.809225148861408 ] } },
{ "type": "Feature", "properties": { "内容": "株式会社ヤマシタ　柏営業所【福祉用具貸与】千葉県柏市宿連寺357-6", "url2": "https://www.kaigokensaku.mhlw.go.jp/12/index.php?action_kouhyou_detail_004_kani=true&JigyosyoCd=1272204122-00&ServiceCd=170&Type=search" }, "geometry": { "type": "Point", "coordinates": [ 139.981065899999976, 35.890723 ] } },
{ "type": "Feature", "properties": { "内容": "株式会社フロンティア　柏営業所【福祉用具貸与】千葉県柏市高柳　1-5-5オーガスタ101", "url2": "https://www.kaigokensaku.mhlw.go.jp/12/index.php?action_kouhyou_detail_004_kani=true&JigyosyoCd=1272206663-00&ServiceCd=170&Type=search" }, "geometry": { "type": "Point", "coordinates": [ 139.99771480000004, 35.8085593 ] } },
{ "type": "Feature", "properties": { "内容": "株式会社日本ドライ　介護用品のスマイル柏営業所【福祉用具貸与】千葉県柏市しいの木台5-8-7", "url2": "https://www.kaigokensaku.mhlw.go.jp/12/index.php?action_kouhyou_detail_004_kani=true&JigyosyoCd=1272203421-00&ServiceCd=170&Type=search" }, "geometry": { "type": "Point", "coordinates": [ 139.98808710000003, 35.809802 ] } },
{ "type": "Feature", "properties": { "内容": "サポート柏【福祉用具貸与】千葉県柏市根戸421-3ワコーレ北柏102", "url2": "https://www.kaigokensaku.mhlw.go.jp/12/index.php?action_kouhyou_detail_004_kani=true&JigyosyoCd=1272206044-00&ServiceCd=170&Type=search" }, "geometry": { "type": "Point", "coordinates": [ 139.989946, 35.8829022 ] } },
{ "type": "Feature", "properties": { "内容": "ケアショップマスターズサポート【福祉用具貸与】千葉県柏市高田393番地1", "url2": "https://www.kaigokensaku.mhlw.go.jp/12/index.php?action_kouhyou_detail_004_kani=true&JigyosyoCd=1272206960-00&ServiceCd=170&Type=search" }, "geometry": { "type": "Point", "coordinates": [ 139.9510891, 35.8751162 ] } },
{ "type": "Feature", "properties": { "内容": "スペースケア柏営業所【福祉用具貸与】千葉県柏市十余二248-36", "url2": "https://www.kaigokensaku.mhlw.go.jp/12/index.php?action_kouhyou_detail_004_kani=true&JigyosyoCd=1272201037-00&ServiceCd=170&Type=search" }, "geometry": { "type": "Point", "coordinates": [ 139.9654703, 35.8808018 ] } },
{ "type": "Feature", "properties": { "内容": "介護用品　わかば【福祉用具貸与】千葉県柏市大井768－1シティーパル104", "url2": "https://www.kaigokensaku.mhlw.go.jp/12/index.php?action_kouhyou_detail_004_kani=true&JigyosyoCd=1272206416-00&ServiceCd=170&Type=search" }, "geometry": { "type": "Point", "coordinates": [ 140.003542299999935, 35.8465911 ] } },
{ "type": "Feature", "properties": { "内容": "パナソニックエイジフリーショップ柏中央【福祉用具貸与】千葉県柏市根戸1788-1", "url2": "https://www.kaigokensaku.mhlw.go.jp/12/index.php?action_kouhyou_detail_004_kani=true&JigyosyoCd=1272204114-00&ServiceCd=170&Type=search" }, "geometry": { "type": "Point", "coordinates": [ 139.992089273025186, 35.877283534568726 ] } },
{ "type": "Feature", "properties": { "内容": "エンゼル・サービス【福祉用具貸与】千葉県柏市中央町1-1柏セントラルプラザ1階", "url2": "https://www.kaigokensaku.mhlw.go.jp/12/index.php?action_kouhyou_detail_004_kani=true&JigyosyoCd=1272200351-00&ServiceCd=170&Type=search" }, "geometry": { "type": "Point", "coordinates": [ 139.97234370000001, 35.8594812 ] } },
{ "type": "Feature", "properties": { "内容": "福祉用具和気あいあい【福祉用具貸与】千葉県柏市松葉町３－２４－７", "url2": "https://www.kaigokensaku.mhlw.go.jp/12/index.php?action_kouhyou_detail_004_kani=true&JigyosyoCd=1272206770-00&ServiceCd=170&Type=search" }, "geometry": { "type": "Point", "coordinates": [ 139.966162899999972, 35.8864644 ] } },
{ "type": "Feature", "properties": { "内容": "東京サンメディカル柏営業所【福祉用具貸与】千葉県柏市酒井根21-2　2階", "url2": "https://www.kaigokensaku.mhlw.go.jp/12/index.php?action_kouhyou_detail_004_kani=true&JigyosyoCd=1272207083-00&ServiceCd=170&Type=search" }, "geometry": { "type": "Point", "coordinates": [ 139.9613086, 35.8193372 ] } },
{ "type": "Feature", "properties": { "内容": "フランスベッド株式会社　メディカル柏営業所【福祉用具貸与】千葉県柏市柏インター東2-3", "url2": "https://www.kaigokensaku.mhlw.go.jp/12/index.php?action_kouhyou_detail_004_kani=true&JigyosyoCd=1272207042-00&ServiceCd=170&Type=search" }, "geometry": { "type": "Point", "coordinates": [ 139.9389692, 35.9105392 ] } },
{ "type": "Feature", "properties": { "内容": "ライフケアタカサ柏営業所【福祉用具貸与】千葉県柏市花野井767-1103", "url2": "https://www.kaigokensaku.mhlw.go.jp/12/index.php?action_kouhyou_detail_004_kani=true&JigyosyoCd=1272206929-00&ServiceCd=170&Type=search" }, "geometry": { "type": "Point", "coordinates": [ 139.9673148, 35.8968275 ] } },
{ "type": "Feature", "properties": { "内容": "ケアパートナー柏・ふくしようぐセンター【福祉用具貸与】千葉県柏市豊町２-２-２", "url2": "https://www.kaigokensaku.mhlw.go.jp/12/index.php?action_kouhyou_detail_004_kani=true&JigyosyoCd=1272205616-00&ServiceCd=170&Type=search" }, "geometry": { "type": "Point", "coordinates": [ 139.959092210248826, 35.849295035991176 ] } },
{ "type": "Feature", "properties": { "内容": "有限会社アルファメディカル柏営業所【福祉用具貸与】千葉県柏市北柏３－１４－１９", "url2": "https://www.kaigokensaku.mhlw.go.jp/12/index.php?action_kouhyou_detail_004_kani=true&JigyosyoCd=1272205137-00&ServiceCd=170&Type=search" }, "geometry": { "type": "Point", "coordinates": [ 139.987112199999984, 35.871778881709083 ] } },
{ "type": "Feature", "properties": { "内容": "株式会社セリオ千葉北営業所【福祉用具貸与】千葉県柏市松葉町6-6-6", "url2": "https://www.kaigokensaku.mhlw.go.jp/12/index.php?action_kouhyou_detail_004_kani=true&JigyosyoCd=1272207646-00&ServiceCd=170&Type=search" }, "geometry": { "type": "Point", "coordinates": [ 139.9723524, 35.8905324 ] } },
{ "type": "Feature", "properties": { "内容": "マザアスケア福祉用具事業所【福祉用具貸与】千葉県柏市南柏中央3-10", "url2": "https://www.kaigokensaku.mhlw.go.jp/12/index.php?action_kouhyou_detail_004_kani=true&JigyosyoCd=1272203439-00&ServiceCd=170&Type=search" }, "geometry": { "type": "Point", "coordinates": [ 139.95376710000005, 35.8434883 ] } },
{ "type": "Feature", "properties": { "内容": "サンパートナー【福祉用具貸与】千葉県柏市松葉町４－１０北柏ショッピングセンターⅠ期Ｂ棟５号室", "url2": "https://www.kaigokensaku.mhlw.go.jp/12/index.php?action_kouhyou_detail_004_kani=true&JigyosyoCd=1272201391-00&ServiceCd=170&Type=search" }, "geometry": { "type": "Point", "coordinates": [ 139.970463278561226, 35.889390143006224 ] } },
{ "type": "Feature", "properties": { "内容": "介護用品販売・レンタル　ひなた【福祉用具貸与】千葉県柏市北柏3丁目2番地1", "url2": "https://www.kaigokensaku.mhlw.go.jp/12/index.php?action_kouhyou_detail_004_kani=true&JigyosyoCd=1272203967-00&ServiceCd=170&Type=search" }, "geometry": { "type": "Point", "coordinates": [ 139.9881964, 35.8749256 ] } },
{ "type": "Feature", "properties": { "内容": "介護エキスプレスシルバーワン【福祉用具貸与】千葉県市原市五井5180", "url2": "https://www.kaigokensaku.mhlw.go.jp/12/index.php?action_kouhyou_detail_004_kani=true&JigyosyoCd=1272401256-00&ServiceCd=170&Type=search" }, "geometry": { "type": "Point", "coordinates": [ 140.087447948518388, 35.519206369478184 ] } },
{ "type": "Feature", "properties": { "内容": "福祉用具サンフラワー【福祉用具貸与】千葉県市原市東国分寺台3-11-3", "url2": "https://www.kaigokensaku.mhlw.go.jp/12/index.php?action_kouhyou_detail_004_kani=true&JigyosyoCd=1272403716-00&ServiceCd=170&Type=search" }, "geometry": { "type": "Point", "coordinates": [ 140.12555569999995, 35.4905943 ] } },
{ "type": "Feature", "properties": { "内容": "フランスベッド株式会社　メディカル市原営業所【福祉用具貸与】千葉県市原市五井中央東2-13-10ベイショア五井101号室", "url2": "https://www.kaigokensaku.mhlw.go.jp/12/index.php?action_kouhyou_detail_004_kani=true&JigyosyoCd=1272403971-00&ServiceCd=170&Type=search" }, "geometry": { "type": "Point", "coordinates": [ 140.0914853123179, 35.512343071075712 ] } },
{ "type": "Feature", "properties": { "内容": "有限会社　トータルサポートサービス【福祉用具貸与】千葉県市原市山田橋３－１－２６202号", "url2": "https://www.kaigokensaku.mhlw.go.jp/12/index.php?action_kouhyou_detail_004_kani=true&JigyosyoCd=1272401181-00&ServiceCd=170&Type=search" }, "geometry": { "type": "Point", "coordinates": [ 140.124529221878447, 35.503041342674891 ] } },
{ "type": "Feature", "properties": { "内容": "スペースケア市原営業所【福祉用具貸与】千葉県市原市君塚5-23-12", "url2": "https://www.kaigokensaku.mhlw.go.jp/12/index.php?action_kouhyou_detail_004_kani=true&JigyosyoCd=1272400704-00&ServiceCd=170&Type=search" }, "geometry": { "type": "Point", "coordinates": [ 140.100673899999947, 35.5216816 ] } },
{ "type": "Feature", "properties": { "内容": "ダスキンヘルスレント　市原ステーション【福祉用具貸与】千葉県市原市青柳２丁目２番地６", "url2": "https://www.kaigokensaku.mhlw.go.jp/12/index.php?action_kouhyou_detail_004_kani=true&JigyosyoCd=1272404862-00&ServiceCd=170&Type=search" }, "geometry": { "type": "Point", "coordinates": [ 140.0547838, 35.5000954 ] } },
{ "type": "Feature", "properties": { "内容": "有限会社ジェイド【福祉用具貸与】千葉県市原市牛久７５－２", "url2": "https://www.kaigokensaku.mhlw.go.jp/12/index.php?action_kouhyou_detail_004_kani=true&JigyosyoCd=1272400514-00&ServiceCd=170&Type=search" }, "geometry": { "type": "Point", "coordinates": [ 140.146776600000067, 35.3980935 ] } },
{ "type": "Feature", "properties": { "内容": "ライフケアタカサ本店【福祉用具貸与】千葉県市原市玉前西2-1-3", "url2": "https://www.kaigokensaku.mhlw.go.jp/12/index.php?action_kouhyou_detail_004_kani=true&JigyosyoCd=1272400092-00&ServiceCd=170&Type=search" }, "geometry": { "type": "Point", "coordinates": [ 140.071624499999984, 35.5209473 ] } },
{ "type": "Feature", "properties": { "内容": "やさしい手京葉福祉用具事業部【福祉用具貸与】千葉県市原市能満2-10", "url2": "https://www.kaigokensaku.mhlw.go.jp/12/index.php?action_kouhyou_detail_004_kani=true&JigyosyoCd=1272400811-00&ServiceCd=170&Type=search" }, "geometry": { "type": "Point", "coordinates": [ 140.129618599999958, 35.522035 ] } },
{ "type": "Feature", "properties": { "内容": "株式会社プラス　千葉営業所【福祉用具貸与】千葉県市原市馬立818", "url2": "https://www.kaigokensaku.mhlw.go.jp/12/index.php?action_kouhyou_detail_004_kani=true&JigyosyoCd=1272404631-00&ServiceCd=170&Type=search" }, "geometry": { "type": "Point", "coordinates": [ 140.11565435277862, 35.423869059012567 ] } },
{ "type": "Feature", "properties": { "内容": "株式会社セリオ千葉南営業所【福祉用具貸与】千葉県市原市五所1669", "url2": "https://www.kaigokensaku.mhlw.go.jp/12/index.php?action_kouhyou_detail_004_kani=true&JigyosyoCd=1272403948-00&ServiceCd=170&Type=search" }, "geometry": { "type": "Point", "coordinates": [ 140.111825612828056, 35.532832297669849 ] } },
{ "type": "Feature", "properties": { "内容": "介護ショップケア・サポート千葉【福祉用具貸与】千葉県市原市姉崎323", "url2": "https://www.kaigokensaku.mhlw.go.jp/12/index.php?action_kouhyou_detail_004_kani=true&JigyosyoCd=1272400050-00&ServiceCd=170&Type=search" }, "geometry": { "type": "Point", "coordinates": [ 140.040440295492544, 35.475919478482723 ] } },
{ "type": "Feature", "properties": { "内容": "福祉用具ひまわり千葉営業所【福祉用具貸与】千葉県流山市鰭ヶ崎1311-1F", "url2": "https://www.kaigokensaku.mhlw.go.jp/12/index.php?action_kouhyou_detail_004_kani=true&JigyosyoCd=1272503234-00&ServiceCd=170&Type=search" }, "geometry": { "type": "Point", "coordinates": [ 139.910191700000013, 35.8400388 ] } },
{ "type": "Feature", "properties": { "内容": "ニチイライフケア松ヶ丘公園レンタルサービス【福祉用具貸与】千葉県流山市松ヶ丘4‐496‐1ニチイメゾン松ヶ丘公園", "url2": "https://www.kaigokensaku.mhlw.go.jp/12/index.php?action_kouhyou_detail_004_kani=true&JigyosyoCd=1272503648-00&ServiceCd=170&Type=search" }, "geometry": { "type": "Point", "coordinates": [ 139.945748060480469, 35.849193731441069 ] } },
{ "type": "Feature", "properties": { "内容": "株式会社福祉協同サービス流山営業所【福祉用具貸与】千葉県流山市前平井155レヴケイヴ1階", "url2": "https://www.kaigokensaku.mhlw.go.jp/12/index.php?action_kouhyou_detail_004_kani=true&JigyosyoCd=1272501253-00&ServiceCd=170&Type=search" }, "geometry": { "type": "Point", "coordinates": [ 139.912923200000023, 35.8544711 ] } },
{ "type": "Feature", "properties": { "内容": "パナソニックエイジフリーショップ流山・野田【福祉用具貸与】千葉県流山市流山５－１２", "url2": "https://www.kaigokensaku.mhlw.go.jp/12/index.php?action_kouhyou_detail_004_kani=true&JigyosyoCd=1272500610-00&ServiceCd=170&Type=search" }, "geometry": { "type": "Point", "coordinates": [ 139.898383, 35.8517104 ] } },
{ "type": "Feature", "properties": { "内容": "福祉のニッカ流山営業所【福祉用具貸与】千葉県流山市平和台3-2-41", "url2": "https://www.kaigokensaku.mhlw.go.jp/12/index.php?action_kouhyou_detail_004_kani=true&JigyosyoCd=1272500339-00&ServiceCd=170&Type=search" }, "geometry": { "type": "Point", "coordinates": [ 139.901407905053929, 35.851227431154086 ] } },
{ "type": "Feature", "properties": { "内容": "アルトアーク福祉用具サービス【福祉用具貸与】千葉県流山市こうのす台262-2", "url2": "https://www.kaigokensaku.mhlw.go.jp/12/index.php?action_kouhyou_detail_004_kani=true&JigyosyoCd=1272501485-00&ServiceCd=170&Type=search" }, "geometry": { "type": "Point", "coordinates": [ 139.9166907, 35.9063679 ] } },
{ "type": "Feature", "properties": { "内容": "株式会社日本ドライ　介護用品のスマイル流山営業所【福祉用具貸与】千葉県流山市加2-8-11", "url2": "https://www.kaigokensaku.mhlw.go.jp/12/index.php?action_kouhyou_detail_004_kani=true&JigyosyoCd=1272503556-00&ServiceCd=170&Type=search" }, "geometry": { "type": "Point", "coordinates": [ 139.9080621, 35.8594544 ] } },
{ "type": "Feature", "properties": { "内容": "有限会社アサヒテクノ福祉事業部沙羅【福祉用具貸与】千葉県流山市西深井821-26中村コーポII　105", "url2": "https://www.kaigokensaku.mhlw.go.jp/12/index.php?action_kouhyou_detail_004_kani=true&JigyosyoCd=1272501113-00&ServiceCd=170&Type=search" }, "geometry": { "type": "Point", "coordinates": [ 139.901883, 35.9170192 ] } },
{ "type": "Feature", "properties": { "内容": "オーケーサービス【福祉用具貸与】千葉県八千代市吉橋1113-1", "url2": "https://www.kaigokensaku.mhlw.go.jp/12/index.php?action_kouhyou_detail_004_kani=true&JigyosyoCd=1272600253-00&ServiceCd=170&Type=search" }, "geometry": { "type": "Point", "coordinates": [ 140.07871810000006, 35.7392661 ] } },
{ "type": "Feature", "properties": { "内容": "古川建商株式会社【福祉用具貸与】千葉県八千代市勝田831－4", "url2": "https://www.kaigokensaku.mhlw.go.jp/12/index.php?action_kouhyou_detail_004_kani=true&JigyosyoCd=1272600089-00&ServiceCd=170&Type=search" }, "geometry": { "type": "Point", "coordinates": [ 140.122312462951641, 35.708061866798246 ] } },
{ "type": "Feature", "properties": { "内容": "ヤックスレンタルサービス八千代【福祉用具貸与】千葉県八千代市大和田新田326-1", "url2": "https://www.kaigokensaku.mhlw.go.jp/12/index.php?action_kouhyou_detail_004_kani=true&JigyosyoCd=1272603687-00&ServiceCd=170&Type=search" }, "geometry": { "type": "Point", "coordinates": [ 140.098632727018355, 35.721581567432615 ] } },
{ "type": "Feature", "properties": { "内容": "クローバー【福祉用具貸与】千葉県我孫子市古戸250-5", "url2": "https://www.kaigokensaku.mhlw.go.jp/12/index.php?action_kouhyou_detail_004_kani=true&JigyosyoCd=1272701820-00&ServiceCd=170&Type=search" }, "geometry": { "type": "Point", "coordinates": [ 140.094547799999987, 35.8686196 ] } },
{ "type": "Feature", "properties": { "内容": "野口株式会社介護ショップ「ハーティケア」我孫子店【福祉用具貸与】千葉県我孫子市我孫子４－３－２０", "url2": "https://www.kaigokensaku.mhlw.go.jp/12/index.php?action_kouhyou_detail_004_kani=true&JigyosyoCd=1272700467-00&ServiceCd=170&Type=search" }, "geometry": { "type": "Point", "coordinates": [ 140.0098299, 35.875526 ] } },
{ "type": "Feature", "properties": { "内容": "介護用品店ゆとりっぷ【福祉用具貸与】千葉県我孫子市根戸962番地29", "url2": "https://www.kaigokensaku.mhlw.go.jp/12/index.php?action_kouhyou_detail_004_kani=true&JigyosyoCd=1272700954-00&ServiceCd=170&Type=search" }, "geometry": { "type": "Point", "coordinates": [ 140.000817, 35.8793224 ] } },
{ "type": "Feature", "properties": { "内容": "いろはレンタルサービス【福祉用具貸与】千葉県我孫子市湖北台1-12-7", "url2": "https://www.kaigokensaku.mhlw.go.jp/12/index.php?action_kouhyou_detail_004_kani=true&JigyosyoCd=1272701788-00&ServiceCd=170&Type=search" }, "geometry": { "type": "Point", "coordinates": [ 140.0782098, 35.8664359 ] } },
{ "type": "Feature", "properties": { "内容": "イーアス我孫子【福祉用具貸与】千葉県我孫子市我孫子1-21-21", "url2": "https://www.kaigokensaku.mhlw.go.jp/12/index.php?action_kouhyou_detail_004_kani=true&JigyosyoCd=1272701762-00&ServiceCd=170&Type=search" }, "geometry": { "type": "Point", "coordinates": [ 140.015117709782601, 35.874611783406138 ] } },
{ "type": "Feature", "properties": { "内容": "ＯＨＡＮＡレンタル【福祉用具貸与】千葉県我孫子市台田2-10-6サニーレジデンス1号室", "url2": "https://www.kaigokensaku.mhlw.go.jp/12/index.php?action_kouhyou_detail_004_kani=true&JigyosyoCd=1272702042-00&ServiceCd=170&Type=search" }, "geometry": { "type": "Point", "coordinates": [ 139.999418599999984, 35.874559500000011 ] } },
{ "type": "Feature", "properties": { "内容": "ぐりーんあっぷる【福祉用具貸与】千葉県我孫子市泉１１番２４号ジーメゾン泉エルデ１０２号室", "url2": "https://www.kaigokensaku.mhlw.go.jp/12/index.php?action_kouhyou_detail_004_kani=true&JigyosyoCd=1272702224-00&ServiceCd=170&Type=search" }, "geometry": { "type": "Point", "coordinates": [ 140.030853, 35.8723123 ] } },
{ "type": "Feature", "properties": { "内容": "チヤフルキョウエイ鴨川事業所【福祉用具貸与】千葉県鴨川市滑谷65-1", "url2": "https://www.kaigokensaku.mhlw.go.jp/12/index.php?action_kouhyou_detail_004_kani=true&JigyosyoCd=1272800390-00&ServiceCd=170&Type=search" }, "geometry": { "type": "Point", "coordinates": [ 140.091237630824622, 35.108293095908401 ] } },
{ "type": "Feature", "properties": { "内容": "亀楽株式会社【福祉用具貸与】千葉県鴨川市東町582-8", "url2": "https://www.kaigokensaku.mhlw.go.jp/12/index.php?action_kouhyou_detail_004_kani=true&JigyosyoCd=1272800770-00&ServiceCd=170&Type=search" }, "geometry": { "type": "Point", "coordinates": [ 140.122842599999984, 35.1220983 ] } },
{ "type": "Feature", "properties": { "内容": "介護ショップふきのとう【福祉用具貸与】千葉県鴨川市花房46番地1", "url2": "https://www.kaigokensaku.mhlw.go.jp/12/index.php?action_kouhyou_detail_004_kani=true&JigyosyoCd=1272800176-00&ServiceCd=170&Type=search" }, "geometry": { "type": "Point", "coordinates": [ 140.085287841139206, 35.120884344597918 ] } },
{ "type": "Feature", "properties": { "内容": "亀田コミュニティケアサービス【福祉用具貸与】千葉県鴨川市東町1623ｰ1", "url2": "https://www.kaigokensaku.mhlw.go.jp/12/index.php?action_kouhyou_detail_004_kani=true&JigyosyoCd=1272800168-00&ServiceCd=170&Type=search" }, "geometry": { "type": "Point", "coordinates": [ 140.114958153330008, 35.123721976539635 ] } },
{ "type": "Feature", "properties": { "内容": "いいケアツール【福祉用具貸与】千葉県鎌ケ谷市くぬぎ山五丁目6番5クロスロード104号室", "url2": "https://www.kaigokensaku.mhlw.go.jp/12/index.php?action_kouhyou_detail_004_kani=true&JigyosyoCd=1272901974-00&ServiceCd=170&Type=search" }, "geometry": { "type": "Point", "coordinates": [ 139.979318040475476, 35.78363376989774 ] } },
{ "type": "Feature", "properties": { "内容": "かりレル【福祉用具貸与】千葉県鎌ケ谷市初富23-71", "url2": "https://www.kaigokensaku.mhlw.go.jp/12/index.php?action_kouhyou_detail_004_kani=true&JigyosyoCd=1272902543-00&ServiceCd=170&Type=search" }, "geometry": { "type": "Point", "coordinates": [ 139.9829523, 35.7817172 ] } },
{ "type": "Feature", "properties": { "内容": "ウイングレンタルサービス【福祉用具貸与】千葉県鎌ケ谷市鎌ケ谷1-5-33", "url2": "https://www.kaigokensaku.mhlw.go.jp/12/index.php?action_kouhyou_detail_004_kani=true&JigyosyoCd=1272900612-00&ServiceCd=170&Type=search" }, "geometry": { "type": "Point", "coordinates": [ 140.0132843, 35.7594855 ] } },
{ "type": "Feature", "properties": { "内容": "株式会社ヤマシタ船橋営業所【福祉用具貸与】千葉県鎌ケ谷市鎌ヶ谷4-6-79", "url2": "https://www.kaigokensaku.mhlw.go.jp/12/index.php?action_kouhyou_detail_004_kani=true&JigyosyoCd=1272901669-00&ServiceCd=170&Type=search" }, "geometry": { "type": "Point", "coordinates": [ 140.011848500000042, 35.7562246 ] } },
{ "type": "Feature", "properties": { "内容": "ぞうさん福祉用具【福祉用具貸与】千葉県鎌ケ谷市新鎌ケ谷1-10-32MA-SAKURAⅡ3階", "url2": "https://www.kaigokensaku.mhlw.go.jp/12/index.php?action_kouhyou_detail_004_kani=true&JigyosyoCd=1272902402-00&ServiceCd=170&Type=search" }, "geometry": { "type": "Point", "coordinates": [ 139.999279086230416, 35.777525889826883 ] } },
{ "type": "Feature", "properties": { "内容": "福祉用具スプリング【福祉用具貸与】千葉県鎌ヶ谷市南初富4-12-21", "url2": "https://www.kaigokensaku.mhlw.go.jp/12/index.php?action_kouhyou_detail_004_kani=true&JigyosyoCd=1272902287-00&ServiceCd=170&Type=search" }, "geometry": { "type": "Point", "coordinates": [ 140.00755594603271, 35.768345358136699 ] } },
{ "type": "Feature", "properties": { "内容": "あったかホーム　福祉用具【福祉用具貸与】千葉県鎌ケ谷市丸山1-1-3", "url2": "https://www.kaigokensaku.mhlw.go.jp/12/index.php?action_kouhyou_detail_004_kani=true&JigyosyoCd=1272901834-00&ServiceCd=170&Type=search" }, "geometry": { "type": "Point", "coordinates": [ 140.007481900000016, 35.7646848 ] } },
{ "type": "Feature", "properties": { "内容": "福祉用具の樹【福祉用具貸与】千葉県鎌ケ谷市東道野辺2-10-8メゾン鎌ケ谷101", "url2": "https://www.kaigokensaku.mhlw.go.jp/12/index.php?action_kouhyou_detail_004_kani=true&JigyosyoCd=1272902600-00&ServiceCd=170&Type=search" }, "geometry": { "type": "Point", "coordinates": [ 139.9989376, 35.7599461 ] } },
{ "type": "Feature", "properties": { "内容": "サボワール有限会社　ベル福祉用具貸与事業所【福祉用具貸与】千葉県君津市中島270番地１", "url2": "https://www.kaigokensaku.mhlw.go.jp/12/index.php?action_kouhyou_detail_004_kani=true&JigyosyoCd=1273000297-00&ServiceCd=170&Type=search" }, "geometry": { "type": "Point", "coordinates": [ 139.955251500000031, 35.3063627 ] } },
{ "type": "Feature", "properties": { "内容": "株式会社　ノバ・メディクス【福祉用具貸与】千葉県君津市東坂田4-8-23", "url2": "https://www.kaigokensaku.mhlw.go.jp/12/index.php?action_kouhyou_detail_004_kani=true&JigyosyoCd=1273000073-00&ServiceCd=170&Type=search" }, "geometry": { "type": "Point", "coordinates": [ 139.895654200000024, 35.336120700000031 ] } },
{ "type": "Feature", "properties": { "内容": "株式会社オールプロジェクト【福祉用具貸与】千葉県君津市人見3-6-19", "url2": "https://www.kaigokensaku.mhlw.go.jp/12/index.php?action_kouhyou_detail_004_kani=true&JigyosyoCd=1273000586-00&ServiceCd=170&Type=search" }, "geometry": { "type": "Point", "coordinates": [ 139.871524099999988, 35.3314969 ] } },
{ "type": "Feature", "properties": { "内容": "有限会社スミレホーム【福祉用具貸与】千葉県富津市下飯野７８５－１", "url2": "https://www.kaigokensaku.mhlw.go.jp/12/index.php?action_kouhyou_detail_004_kani=true&JigyosyoCd=1273100436-00&ServiceCd=170&Type=search" }, "geometry": { "type": "Point", "coordinates": [ 139.8577371, 35.3202763 ] } },
{ "type": "Feature", "properties": { "内容": "藤野トーヨー住器株式会社【福祉用具貸与】千葉県富津市湊７６９番地", "url2": "https://www.kaigokensaku.mhlw.go.jp/12/index.php?action_kouhyou_detail_004_kani=true&JigyosyoCd=1273101020-00&ServiceCd=170&Type=search" }, "geometry": { "type": "Point", "coordinates": [ 139.873204399999963, 35.2227743 ] } },
{ "type": "Feature", "properties": { "内容": "有限会社　ヒラシマ【福祉用具貸与】千葉県富津市金谷2222-21", "url2": "https://www.kaigokensaku.mhlw.go.jp/12/index.php?action_kouhyou_detail_004_kani=true&JigyosyoCd=1273100428-00&ServiceCd=170&Type=search" }, "geometry": { "type": "Point", "coordinates": [ 139.82339879999995, 35.1673427 ] } },
{ "type": "Feature", "properties": { "内容": "有限会社　総合福祉サービス【福祉用具貸与】千葉県浦安市海楽1-3-13", "url2": "https://www.kaigokensaku.mhlw.go.jp/12/index.php?action_kouhyou_detail_004_kani=true&JigyosyoCd=1273200046-00&ServiceCd=170&Type=search" }, "geometry": { "type": "Point", "coordinates": [ 139.903422800000044, 35.6529503 ] } },
{ "type": "Feature", "properties": { "内容": "ケアハピＱＯＬ【福祉用具貸与】千葉県浦安市堀江5-14-31瑞穂荘101", "url2": "https://www.kaigokensaku.mhlw.go.jp/12/index.php?action_kouhyou_detail_004_kani=true&JigyosyoCd=1273201481-00&ServiceCd=170&Type=search" }, "geometry": { "type": "Point", "coordinates": [ 139.8899798, 35.6555651 ] } },
{ "type": "Feature", "properties": { "内容": "ユーケアOne【福祉用具貸与】千葉県浦浦安市堀江6-9-1-102Rita新浦安", "url2": "https://www.kaigokensaku.mhlw.go.jp/12/index.php?action_kouhyou_detail_004_kani=true&JigyosyoCd=1273201531-00&ServiceCd=170&Type=search" }, "geometry": { "type": "Point", "coordinates": [ 139.896925665542909, 35.652608718010605 ] } },
{ "type": "Feature", "properties": { "内容": "有限会社ユウアイ【福祉用具貸与】千葉県浦安市今川２－１１－２３", "url2": "https://www.kaigokensaku.mhlw.go.jp/12/index.php?action_kouhyou_detail_004_kani=true&JigyosyoCd=1273200707-00&ServiceCd=170&Type=search" }, "geometry": { "type": "Point", "coordinates": [ 139.909761500000059, 35.6413294 ] } },
{ "type": "Feature", "properties": { "内容": "ライフケアタカサ浦安営業所【福祉用具貸与】千葉県浦安市北栄2-5-20", "url2": "https://www.kaigokensaku.mhlw.go.jp/12/index.php?action_kouhyou_detail_004_kani=true&JigyosyoCd=1273201614-00&ServiceCd=170&Type=search" }, "geometry": { "type": "Point", "coordinates": [ 139.8940692, 35.6679245 ] } },
{ "type": "Feature", "properties": { "内容": "株式会社ケアサポート・わ【福祉用具貸与】千葉県四街道市大日富士見ヶ丘2055-22", "url2": "https://www.kaigokensaku.mhlw.go.jp/12/index.php?action_kouhyou_detail_004_kani=true&JigyosyoCd=1273300804-00&ServiceCd=170&Type=search" }, "geometry": { "type": "Point", "coordinates": [ 140.149689484416996, 35.69967694622477 ] } },
{ "type": "Feature", "properties": { "内容": "有限会社アクアネットワークジャパン【福祉用具貸与】千葉県袖ヶ浦市横田3661", "url2": "https://www.kaigokensaku.mhlw.go.jp/12/index.php?action_kouhyou_detail_004_kani=true&JigyosyoCd=1273400299-00&ServiceCd=170&Type=search" }, "geometry": { "type": "Point", "coordinates": [ 140.0139441, 35.3860039 ] } },
{ "type": "Feature", "properties": { "内容": "Freeliving【福祉用具貸与】千葉県八街市八街へ199-1293", "url2": "https://www.kaigokensaku.mhlw.go.jp/12/index.php?action_kouhyou_detail_004_kani=true&JigyosyoCd=1273501278-00&ServiceCd=170&Type=search" }, "geometry": { "type": "Point", "coordinates": [ 140.311509200000046, 35.633904 ] } },
{ "type": "Feature", "properties": { "内容": "ケアサポートささき【福祉用具貸与】千葉県八街市八街ほ239番地", "url2": "https://www.kaigokensaku.mhlw.go.jp/12/index.php?action_kouhyou_detail_004_kani=true&JigyosyoCd=1273500320-00&ServiceCd=170&Type=search" }, "geometry": { "type": "Point", "coordinates": [ 140.317803872589025, 35.66123470838626 ] } },
{ "type": "Feature", "properties": { "内容": "福祉用具貸与・販売夕顔【福祉用具貸与】千葉県八街市上砂330-3", "url2": "https://www.kaigokensaku.mhlw.go.jp/12/index.php?action_kouhyou_detail_004_kani=true&JigyosyoCd=1273501047-00&ServiceCd=170&Type=search" }, "geometry": { "type": "Point", "coordinates": [ 140.292699, 35.584531 ] } },
{ "type": "Feature", "properties": { "内容": "エルサポート【福祉用具貸与】千葉県八街市八街は47-48", "url2": "https://www.kaigokensaku.mhlw.go.jp/12/index.php?action_kouhyou_detail_004_kani=true&JigyosyoCd=1273501328-00&ServiceCd=170&Type=search" }, "geometry": { "type": "Point", "coordinates": [ 140.3105917, 35.6997191 ] } },
{ "type": "Feature", "properties": { "内容": "ヤックスレンタルサービス八街【福祉用具貸与】千葉県八街市八街ほ844-1", "url2": "https://www.kaigokensaku.mhlw.go.jp/12/index.php?action_kouhyou_detail_004_kani=true&JigyosyoCd=1273500270-00&ServiceCd=170&Type=search" }, "geometry": { "type": "Point", "coordinates": [ 140.3088524, 35.657452600000035 ] } },
{ "type": "Feature", "properties": { "内容": "まいすたいる【福祉用具貸与】千葉県印西市鹿黒658-4", "url2": "https://www.kaigokensaku.mhlw.go.jp/12/index.php?action_kouhyou_detail_004_kani=true&JigyosyoCd=1273601045-00&ServiceCd=170&Type=search" }, "geometry": { "type": "Point", "coordinates": [ 140.1362315, 35.8202588 ] } },
{ "type": "Feature", "properties": { "内容": "千葉ニュータウン福祉ステーション【福祉用具貸与】千葉県印西市若萩１－２－２－２Ｆ", "url2": "https://www.kaigokensaku.mhlw.go.jp/12/index.php?action_kouhyou_detail_004_kani=true&JigyosyoCd=1273600435-00&ServiceCd=170&Type=search" }, "geometry": { "type": "Point", "coordinates": [ 140.202724102954136, 35.788836238025631 ] } },
{ "type": "Feature", "properties": { "内容": "ケアリング福祉用具【福祉用具貸与】千葉県印西市小林1811-1", "url2": "https://www.kaigokensaku.mhlw.go.jp/12/index.php?action_kouhyou_detail_004_kani=true&JigyosyoCd=1273601060-00&ServiceCd=170&Type=search" }, "geometry": { "type": "Point", "coordinates": [ 140.192734952114876, 35.829754558819644 ] } },
{ "type": "Feature", "properties": { "内容": "チヤフルキョウエイ富里事業所【福祉用具貸与】千葉県富里市七栄６３９－９８", "url2": "https://www.kaigokensaku.mhlw.go.jp/12/index.php?action_kouhyou_detail_004_kani=true&JigyosyoCd=1274000411-00&ServiceCd=170&Type=search" }, "geometry": { "type": "Point", "coordinates": [ 140.321246200000019, 35.7389233 ] } },
{ "type": "Feature", "properties": { "内容": "メディカルホームコーポレーション【福祉用具貸与】千葉県富里市大和２１１－４７", "url2": "https://www.kaigokensaku.mhlw.go.jp/12/index.php?action_kouhyou_detail_004_kani=true&JigyosyoCd=1274000569-00&ServiceCd=170&Type=search" }, "geometry": { "type": "Point", "coordinates": [ 140.34587590000001, 35.7579326 ] } },
{ "type": "Feature", "properties": { "内容": "株式会社ほっと・ケアライフ【福祉用具貸与】千葉県南房総市市部170-3", "url2": "https://www.kaigokensaku.mhlw.go.jp/12/index.php?action_kouhyou_detail_004_kani=true&JigyosyoCd=1277800056-00&ServiceCd=170&Type=search" }, "geometry": { "type": "Point", "coordinates": [ 139.848890678801212, 35.094862230706823 ] } },
{ "type": "Feature", "properties": { "内容": "つのだ家具株式会社介護事業部【福祉用具貸与】千葉県匝瑳市八日市場イ－７１４", "url2": "https://www.kaigokensaku.mhlw.go.jp/12/index.php?action_kouhyou_detail_004_kani=true&JigyosyoCd=1271900191-00&ServiceCd=170&Type=search" }, "geometry": { "type": "Point", "coordinates": [ 140.5432366, 35.6964873 ] } },
{ "type": "Feature", "properties": { "内容": "株式会社あきら【福祉用具貸与】千葉県匝瑳市上谷中２１６８", "url2": "https://www.kaigokensaku.mhlw.go.jp/12/index.php?action_kouhyou_detail_004_kani=true&JigyosyoCd=1278700180-00&ServiceCd=170&Type=search" }, "geometry": { "type": "Point", "coordinates": [ 140.5662532, 35.7077807 ] } },
{ "type": "Feature", "properties": { "内容": "プリーズ匝瑳【福祉用具貸与】千葉県匝瑳市八日市場イ83", "url2": "https://www.kaigokensaku.mhlw.go.jp/12/index.php?action_kouhyou_detail_004_kani=true&JigyosyoCd=1278700313-00&ServiceCd=170&Type=search" }, "geometry": { "type": "Point", "coordinates": [ 140.551614100000052, 35.6997882 ] } },
{ "type": "Feature", "properties": { "内容": "健康福祉プラザ【福祉用具貸与】千葉県香取市野田848", "url2": "https://www.kaigokensaku.mhlw.go.jp/12/index.php?action_kouhyou_detail_004_kani=true&JigyosyoCd=1278900343-00&ServiceCd=170&Type=search" }, "geometry": { "type": "Point", "coordinates": [ 140.597204599999941, 35.8550397 ] } },
{ "type": "Feature", "properties": { "内容": "水郷エスコート【福祉用具貸与】千葉県香取市北2-14-2笹本ビル201", "url2": "https://www.kaigokensaku.mhlw.go.jp/12/index.php?action_kouhyou_detail_004_kani=true&JigyosyoCd=1278900798-00&ServiceCd=170&Type=search" }, "geometry": { "type": "Point", "coordinates": [ 140.4939338, 35.8995369 ] } },
{ "type": "Feature", "properties": { "内容": "ドリームライフ【福祉用具貸与】千葉県香取市北3-8-3", "url2": "https://www.kaigokensaku.mhlw.go.jp/12/index.php?action_kouhyou_detail_004_kani=true&JigyosyoCd=1271400325-00&ServiceCd=170&Type=search" }, "geometry": { "type": "Point", "coordinates": [ 140.4959103, 35.8982547 ] } },
{ "type": "Feature", "properties": { "内容": "株式会社SEISHO【福祉用具貸与】千葉県香取市本郷244-1丸神ビル２F", "url2": "https://www.kaigokensaku.mhlw.go.jp/12/index.php?action_kouhyou_detail_004_kani=true&JigyosyoCd=1278900830-00&ServiceCd=170&Type=search" }, "geometry": { "type": "Point", "coordinates": [ 140.601686300000011, 35.8496912 ] } },
{ "type": "Feature", "properties": { "内容": "メディカルショップすがや【福祉用具貸与】千葉県香取市小見川906", "url2": "https://www.kaigokensaku.mhlw.go.jp/12/index.php?action_kouhyou_detail_004_kani=true&JigyosyoCd=1274800141-00&ServiceCd=170&Type=search" }, "geometry": { "type": "Point", "coordinates": [ 140.606187, 35.8500602 ] } },
{ "type": "Feature", "properties": { "内容": "有限会社あん心商亊【福祉用具貸与】千葉県香取市谷中934-1", "url2": "https://www.kaigokensaku.mhlw.go.jp/12/index.php?action_kouhyou_detail_004_kani=true&JigyosyoCd=1271400291-00&ServiceCd=170&Type=search" }, "geometry": { "type": "Point", "coordinates": [ 140.446926100000042, 35.8912208 ] } },
{ "type": "Feature", "properties": { "内容": "セントケアりまいん成東【福祉用具貸与】千葉県山武市成東499-3IMCⅣビル　2階", "url2": "https://www.kaigokensaku.mhlw.go.jp/12/index.php?action_kouhyou_detail_004_kani=true&JigyosyoCd=1279000507-00&ServiceCd=170&Type=search" }, "geometry": { "type": "Point", "coordinates": [ 140.407985199999985, 35.60096690000001 ] } },
{ "type": "Feature", "properties": { "内容": "ライフケアタカサ山武支店【福祉用具貸与】千葉県山武市松尾町八田22-1", "url2": "https://www.kaigokensaku.mhlw.go.jp/12/index.php?action_kouhyou_detail_004_kani=true&JigyosyoCd=1279000580-00&ServiceCd=170&Type=search" }, "geometry": { "type": "Point", "coordinates": [ 140.4760119, 35.6552516 ] } },
{ "type": "Feature", "properties": { "内容": "有限会社コミュニティ・ケア杜の街【福祉用具貸与】千葉県大網白里市南飯塚404-4", "url2": "https://www.kaigokensaku.mhlw.go.jp/12/index.php?action_kouhyou_detail_004_kani=true&JigyosyoCd=1279200115-00&ServiceCd=170&Type=search" }, "geometry": { "type": "Point", "coordinates": [ 140.346480299999939, 35.5030612 ] } },
{ "type": "Feature", "properties": { "内容": "株式会社優ケア【福祉用具貸与】千葉県大網白里市駒込785-2", "url2": "https://www.kaigokensaku.mhlw.go.jp/12/index.php?action_kouhyou_detail_004_kani=true&JigyosyoCd=1275800660-00&ServiceCd=170&Type=search" }, "geometry": { "type": "Point", "coordinates": [ 140.3076026, 35.5196744 ] } },
{ "type": "Feature", "properties": { "内容": "有限会社四つ葉【福祉用具貸与】千葉県大網白里市みずほ台1-8-10", "url2": "https://www.kaigokensaku.mhlw.go.jp/12/index.php?action_kouhyou_detail_004_kani=true&JigyosyoCd=1275800157-00&ServiceCd=170&Type=search" }, "geometry": { "type": "Point", "coordinates": [ 140.3037779, 35.5181245 ] } },
{ "type": "Feature", "properties": { "内容": "イーグルケアサービス【福祉用具貸与】千葉県印旛郡栄町安食3664番地", "url2": "https://www.kaigokensaku.mhlw.go.jp/12/index.php?action_kouhyou_detail_004_kani=true&JigyosyoCd=1274400280-00&ServiceCd=170&Type=search" }, "geometry": { "type": "Point", "coordinates": [ 140.2366165, 35.8394732 ] } },
{ "type": "Feature", "properties": { "内容": "ダスキンヘルスレント千葉香取ステーション【福祉用具貸与】千葉県香取郡東庄町石出46-2", "url2": "https://www.kaigokensaku.mhlw.go.jp/12/index.php?action_kouhyou_detail_004_kani=true&JigyosyoCd=1275300158-00&ServiceCd=170&Type=search" }, "geometry": { "type": "Point", "coordinates": [ 140.71143840000002, 35.821848 ] } },
{ "type": "Feature", "properties": { "内容": "チヤフルキョウエイ事業所【福祉用具貸与】千葉県山武郡九十九里西野1595-1", "url2": "https://www.kaigokensaku.mhlw.go.jp/12/index.php?action_kouhyou_detail_004_kani=true&JigyosyoCd=1275900015-00&ServiceCd=170&Type=search" }, "geometry": { "type": "Point", "coordinates": [ 140.39296620793462, 35.528326471576442 ] } },
{ "type": "Feature", "properties": { "内容": "ペアレント市川営業所【福祉用具貸与】千葉県市川市市川2-6-18太田ビル201", "url2": "https://www.kaigokensaku.mhlw.go.jp/12/index.php?action_kouhyou_detail_004_kani=true&JigyosyoCd=1270806308-00&ServiceCd=170&Type=search" }, "geometry": { "type": "Point", "coordinates": [ 139.9050871, 35.7311058 ] } },
{ "type": "Feature", "properties": { "内容": "大邦機電有限会社長生事業所【福祉用具貸与】千葉県長生郡長生村本郷5822-1", "url2": "https://www.kaigokensaku.mhlw.go.jp/12/index.php?action_kouhyou_detail_004_kani=true&JigyosyoCd=1276800123-00&ServiceCd=170&Type=search" }, "geometry": { "type": "Point", "coordinates": [ 140.362783300000046, 35.4272603 ] } },
{ "type": "Feature", "properties": { "内容": "プラチナハウス【福祉用具貸与】千葉県長生郡白子町中里4542-2", "url2": "https://www.kaigokensaku.mhlw.go.jp/12/index.php?action_kouhyou_detail_004_kani=true&JigyosyoCd=1276900220-00&ServiceCd=170&Type=search" }, "geometry": { "type": "Point", "coordinates": [ 140.394303385768836, 35.433137686161771 ] } },
{ "type": "Feature", "properties": { "内容": "株式会社クローバーライフ　茂原営業所【福祉用具貸与】千葉県長生郡長柄町山之郷646番地116", "url2": "https://www.kaigokensaku.mhlw.go.jp/12/index.php?action_kouhyou_detail_004_kani=true&JigyosyoCd=1277000186-00&ServiceCd=170&Type=search" }, "geometry": { "type": "Point", "coordinates": [ 140.2317971, 35.4812772 ] } }
]
}
