{
"type": "FeatureCollection",
"name": "geo_12_短期入所療養介護(療養病床を有する病院等）",
"crs": { "type": "name", "properties": { "name": "urn:ogc:def:crs:OGC:1.3:CRS84" } },
"features": [
{ "type": "Feature", "properties": { "内容": "医療法人真温会　八千代有床診療所【短期入所療養介護(療養病床を有する病院等）】千葉県八千代市緑が丘西３－１３－２１", "url2": "https://www.kaigokensaku.mhlw.go.jp/12/index.php?action_kouhyou_detail_004_kani=true&JigyosyoCd=1272603299-00&ServiceCd=&Type=search" }, "geometry": { "type": "Point", "coordinates": [ 140.0709947, 35.7383006 ] } }
]
}
