{
"type": "FeatureCollection",
"name": "geo_12_認知症対応型通所介護",
"crs": { "type": "name", "properties": { "name": "urn:ogc:def:crs:OGC:1.3:CRS84" } },
"features": [
{ "type": "Feature", "properties": { "内容": "淑徳共生苑認知症対応型通所介護事業所【認知症対応型通所介護】千葉県千葉市中央区生実町2407-1", "url": "https://www.kaigokensaku.mhlw.go.jp/12/index.php?action_kouhyou_detail_004_kani=true&JigyosyoCd=1290100112-00&ServiceCd=720&Type=search", "url2": "https://www.kyoseien.jp/" }, "geometry": { "type": "Point", "coordinates": [ 140.15382390000002, 35.567108 ] } },
{ "type": "Feature", "properties": { "内容": "デイサービスセンターからたち【認知症対応型通所介護】千葉県千葉市花見川区幕張町5-221-10", "url": "https://www.kaigokensaku.mhlw.go.jp/12/index.php?action_kouhyou_detail_004_kani=true&JigyosyoCd=1290200250-00&ServiceCd=720&Type=search", "url2": "http://www.min-iren-c-fukushikai.com/" }, "geometry": { "type": "Point", "coordinates": [ 140.059495199999986, 35.655574799999982 ] } },
{ "type": "Feature", "properties": { "内容": "いなせなデイサービスさつきが丘【認知症対応型通所介護】千葉県千葉市花見川区さつきが丘2-9-3", "url": "https://www.kaigokensaku.mhlw.go.jp/12/index.php?action_kouhyou_detail_004_kani=true&JigyosyoCd=1290200219-00&ServiceCd=720&Type=search", "url2": "http://www.kaigonotakumi.jp" }, "geometry": { "type": "Point", "coordinates": [ 140.089554, 35.6634438 ] } },
{ "type": "Feature", "properties": { "内容": "生活クラブ風の村デイサービスセンターKirari【認知症対応型通所介護】千葉県千葉市稲毛区園生町1107-7", "url": "https://www.kaigokensaku.mhlw.go.jp/12/index.php?action_kouhyou_detail_004_kani=true&JigyosyoCd=1290300456-00&ServiceCd=720&Type=search", "url2": "https://kazenomura.jp/" }, "geometry": { "type": "Point", "coordinates": [ 140.102839878538873, 35.64127090247802 ] } },
{ "type": "Feature", "properties": { "内容": "いなせなデイサービス宮野木【認知症対応型通所介護】千葉県千葉市稲毛区宮野木町1480-1-7", "url": "https://www.kaigokensaku.mhlw.go.jp/12/index.php?action_kouhyou_detail_004_kani=true&JigyosyoCd=1290300332-00&ServiceCd=720&Type=search", "url2": "https://www.kaigonotakumi.jp/" }, "geometry": { "type": "Point", "coordinates": [ 140.102436247221362, 35.654801105884964 ] } },
{ "type": "Feature", "properties": { "内容": "特別養護老人ホームみはま苑【認知症対応型通所介護】千葉県千葉市美浜区高洲3-3-12", "url": "https://www.kaigokensaku.mhlw.go.jp/12/index.php?action_kouhyou_detail_004_kani=true&JigyosyoCd=1270600065-00&ServiceCd=720&Type=search", "url2": "http://www.boreas.dti.ne.jp/mihamaen/" }, "geometry": { "type": "Point", "coordinates": [ 140.073330299999952, 35.6262167 ] } },
{ "type": "Feature", "properties": { "内容": "レガーレ市川デイサービスセンター【認知症対応型通所介護】千葉県市川市柏井町4-315", "url": "https://www.kaigokensaku.mhlw.go.jp/12/index.php?action_kouhyou_detail_004_kani=true&JigyosyoCd=1290800265-00&ServiceCd=720&Type=search", "url2": "http://care-net.biz/12/keibikai/" }, "geometry": { "type": "Point", "coordinates": [ 139.973586, 35.753068 ] } },
{ "type": "Feature", "properties": { "内容": "柏井デイサービスセンター【認知症対応型通所介護】千葉県市川市柏井町4丁目229番地4市川市保健医療福祉センター内　１階", "url": "https://www.kaigokensaku.mhlw.go.jp/12/index.php?action_kouhyou_detail_004_kani=true&JigyosyoCd=1270800228-00&ServiceCd=720&Type=search", "url2": "http://care-net.biz/12/keibikai/" }, "geometry": { "type": "Point", "coordinates": [ 139.964664431877168, 35.750873622460865 ] } },
{ "type": "Feature", "properties": { "内容": "南八幡デイサービスセンター【認知症対応型通所介護】千葉県市川市南八幡５－２０－３", "url": "https://www.kaigokensaku.mhlw.go.jp/12/index.php?action_kouhyou_detail_004_kani=true&JigyosyoCd=1270800210-00&ServiceCd=720&Type=search", "url2": "http://care-net.biz/12/k-minami-d/" }, "geometry": { "type": "Point", "coordinates": [ 139.920991500000014, 35.7186816 ] } },
{ "type": "Feature", "properties": { "内容": "大洲デイサービスセンター【認知症対応型通所介護】千葉県市川市大洲１－１８－１ふれあいセンター３Ｆ", "url": "https://www.kaigokensaku.mhlw.go.jp/12/index.php?action_kouhyou_detail_004_kani=true&JigyosyoCd=1270801333-00&ServiceCd=720&Type=search", "url2": "http://www.care-net.biz/12/k-oosu-d/" }, "geometry": { "type": "Point", "coordinates": [ 139.910944200000017, 35.7179723 ] } },
{ "type": "Feature", "properties": { "内容": "生活協同組合パルシステム千葉デイサービスにじいろぱる市川里見【認知症対応型通所介護】千葉県市川市国府台3-2-16", "url": "https://www.kaigokensaku.mhlw.go.jp/12/index.php?action_kouhyou_detail_004_kani=true&JigyosyoCd=1290800380-00&ServiceCd=720&Type=search", "url2": "https://www.palsystem-chiba.coop/" }, "geometry": { "type": "Point", "coordinates": [ 139.903024511045004, 35.749288256723737 ] } },
{ "type": "Feature", "properties": { "内容": "セントケア大神宮下【認知症対応型通所介護】千葉県船橋市宮本1-23-20", "url": "https://www.kaigokensaku.mhlw.go.jp/12/index.php?action_kouhyou_detail_004_kani=true&JigyosyoCd=1290900420-00&ServiceCd=720&Type=search", "url2": null }, "geometry": { "type": "Point", "coordinates": [ 139.9913034, 35.6976081 ] } },
{ "type": "Feature", "properties": { "内容": "デイサービスセンター古茂口の家【認知症対応型通所介護】千葉県館山市古茂口68古茂口の家", "url": "https://www.kaigokensaku.mhlw.go.jp/12/index.php?action_kouhyou_detail_004_kani=true&JigyosyoCd=1291000139-00&ServiceCd=720&Type=search", "url2": "https://komoguchinoie.wixsite.com/home" }, "geometry": { "type": "Point", "coordinates": [ 139.885210912381012, 34.977583492214286 ] } },
{ "type": "Feature", "properties": { "内容": "デイホーム西の浜【認知症対応型通所介護】千葉県館山市沼８６５", "url": "https://www.kaigokensaku.mhlw.go.jp/12/index.php?action_kouhyou_detail_004_kani=true&JigyosyoCd=1291000071-00&ServiceCd=720&Type=search", "url2": "https://www.makinomi.co.jp/" }, "geometry": { "type": "Point", "coordinates": [ 139.84740069999998, 34.9834544 ] } },
{ "type": "Feature", "properties": { "内容": "デイサービス香【認知症対応型通所介護】千葉県館山市浜田120-1", "url": "https://www.kaigokensaku.mhlw.go.jp/12/index.php?action_kouhyou_detail_004_kani=true&JigyosyoCd=1291000089-00&ServiceCd=720&Type=search", "url2": null }, "geometry": { "type": "Point", "coordinates": [ 139.807979599999953, 34.9755965 ] } },
{ "type": "Feature", "properties": { "内容": "デイホーム安布里【認知症対応型通所介護】千葉県館山市安布里237-2", "url": "https://www.kaigokensaku.mhlw.go.jp/12/index.php?action_kouhyou_detail_004_kani=true&JigyosyoCd=1291000063-00&ServiceCd=720&Type=search", "url2": "https://www.makinomi.co.jp/" }, "geometry": { "type": "Point", "coordinates": [ 139.881987424420231, 34.986819271860874 ] } },
{ "type": "Feature", "properties": { "内容": "デイサービス心花【認知症対応型通所介護】千葉県木更津市伊豆島172デイサービス心花", "url": "https://www.kaigokensaku.mhlw.go.jp/12/index.php?action_kouhyou_detail_004_kani=true&JigyosyoCd=1291100186-00&ServiceCd=720&Type=search", "url2": null }, "geometry": { "type": "Point", "coordinates": [ 139.962518196575928, 35.37228283622251 ] } },
{ "type": "Feature", "properties": { "内容": "デイサービスワカバ胡録台【認知症対応型通所介護】千葉県松戸市胡録台358-9", "url": "https://www.kaigokensaku.mhlw.go.jp/12/index.php?action_kouhyou_detail_004_kani=true&JigyosyoCd=1291200291-00&ServiceCd=720&Type=search", "url2": "http://www.wakaba-gh.co.jp" }, "geometry": { "type": "Point", "coordinates": [ 139.910048299999971, 35.7818442 ] } },
{ "type": "Feature", "properties": { "内容": "愛の家グループホーム松戸小金原【認知症対応型通所介護】千葉県松戸市小金原8-13-1", "url": "https://www.kaigokensaku.mhlw.go.jp/12/index.php?action_kouhyou_detail_004_kani=true&JigyosyoCd=1291200317-00&ServiceCd=720&Type=search", "url2": "https://www.mcsg.co.jp/" }, "geometry": { "type": "Point", "coordinates": [ 139.9396946, 35.8142691 ] } },
{ "type": "Feature", "properties": { "内容": "松寿園デイサービスセンターメル・グラン【認知症対応型通所介護】千葉県松戸市六高台2丁目19番地の2", "url": "https://www.kaigokensaku.mhlw.go.jp/12/index.php?action_kouhyou_detail_004_kani=true&JigyosyoCd=1291200226-00&ServiceCd=720&Type=search", "url2": "http://www.rokkoudai.net/" }, "geometry": { "type": "Point", "coordinates": [ 139.986926899999958, 35.7956342 ] } },
{ "type": "Feature", "properties": { "内容": "デイサービスいきいきタウンのだ　ぬくもり横丁【認知症対応型通所介護】千葉県野田市中根193番地の12いきいきタウンのだ", "url": "https://www.kaigokensaku.mhlw.go.jp/12/index.php?action_kouhyou_detail_004_kani=true&JigyosyoCd=1291300208-00&ServiceCd=720&Type=search", "url2": "http://www.shafuku-pal.or.jp" }, "geometry": { "type": "Point", "coordinates": [ 139.879072400000041, 35.9402549 ] } },
{ "type": "Feature", "properties": { "内容": "シャローム通所介護事業所【認知症対応型通所介護】千葉県茂原市東郷975-6", "url": "https://www.kaigokensaku.mhlw.go.jp/12/index.php?action_kouhyou_detail_004_kani=true&JigyosyoCd=1271500710-00&ServiceCd=720&Type=search", "url2": null }, "geometry": { "type": "Point", "coordinates": [ 140.308864800000038, 35.4476222 ] } },
{ "type": "Feature", "properties": { "内容": "園芸デイサービスくめ【認知症対応型通所介護】千葉県成田市久米６８", "url": "https://www.kaigokensaku.mhlw.go.jp/12/index.php?action_kouhyou_detail_004_kani=true&JigyosyoCd=1291600086-00&ServiceCd=720&Type=search", "url2": null }, "geometry": { "type": "Point", "coordinates": [ 140.340161399999943, 35.7915342 ] } },
{ "type": "Feature", "properties": { "内容": "デイサービスセンター玲光苑【認知症対応型通所介護】千葉県成田市押畑８９６－４", "url": "https://www.kaigokensaku.mhlw.go.jp/12/index.php?action_kouhyou_detail_004_kani=true&JigyosyoCd=1271600148-00&ServiceCd=720&Type=search", "url2": "https://www.reikouen.or.jp" }, "geometry": { "type": "Point", "coordinates": [ 140.3072062, 35.8015764 ] } },
{ "type": "Feature", "properties": { "内容": "ゆかり成田下総デイガーデン萩弐番館【認知症対応型通所介護】千葉県成田市名古屋1301-26", "url": "https://www.kaigokensaku.mhlw.go.jp/12/index.php?action_kouhyou_detail_004_kani=true&JigyosyoCd=1291600292-00&ServiceCd=720&Type=search", "url2": "https://yukari-gr.jp/" }, "geometry": { "type": "Point", "coordinates": [ 140.370349800000014, 35.8515437 ] } },
{ "type": "Feature", "properties": { "内容": "老人デイサービス事業ゆたか苑【認知症対応型通所介護】千葉県佐倉市上志津原9", "url": "https://www.kaigokensaku.mhlw.go.jp/12/index.php?action_kouhyou_detail_004_kani=true&JigyosyoCd=1271700567-00&ServiceCd=720&Type=search", "url2": "https://www.yutakaen.or.jp" }, "geometry": { "type": "Point", "coordinates": [ 140.141916499999979, 35.7035767 ] } },
{ "type": "Feature", "properties": { "内容": "デイサービスきこえ染井野（認知症対応型）【認知症対応型通所介護】千葉県佐倉市染井野4-5-4", "url": "https://www.kaigokensaku.mhlw.go.jp/12/index.php?action_kouhyou_detail_004_kani=true&JigyosyoCd=1291700019-00&ServiceCd=720&Type=search", "url2": "http://www.shalom-kikoe.jp/" }, "geometry": { "type": "Point", "coordinates": [ 140.192622872439415, 35.716435240459035 ] } },
{ "type": "Feature", "properties": { "内容": "デイサービスきこえ染井野（認知症対応型Ⅱ）【認知症対応型通所介護】千葉県佐倉市染井野4-5-4", "url": "https://www.kaigokensaku.mhlw.go.jp/12/index.php?action_kouhyou_detail_004_kani=true&JigyosyoCd=1291700332-00&ServiceCd=720&Type=search", "url2": "http://www.shalom-kikoe.jp/" }, "geometry": { "type": "Point", "coordinates": [ 140.1927243, 35.7165496 ] } },
{ "type": "Feature", "properties": { "内容": "愛の家グループホーム佐倉西志津【認知症対応型通所介護】千葉県佐倉市西志津1-16-15", "url": "https://www.kaigokensaku.mhlw.go.jp/12/index.php?action_kouhyou_detail_004_kani=true&JigyosyoCd=1291700100-00&ServiceCd=720&Type=search", "url2": "https://www.mcsg.co.jp/" }, "geometry": { "type": "Point", "coordinates": [ 140.140683, 35.716747 ] } },
{ "type": "Feature", "properties": { "内容": "まさきデイサービスゆりの木苑【認知症対応型通所介護】千葉県東金市家徳752-9", "url": "https://www.kaigokensaku.mhlw.go.jp/12/index.php?action_kouhyou_detail_004_kani=true&JigyosyoCd=1291800082-00&ServiceCd=720&Type=search", "url2": "https://asai-healthcare-group.jp/yurinoki/" }, "geometry": { "type": "Point", "coordinates": [ 140.4015392, 35.5516523 ] } },
{ "type": "Feature", "properties": { "内容": "サンクレール谷津　デイサービスセンター【認知症対応型通所介護】千葉県習志野市谷津4-6-10", "url": "https://www.kaigokensaku.mhlw.go.jp/12/index.php?action_kouhyou_detail_004_kani=true&JigyosyoCd=1292100193-00&ServiceCd=720&Type=search", "url2": "https://care-net.biz/12/keibikai/" }, "geometry": { "type": "Point", "coordinates": [ 140.006263600000011, 35.6841375 ] } },
{ "type": "Feature", "properties": { "内容": "マイホーム習志野　デイサービスセンター【認知症対応型通所介護】千葉県習志野市屋敷1-1-1", "url": "https://www.kaigokensaku.mhlw.go.jp/12/index.php?action_kouhyou_detail_004_kani=true&JigyosyoCd=1272100668-00&ServiceCd=720&Type=search", "url2": "http://care-net.biz/12/keibikai" }, "geometry": { "type": "Point", "coordinates": [ 140.051240300000018, 35.6775892 ] } },
{ "type": "Feature", "properties": { "内容": "グループホーム谷津苑【認知症対応型通所介護】千葉県習志野市秋津5-5-6", "url": "https://www.kaigokensaku.mhlw.go.jp/12/index.php?action_kouhyou_detail_004_kani=true&JigyosyoCd=1292100037-00&ServiceCd=720&Type=search", "url2": "https://care-net.biz/12/welfare/" }, "geometry": { "type": "Point", "coordinates": [ 140.007318700000013, 35.6744984 ] } },
{ "type": "Feature", "properties": { "内容": "ゆいまーる習志野デイサービスセンター【認知症対応型通所介護】千葉県習志野市秋津3-5-1", "url": "https://www.kaigokensaku.mhlw.go.jp/12/index.php?action_kouhyou_detail_004_kani=true&JigyosyoCd=1292100094-00&ServiceCd=720&Type=search", "url2": "https://seiwaen.org/" }, "geometry": { "type": "Point", "coordinates": [ 140.017463, 35.6693809 ] } },
{ "type": "Feature", "properties": { "内容": "デイサービスセンター秋津【認知症対応型通所介護】千葉県習志野市秋津５－５－６", "url": "https://www.kaigokensaku.mhlw.go.jp/12/index.php?action_kouhyou_detail_004_kani=true&JigyosyoCd=1292100029-00&ServiceCd=720&Type=search", "url2": "http://care-net.biz/12/welfare/" }, "geometry": { "type": "Point", "coordinates": [ 140.00733880000007, 35.6745359 ] } },
{ "type": "Feature", "properties": { "内容": "デイサービスセンター　メタセ【認知症対応型通所介護】千葉県習志野市新栄1-10-2", "url": "https://www.kaigokensaku.mhlw.go.jp/12/index.php?action_kouhyou_detail_004_kani=true&JigyosyoCd=1292100045-00&ServiceCd=720&Type=search", "url2": "http://kyokuyukai.or.jp" }, "geometry": { "type": "Point", "coordinates": [ 140.0623501, 35.6898463 ] } },
{ "type": "Feature", "properties": { "内容": "愛の家グループホーム習志野奏の杜【認知症対応型通所介護】千葉県習志野市谷津7-12-45", "url": "https://www.kaigokensaku.mhlw.go.jp/12/index.php?action_kouhyou_detail_004_kani=true&JigyosyoCd=1292100102-00&ServiceCd=720&Type=search", "url2": "https://www.mcsg.co.jp" }, "geometry": { "type": "Point", "coordinates": [ 140.016173400000014, 35.6922037 ] } },
{ "type": "Feature", "properties": { "内容": "あいゆうデイサービス東山【認知症対応型通所介護】千葉県柏市東山2-8-15", "url": "https://www.kaigokensaku.mhlw.go.jp/12/index.php?action_kouhyou_detail_004_kani=true&JigyosyoCd=1292200282-00&ServiceCd=720&Type=search", "url2": null }, "geometry": { "type": "Point", "coordinates": [ 139.9522963, 35.8244946 ] } },
{ "type": "Feature", "properties": { "内容": "デイサービスセンター美乃里【認知症対応型通所介護】千葉県八千代市村上５７３－５", "url": "https://www.kaigokensaku.mhlw.go.jp/12/index.php?action_kouhyou_detail_004_kani=true&JigyosyoCd=1292600010-00&ServiceCd=720&Type=search", "url2": "https://www.bikou.net/" }, "geometry": { "type": "Point", "coordinates": [ 140.118848500000013, 35.7430558 ] } },
{ "type": "Feature", "properties": { "内容": "デイサービスセンター美乃里【認知症対応型通所介護】千葉県八千代市村上573－5", "url": "https://www.kaigokensaku.mhlw.go.jp/12/index.php?action_kouhyou_detail_004_kani=true&JigyosyoCd=1292600614-00&ServiceCd=720&Type=search", "url2": "https://www.bikou.net/" }, "geometry": { "type": "Point", "coordinates": [ 140.1188985, 35.743022899999985 ] } },
{ "type": "Feature", "properties": { "内容": "めいちゃんの家【認知症対応型通所介護】千葉県八千代市勝田台4-1-1-1F", "url": "https://www.kaigokensaku.mhlw.go.jp/12/index.php?action_kouhyou_detail_004_kani=true&JigyosyoCd=1292600499-00&ServiceCd=720&Type=search", "url2": "http:/www.azuki-careservice.com" }, "geometry": { "type": "Point", "coordinates": [ 140.1269604, 35.7056478 ] } },
{ "type": "Feature", "properties": { "内容": "ケアパートナーアスウェル八千代台【認知症対応型通所介護】千葉県八千代市八千代台南3-2-30エクセルシオール１Ｆ", "url": "https://www.kaigokensaku.mhlw.go.jp/12/index.php?action_kouhyou_detail_004_kani=true&JigyosyoCd=1292600226-00&ServiceCd=720&Type=search", "url2": "http://www.care-partner.com/" }, "geometry": { "type": "Point", "coordinates": [ 140.088172500000042, 35.697285 ] } },
{ "type": "Feature", "properties": { "内容": "デイサービスセンター　アンダンテ【認知症対応型通所介護】千葉県我孫子市布佐1152-1", "url": "https://www.kaigokensaku.mhlw.go.jp/12/index.php?action_kouhyou_detail_004_kani=true&JigyosyoCd=1292700208-00&ServiceCd=720&Type=search", "url2": null }, "geometry": { "type": "Point", "coordinates": [ 140.1330874, 35.8564221 ] } },
{ "type": "Feature", "properties": { "内容": "デイサービスげんき【認知症対応型通所介護】千葉県鴨川市横渚８７６-２", "url": "https://www.kaigokensaku.mhlw.go.jp/12/index.php?action_kouhyou_detail_004_kani=true&JigyosyoCd=1292800024-00&ServiceCd=720&Type=search", "url2": "https://oda-hp.com/" }, "geometry": { "type": "Point", "coordinates": [ 140.104777199999944, 35.1067682 ] } },
{ "type": "Feature", "properties": { "内容": "つばさデイサービスセンターえがお【認知症対応型通所介護】千葉県君津市貞元495", "url": "https://www.kaigokensaku.mhlw.go.jp/12/index.php?action_kouhyou_detail_004_kani=true&JigyosyoCd=1293000103-00&ServiceCd=720&Type=search", "url2": "http://allkaigo.com/allproject" }, "geometry": { "type": "Point", "coordinates": [ 139.911037699999952, 35.3127304 ] } },
{ "type": "Feature", "properties": { "内容": "つばさデイサービスセンター貞元【認知症対応型通所介護】千葉県君津市貞元495", "url": "https://www.kaigokensaku.mhlw.go.jp/12/index.php?action_kouhyou_detail_004_kani=true&JigyosyoCd=1273000743-00&ServiceCd=720&Type=search", "url2": "http://allkaigo.com/allproject/day-service-center-sadamoto" }, "geometry": { "type": "Point", "coordinates": [ 139.9046597, 35.3188923 ] } },
{ "type": "Feature", "properties": { "内容": "つばさデイサービスセンター君津【認知症対応型通所介護】千葉県君津市人見　3-6-19", "url": "https://www.kaigokensaku.mhlw.go.jp/12/index.php?action_kouhyou_detail_004_kani=true&JigyosyoCd=1293000012-00&ServiceCd=720&Type=search", "url2": "http://allkaigo.com/" }, "geometry": { "type": "Point", "coordinates": [ 139.871524099999988, 35.3314969 ] } },
{ "type": "Feature", "properties": { "内容": "デイサービス　わとなーる浦安【認知症対応型通所介護】千葉県浦安市富士見３丁目２３－１６特別養護老人ホーム　わとなーる浦安", "url": "https://www.kaigokensaku.mhlw.go.jp/12/index.php?action_kouhyou_detail_004_kani=true&JigyosyoCd=1293200117-00&ServiceCd=720&Type=search", "url2": "http://www.watona-ru.com" }, "geometry": { "type": "Point", "coordinates": [ 139.885980099999983, 35.645875600000011 ] } },
{ "type": "Feature", "properties": { "内容": "うらやす和楽苑認知症対応型通所介護【認知症対応型通所介護】千葉県浦安市当代島2－14－2", "url": "https://www.kaigokensaku.mhlw.go.jp/12/index.php?action_kouhyou_detail_004_kani=true&JigyosyoCd=1293200133-00&ServiceCd=720&Type=search", "url2": "http://www.urayasuwarakuen.com/" }, "geometry": { "type": "Point", "coordinates": [ 139.889812399999983, 35.6704151 ] } },
{ "type": "Feature", "properties": { "内容": "デイサービスはじめ【認知症対応型通所介護】千葉県浦安市高洲1-2-1", "url": "https://www.kaigokensaku.mhlw.go.jp/12/index.php?action_kouhyou_detail_004_kani=true&JigyosyoCd=1293200034-00&ServiceCd=720&Type=search", "url2": "https://www.maihamaclub.co.jp" }, "geometry": { "type": "Point", "coordinates": [ 139.914363800000046, 35.6413185 ] } },
{ "type": "Feature", "properties": { "内容": "グループホーム憩新棟【認知症対応型通所介護】千葉県袖ケ浦市横田１７０９－３", "url": "https://www.kaigokensaku.mhlw.go.jp/12/index.php?action_kouhyou_detail_004_kani=true&JigyosyoCd=1293400014-00&ServiceCd=720&Type=search", "url2": "https://ikoigroup.web.fc2.com/guide.html" }, "geometry": { "type": "Point", "coordinates": [ 140.0256286, 35.3964584 ] } },
{ "type": "Feature", "properties": { "内容": "さわやかデイサービス八街【認知症対応型通所介護】千葉県八街市富山1314-1352", "url": "https://www.kaigokensaku.mhlw.go.jp/12/index.php?action_kouhyou_detail_004_kani=true&JigyosyoCd=1293500052-00&ServiceCd=720&Type=search", "url2": "http://www.e-nicework.co.jp" }, "geometry": { "type": "Point", "coordinates": [ 140.301525099999907, 35.6703855 ] } },
{ "type": "Feature", "properties": { "内容": "リハモードテラス【認知症対応型通所介護】千葉県白井市根２３５番２号", "url": "https://www.kaigokensaku.mhlw.go.jp/12/index.php?action_kouhyou_detail_004_kani=true&JigyosyoCd=1294200207-00&ServiceCd=720&Type=search", "url2": "https://www.greenlife-inc.co.jp/" }, "geometry": { "type": "Point", "coordinates": [ 140.0391713, 35.7744646 ] } },
{ "type": "Feature", "properties": { "内容": "グループホームおたがいさま【認知症対応型通所介護】千葉県富里市御料694番地3", "url": "https://www.kaigokensaku.mhlw.go.jp/12/index.php?action_kouhyou_detail_004_kani=true&JigyosyoCd=1294000011-00&ServiceCd=720&Type=search", "url2": "http://care-net.biz/12/tomisatogroup/" }, "geometry": { "type": "Point", "coordinates": [ 140.367230899999981, 35.7172849 ] } },
{ "type": "Feature", "properties": { "内容": "グループホーム夢ほーむ【認知症対応型通所介護】千葉県南房総市千倉町南朝夷1661", "url": "https://www.kaigokensaku.mhlw.go.jp/12/index.php?action_kouhyou_detail_004_kani=true&JigyosyoCd=1298800028-00&ServiceCd=720&Type=search", "url2": "http://www.egao-group.jp/" }, "geometry": { "type": "Point", "coordinates": [ 139.95595789999993, 34.9595087 ] } },
{ "type": "Feature", "properties": { "内容": "デイサービスセンター　なぎホーム白浜【認知症対応型通所介護】千葉県南房総市白浜町根本1736-2グループホーム　なぎホーム白浜", "url": "https://www.kaigokensaku.mhlw.go.jp/12/index.php?action_kouhyou_detail_004_kani=true&JigyosyoCd=1298800176-00&ServiceCd=720&Type=search", "url2": "https://youandi.takaminefukushikai.com/%e9%ab%98%e5%b6%ba%e7%a6%8f%e7%a5%89%e4%bc%9a/" }, "geometry": { "type": "Point", "coordinates": [ 139.844869, 34.908408500000021 ] } },
{ "type": "Feature", "properties": { "内容": "デイホームやつか【認知症対応型通所介護】千葉県南房総市富浦町深名656-1", "url": "https://www.kaigokensaku.mhlw.go.jp/12/index.php?action_kouhyou_detail_004_kani=true&JigyosyoCd=1298800085-00&ServiceCd=720&Type=search", "url2": "https://www.makinomi.co.jp" }, "geometry": { "type": "Point", "coordinates": [ 139.8517574, 35.0403551 ] } },
{ "type": "Feature", "properties": { "内容": "デイサービスセンターおかげさま【認知症対応型通所介護】千葉県南房総市千倉町南朝夷1661", "url": "https://www.kaigokensaku.mhlw.go.jp/12/index.php?action_kouhyou_detail_004_kani=true&JigyosyoCd=1298800010-00&ServiceCd=720&Type=search", "url2": "http://www.egao-group.jp/" }, "geometry": { "type": "Point", "coordinates": [ 139.95595789999993, 34.9595087 ] } },
{ "type": "Feature", "properties": { "内容": "デイホーム天鼓【認知症対応型通所介護】千葉県匝瑳市飯倉台10-15", "url": "https://www.kaigokensaku.mhlw.go.jp/12/index.php?action_kouhyou_detail_004_kani=true&JigyosyoCd=1298700038-00&ServiceCd=720&Type=search", "url2": "https://suzuran-77.jimdofree.com/" }, "geometry": { "type": "Point", "coordinates": [ 140.522244099999966, 35.6903434 ] } },
{ "type": "Feature", "properties": { "内容": "九十九里ホームデイサービスセンター【認知症対応型通所介護】千葉県匝瑳市飯倉１９番地の１", "url": "https://www.kaigokensaku.mhlw.go.jp/12/index.php?action_kouhyou_detail_004_kani=true&JigyosyoCd=1271900092-00&ServiceCd=720&Type=search", "url2": "https://www.99-home.com/" }, "geometry": { "type": "Point", "coordinates": [ 140.523799899999972, 35.6865467 ] } },
{ "type": "Feature", "properties": { "内容": "はたらくデイ・１K【認知症対応型通所介護】千葉県香取市沢2452番1", "url": "https://www.kaigokensaku.mhlw.go.jp/12/index.php?action_kouhyou_detail_004_kani=true&JigyosyoCd=1298900166-00&ServiceCd=720&Type=search", "url2": null }, "geometry": { "type": "Point", "coordinates": [ 140.4665774, 35.8017513 ] } },
{ "type": "Feature", "properties": { "内容": "園芸デイサービスさんむ【認知症対応型通所介護】千葉県山武市小松2703-1", "url": "https://www.kaigokensaku.mhlw.go.jp/12/index.php?action_kouhyou_detail_004_kani=true&JigyosyoCd=1299000040-00&ServiceCd=720&Type=search", "url2": "http://engeiday-sanmu.com/" }, "geometry": { "type": "Point", "coordinates": [ 140.473466500000029, 35.591429 ] } },
{ "type": "Feature", "properties": { "内容": "さかえ通所介護サービスセンター【認知症対応型通所介護】千葉県印旛郡栄町安食２４２１", "url": "https://www.kaigokensaku.mhlw.go.jp/12/index.php?action_kouhyou_detail_004_kani=true&JigyosyoCd=1274400041-00&ServiceCd=720&Type=search", "url2": "http://www.ikusei-g.com" }, "geometry": { "type": "Point", "coordinates": [ 140.249086199999965, 35.834418 ] } },
{ "type": "Feature", "properties": { "内容": "多古デイサービスセンターおたがいさま【認知症対応型通所介護】千葉県香取郡多古町川島２７４番地", "url": "https://www.kaigokensaku.mhlw.go.jp/12/index.php?action_kouhyou_detail_004_kani=true&JigyosyoCd=1295100018-00&ServiceCd=720&Type=search", "url2": "http://care-net.biz/12/tomisatogroup/" }, "geometry": { "type": "Point", "coordinates": [ 140.522554799999966, 35.768273 ] } },
{ "type": "Feature", "properties": { "内容": "デイサービスセンター第二松丘園【認知症対応型通所介護】千葉県山武郡横芝光町宮川12103-1", "url": "https://www.kaigokensaku.mhlw.go.jp/12/index.php?action_kouhyou_detail_004_kani=true&JigyosyoCd=1299100030-00&ServiceCd=720&Type=search", "url2": "https://www.99-home.com/" }, "geometry": { "type": "Point", "coordinates": [ 140.503985100000023, 35.6577655 ] } }
]
}
