{
"type": "FeatureCollection",
"name": "geo_12_特定施設入居者生活介護（軽費老人ホーム（外部サービス利用型））",
"crs": { "type": "name", "properties": { "name": "urn:ogc:def:crs:OGC:1.3:CRS84" } },
"features": [
{ "type": "Feature", "properties": { "内容": "ケアハウス第２かすが苑【特定施設入居者生活介護（軽費老人ホーム（外部サービス利用型））】千葉県銚子市春日町１９４７－３", "url": "https://www.kaigokensaku.mhlw.go.jp/12/index.php?action_kouhyou_detail_004_kani=true&JigyosyoCd=1270700881-00&ServiceCd=&Type=search", "url2": "https://kasuga-en.jp/" }, "geometry": { "type": "Point", "coordinates": [ 140.816597499999943, 35.7202629 ] } }
]
}
