{
"type": "FeatureCollection",
"name": "geo_12_高校",
"crs": { "type": "name", "properties": { "name": "urn:ogc:def:crs:EPSG::6668" } },
"features": [
{ "type": "Feature", "properties": { "P29_001": "12101", "P29_002": "D112210000066", "P29_003": "16004", "P29_004": "千葉県立千葉工業高等学校", "P29_005": "千葉県千葉市中央区今井町1478", "P29_006": "2", "P29_007": "0", "P29_008": "00", "P29_009": null }, "geometry": { "type": "Point", "coordinates": [ 140.140812565907339, 35.57074641177325 ] } },
{ "type": "Feature", "properties": { "P29_001": "12101", "P29_002": "D112210000075", "P29_003": "16004", "P29_004": "千葉県立千葉南高等学校", "P29_005": "千葉県千葉市中央区花輪町45-3", "P29_006": "2", "P29_007": "0", "P29_008": "00", "P29_009": null }, "geometry": { "type": "Point", "coordinates": [ 140.163624088933261, 35.576881629261266 ] } },
{ "type": "Feature", "properties": { "P29_001": "12101", "P29_002": "D112210000128", "P29_003": "16004", "P29_004": "千葉県立生浜高等学校", "P29_005": "千葉県千葉市中央区塩田町372", "P29_006": "2", "P29_007": "0", "P29_008": "00", "P29_009": null }, "geometry": { "type": "Point", "coordinates": [ 140.129685151846729, 35.560284507104356 ] } },
{ "type": "Feature", "properties": { "P29_001": "12105", "P29_002": "D112210000173", "P29_003": "16004", "P29_004": "千葉県立土気高等学校", "P29_005": "千葉県千葉市緑区あすみが丘東2-24-1", "P29_006": "2", "P29_007": "0", "P29_008": "00", "P29_009": null }, "geometry": { "type": "Point", "coordinates": [ 140.274366145099265, 35.523430113796728 ] } },
{ "type": "Feature", "properties": { "P29_001": "12205", "P29_002": "D112210000388", "P29_003": "16004", "P29_004": "千葉県立安房高等学校", "P29_005": "千葉県館山市八幡385", "P29_006": "2", "P29_007": "0", "P29_008": "00", "P29_009": null }, "geometry": { "type": "Point", "coordinates": [ 139.866449173486643, 35.000345522753115 ] } },
{ "type": "Feature", "properties": { "P29_001": "12205", "P29_002": "D112210000397", "P29_003": "16004", "P29_004": "千葉県立館山総合高等学校", "P29_005": "千葉県館山市北条106", "P29_006": "2", "P29_007": "0", "P29_008": "00", "P29_009": null }, "geometry": { "type": "Point", "coordinates": [ 139.874387414277408, 35.000818470988314 ] } },
{ "type": "Feature", "properties": { "P29_001": "12206", "P29_002": "D112210000413", "P29_003": "16004", "P29_004": "千葉県立木更津東高等学校", "P29_005": "千葉県木更津市木更津2-2-45", "P29_006": "2", "P29_007": "0", "P29_008": "00", "P29_009": null }, "geometry": { "type": "Point", "coordinates": [ 139.931156143974761, 35.38269405128262 ] } },
{ "type": "Feature", "properties": { "P29_001": "12210", "P29_002": "D112210000529", "P29_003": "16004", "P29_004": "千葉県立長生高等学校", "P29_005": "千葉県茂原市高師286", "P29_006": "2", "P29_007": "0", "P29_008": "00", "P29_009": null }, "geometry": { "type": "Point", "coordinates": [ 140.298285750993443, 35.433187167590447 ] } },
{ "type": "Feature", "properties": { "P29_001": "12210", "P29_002": "D112210000547", "P29_003": "16004", "P29_004": "千葉県立茂原樟陽高等学校", "P29_005": "千葉県茂原市上林283", "P29_006": "2", "P29_007": "0", "P29_008": "00", "P29_009": null }, "geometry": { "type": "Point", "coordinates": [ 140.303547605281238, 35.440068512393452 ] } },
{ "type": "Feature", "properties": { "P29_001": "12219", "P29_002": "D112210000761", "P29_003": "16004", "P29_004": "千葉県立京葉高等学校", "P29_005": "千葉県市原市島野222", "P29_006": "2", "P29_007": "0", "P29_008": "00", "P29_009": null }, "geometry": { "type": "Point", "coordinates": [ 140.081924801048928, 35.498521547585 ] } },
{ "type": "Feature", "properties": { "P29_001": "12219", "P29_002": "D112210000789", "P29_003": "16004", "P29_004": "千葉県立姉崎高等学校", "P29_005": "千葉県市原市姉崎2632", "P29_006": "2", "P29_007": "0", "P29_008": "00", "P29_009": null }, "geometry": { "type": "Point", "coordinates": [ 140.057935546218033, 35.475159449267395 ] } },
{ "type": "Feature", "properties": { "P29_001": "12219", "P29_002": "D112210000798", "P29_003": "16004", "P29_004": "千葉県立市原八幡高等学校", "P29_005": "千葉県市原市八幡1877-1", "P29_006": "2", "P29_007": "0", "P29_008": "00", "P29_009": null }, "geometry": { "type": "Point", "coordinates": [ 140.133262603637206, 35.540404153243337 ] } },
{ "type": "Feature", "properties": { "P29_001": "12223", "P29_002": "D112210000887", "P29_003": "16004", "P29_004": "千葉県立長狭高等学校", "P29_005": "千葉県鴨川市横渚100", "P29_006": "2", "P29_007": "0", "P29_008": "00", "P29_009": null }, "geometry": { "type": "Point", "coordinates": [ 140.096589162222585, 35.10821454169448 ] } },
{ "type": "Feature", "properties": { "P29_001": "12225", "P29_002": "D112210000921", "P29_003": "16004", "P29_004": "千葉県立君津青葉高等学校", "P29_005": "千葉県君津市青柳48", "P29_006": "2", "P29_007": "0", "P29_008": "00", "P29_009": null }, "geometry": { "type": "Point", "coordinates": [ 140.071838142910963, 35.301131292063388 ] } },
{ "type": "Feature", "properties": { "P29_001": "12226", "P29_002": "D112210000949", "P29_003": "16004", "P29_004": "千葉県立天羽高等学校", "P29_005": "千葉県富津市数馬229", "P29_006": "2", "P29_007": "0", "P29_008": "00", "P29_009": null }, "geometry": { "type": "Point", "coordinates": [ 139.880610067082642, 35.217427336610768 ] } },
{ "type": "Feature", "properties": { "P29_001": "12226", "P29_002": "D112210000958", "P29_003": "16004", "P29_004": "千葉県立君津商業高等学校", "P29_005": "千葉県富津市岩瀬1172", "P29_006": "2", "P29_007": "0", "P29_008": "00", "P29_009": null }, "geometry": { "type": "Point", "coordinates": [ 139.862133012809068, 35.289745047830166 ] } },
{ "type": "Feature", "properties": { "P29_001": "12239", "P29_002": "D112210001136", "P29_003": "16004", "P29_004": "千葉県立大網高等学校", "P29_005": "千葉県大網白里市大網435-1", "P29_006": "2", "P29_007": "0", "P29_008": "00", "P29_009": null }, "geometry": { "type": "Point", "coordinates": [ 140.317740136320879, 35.528251140032069 ] } },
{ "type": "Feature", "properties": { "P29_001": "12441", "P29_002": "D112210001154", "P29_003": "16004", "P29_004": "千葉県立大多喜高等学校", "P29_005": "千葉県夷隅郡大多喜町大多喜481", "P29_006": "2", "P29_007": "0", "P29_008": "00", "P29_009": null }, "geometry": { "type": "Point", "coordinates": [ 140.240730808613307, 35.285742460128354 ] } },
{ "type": "Feature", "properties": { "P29_001": "12234", "P29_002": "D112210001172", "P29_003": "16004", "P29_004": "千葉県立安房拓心高等学校", "P29_005": "千葉県南房総市和田町海発1604", "P29_006": "2", "P29_007": "0", "P29_008": "00", "P29_009": null }, "geometry": { "type": "Point", "coordinates": [ 139.986052581004031, 35.020937318527068 ] } },
{ "type": "Feature", "properties": { "P29_001": "12101", "P29_002": "D112310000028", "P29_003": "16004", "P29_004": "千葉明徳高等学校", "P29_005": "千葉県千葉市中央区南生実町1412", "P29_006": "4", "P29_007": "0", "P29_008": "00", "P29_009": null }, "geometry": { "type": "Point", "coordinates": [ 140.154596363439708, 35.560618861191699 ] } },
{ "type": "Feature", "properties": { "P29_001": "12205", "P29_002": "D112310000224", "P29_003": "16004", "P29_004": "千葉県安房西高等学校", "P29_005": "千葉県館山市北条2311-3", "P29_006": "4", "P29_007": "0", "P29_008": "00", "P29_009": null }, "geometry": { "type": "Point", "coordinates": [ 139.861058006165052, 34.99705266274028 ] } },
{ "type": "Feature", "properties": { "P29_001": "12223", "P29_002": "D112310000475", "P29_003": "16004", "P29_004": "鴨川令徳高等学校", "P29_005": "千葉県鴨川市横渚815", "P29_006": "4", "P29_007": "0", "P29_008": "00", "P29_009": null }, "geometry": { "type": "Point", "coordinates": [ 140.107764350397389, 35.107341534672976 ] } },
{ "type": "Feature", "properties": { "P29_001": "12101", "P29_002": "D112210000011", "P29_003": "16004", "P29_004": "千葉県立千葉高等学校", "P29_005": "千葉県千葉市中央区葛城1-5-2", "P29_006": "2", "P29_007": "0", "P29_008": "00", "P29_009": null }, "geometry": { "type": "Point", "coordinates": [ 140.128377164991946, 35.599935837217167 ] } },
{ "type": "Feature", "properties": { "P29_001": "12103", "P29_002": "D112210000020", "P29_003": "16004", "P29_004": "千葉県立千葉女子高等学校", "P29_005": "千葉県千葉市稲毛区小仲台5-10-1", "P29_006": "2", "P29_007": "0", "P29_008": "00", "P29_009": null }, "geometry": { "type": "Point", "coordinates": [ 140.100741538810126, 35.640779988485058 ] } },
{ "type": "Feature", "properties": { "P29_001": "12103", "P29_002": "D112210000039", "P29_003": "16004", "P29_004": "千葉県立千葉東高等学校", "P29_005": "千葉県千葉市稲毛区轟町1-18-52", "P29_006": "2", "P29_007": "0", "P29_008": "00", "P29_009": null }, "geometry": { "type": "Point", "coordinates": [ 140.110860271066883, 35.625918409798096 ] } },
{ "type": "Feature", "properties": { "P29_001": "12101", "P29_002": "D112210000048", "P29_003": "16004", "P29_004": "千葉県立千葉商業高等学校", "P29_005": "千葉県千葉市中央区松波2-22-48", "P29_006": "2", "P29_007": "0", "P29_008": "00", "P29_009": null }, "geometry": { "type": "Point", "coordinates": [ 140.108005940564283, 35.6212214901701 ] } },
{ "type": "Feature", "properties": { "P29_001": "12103", "P29_002": "D112210000057", "P29_003": "16004", "P29_004": "千葉県立京葉工業高等学校", "P29_005": "千葉県千葉市稲毛区穴川4-11-32", "P29_006": "2", "P29_007": "0", "P29_008": "00", "P29_009": null }, "geometry": { "type": "Point", "coordinates": [ 140.105087629645055, 35.638039554468698 ] } },
{ "type": "Feature", "properties": { "P29_001": "12104", "P29_002": "D112210000100", "P29_003": "16004", "P29_004": "千葉県立若松高等学校", "P29_005": "千葉県千葉市若葉区若松町429", "P29_006": "2", "P29_007": "0", "P29_008": "00", "P29_009": null }, "geometry": { "type": "Point", "coordinates": [ 140.158796886079188, 35.642868095093803 ] } },
{ "type": "Feature", "properties": { "P29_001": "12104", "P29_002": "D112210000119", "P29_003": "16004", "P29_004": "千葉県立千城台高等学校", "P29_005": "千葉県千葉市若葉区千城台西2-1-1", "P29_006": "2", "P29_007": "0", "P29_008": "00", "P29_009": null }, "geometry": { "type": "Point", "coordinates": [ 140.188113875936921, 35.621154874575467 ] } },
{ "type": "Feature", "properties": { "P29_001": "12106", "P29_002": "D112210000137", "P29_003": "16004", "P29_004": "千葉県立磯辺高等学校", "P29_005": "千葉県千葉市美浜区磯辺2-7-1", "P29_006": "2", "P29_007": "0", "P29_008": "00", "P29_009": null }, "geometry": { "type": "Point", "coordinates": [ 140.058364412570882, 35.626039865343429 ] } },
{ "type": "Feature", "properties": { "P29_001": "12104", "P29_002": "D112210000146", "P29_003": "16004", "P29_004": "千葉県立泉高等学校", "P29_005": "千葉県千葉市若葉区高根町875-1", "P29_006": "2", "P29_007": "0", "P29_008": "00", "P29_009": null }, "geometry": { "type": "Point", "coordinates": [ 140.210217177357606, 35.602152163401954 ] } },
{ "type": "Feature", "properties": { "P29_001": "12104", "P29_002": "D112210000164", "P29_003": "16004", "P29_004": "千葉県立千葉大宮高等学校", "P29_005": "千葉県千葉市若葉区大宮町2699-1", "P29_006": "2", "P29_007": "0", "P29_008": "00", "P29_009": null }, "geometry": { "type": "Point", "coordinates": [ 140.169924768629613, 35.602513153898997 ] } },
{ "type": "Feature", "properties": { "P29_001": "12106", "P29_002": "D112210000182", "P29_003": "16004", "P29_004": "千葉県立千葉西高等学校", "P29_005": "千葉県千葉市美浜区磯辺3-30-3", "P29_006": "2", "P29_007": "0", "P29_008": "00", "P29_009": null }, "geometry": { "type": "Point", "coordinates": [ 140.053436975185491, 35.627158832382783 ] } },
{ "type": "Feature", "properties": { "P29_001": "12103", "P29_002": "D112210001234", "P29_003": "16004", "P29_004": "千葉市立千葉高等学校", "P29_005": "千葉県千葉市稲毛区小仲台9-46-1", "P29_006": "3", "P29_007": "0", "P29_008": "00", "P29_009": null }, "geometry": { "type": "Point", "coordinates": [ 140.100237721960468, 35.64457412141951 ] } },
{ "type": "Feature", "properties": { "P29_001": "12106", "P29_002": "D112210001243", "P29_003": "16004", "P29_004": "千葉市立稲毛高等学校", "P29_005": "千葉県千葉市美浜区高浜3-1-1", "P29_006": "3", "P29_007": "0", "P29_008": "00", "P29_009": null }, "geometry": { "type": "Point", "coordinates": [ 140.068272553442881, 35.620234958347041 ] } },
{ "type": "Feature", "properties": { "P29_001": "12103", "P29_002": "D112310000019", "P29_003": "16004", "P29_004": "千葉経済大学附属高等学校", "P29_005": "千葉県千葉市稲毛区轟町4-3-30", "P29_006": "4", "P29_007": "0", "P29_008": "00", "P29_009": null }, "geometry": { "type": "Point", "coordinates": [ 140.111131683400856, 35.62695989662631 ] } },
{ "type": "Feature", "properties": { "P29_001": "12103", "P29_002": "D112310000037", "P29_003": "16004", "P29_004": "敬愛学園高等学校", "P29_005": "千葉県千葉市稲毛区穴川1-5-21", "P29_006": "4", "P29_007": "0", "P29_008": "00", "P29_009": null }, "geometry": { "type": "Point", "coordinates": [ 140.104231918582542, 35.633892211520305 ] } },
{ "type": "Feature", "properties": { "P29_001": "12101", "P29_002": "D112310000046", "P29_003": "16004", "P29_004": "植草学園大学附属高等学校", "P29_005": "千葉県千葉市中央区弁天2-8-9", "P29_006": "4", "P29_007": "0", "P29_008": "00", "P29_009": null }, "geometry": { "type": "Point", "coordinates": [ 140.115272441705315, 35.616003046859788 ] } },
{ "type": "Feature", "properties": { "P29_001": "12101", "P29_002": "D112310000055", "P29_003": "16004", "P29_004": "千葉聖心高等学校", "P29_005": "千葉県千葉市中央区道場北1-17-6", "P29_006": "4", "P29_007": "0", "P29_008": "00", "P29_009": null }, "geometry": { "type": "Point", "coordinates": [ 140.129612280628834, 35.614439488084003 ] } },
{ "type": "Feature", "properties": { "P29_001": "12101", "P29_002": "D112310000082", "P29_003": "16004", "P29_004": "明聖高等学校", "P29_005": "千葉県千葉市中央区本千葉町10-23", "P29_006": "4", "P29_007": "0", "P29_008": "00", "P29_009": null }, "geometry": { "type": "Point", "coordinates": [ 140.1199727229465, 35.605152214754554 ] } },
{ "type": "Feature", "properties": { "P29_001": "12104", "P29_002": "D112310000091", "P29_003": "16004", "P29_004": "桜林高等学校", "P29_005": "千葉県千葉市若葉区桜木北1-17-32", "P29_006": "4", "P29_007": "0", "P29_008": "00", "P29_009": null }, "geometry": { "type": "Point", "coordinates": [ 140.164559949017189, 35.627987874262381 ] } },
{ "type": "Feature", "properties": { "P29_001": "12203", "P29_002": "D112210000235", "P29_003": "16004", "P29_004": "千葉県立国府台高等学校", "P29_005": "千葉県市川市国府台2-4-1", "P29_006": "2", "P29_007": "0", "P29_008": "00", "P29_009": null }, "geometry": { "type": "Point", "coordinates": [ 139.904495871696923, 35.745098186401016 ] } },
{ "type": "Feature", "properties": { "P29_001": "12203", "P29_002": "D112210000244", "P29_003": "16004", "P29_004": "千葉県立国分高等学校", "P29_005": "千葉県市川市稲越2-2-1", "P29_006": "2", "P29_007": "0", "P29_008": "00", "P29_009": null }, "geometry": { "type": "Point", "coordinates": [ 139.927882531307006, 35.753281549510746 ] } },
{ "type": "Feature", "properties": { "P29_001": "12203", "P29_002": "D112210000253", "P29_003": "16004", "P29_004": "千葉県立行徳高等学校", "P29_005": "千葉県市川市塩浜4-1-1", "P29_006": "2", "P29_007": "0", "P29_008": "00", "P29_009": null }, "geometry": { "type": "Point", "coordinates": [ 139.913533272871717, 35.665491842954943 ] } },
{ "type": "Feature", "properties": { "P29_001": "12203", "P29_002": "D112210000271", "P29_003": "16004", "P29_004": "千葉県立市川南高等学校", "P29_005": "千葉県市川市高谷1509", "P29_006": "2", "P29_007": "0", "P29_008": "00", "P29_009": null }, "geometry": { "type": "Point", "coordinates": [ 139.944273126484859, 35.69330511150595 ] } },
{ "type": "Feature", "properties": { "P29_001": "12204", "P29_002": "D112210000333", "P29_003": "16004", "P29_004": "千葉県立船橋二和高等学校", "P29_005": "千葉県船橋市二和西1-3-1", "P29_006": "2", "P29_007": "0", "P29_008": "00", "P29_009": null }, "geometry": { "type": "Point", "coordinates": [ 140.011090007461689, 35.745354886361319 ] } },
{ "type": "Feature", "properties": { "P29_001": "12207", "P29_002": "D112210000422", "P29_003": "16004", "P29_004": "千葉県立松戸高等学校", "P29_005": "千葉県松戸市中和倉590-1", "P29_006": "2", "P29_007": "0", "P29_008": "00", "P29_009": null }, "geometry": { "type": "Point", "coordinates": [ 139.926614566306029, 35.802053156197132 ] } },
{ "type": "Feature", "properties": { "P29_001": "12207", "P29_002": "D112210000431", "P29_003": "16004", "P29_004": "千葉県立小金高等学校", "P29_005": "千葉県松戸市新松戸北2-14-1", "P29_006": "2", "P29_007": "0", "P29_008": "00", "P29_009": null }, "geometry": { "type": "Point", "coordinates": [ 139.912243164342016, 35.833454914547374 ] } },
{ "type": "Feature", "properties": { "P29_001": "12207", "P29_002": "D112210000440", "P29_003": "16004", "P29_004": "千葉県立松戸国際高等学校", "P29_005": "千葉県松戸市五香西5-6-1", "P29_006": "2", "P29_007": "0", "P29_008": "00", "P29_009": null }, "geometry": { "type": "Point", "coordinates": [ 139.955902211211139, 35.786277798256826 ] } },
{ "type": "Feature", "properties": { "P29_001": "12207", "P29_002": "D112210000468", "P29_003": "16004", "P29_004": "千葉県立松戸六実高等学校", "P29_005": "千葉県松戸市六高台5-150-1", "P29_006": "2", "P29_007": "0", "P29_008": "00", "P29_009": null }, "geometry": { "type": "Point", "coordinates": [ 139.993706508582392, 35.8014642864173 ] } },
{ "type": "Feature", "properties": { "P29_001": "12207", "P29_002": "D112210000477", "P29_003": "16004", "P29_004": "千葉県立松戸馬橋高等学校", "P29_005": "千葉県松戸市旭町1-7-1", "P29_006": "2", "P29_007": "0", "P29_008": "00", "P29_009": null }, "geometry": { "type": "Point", "coordinates": [ 139.899974131158473, 35.814477437417978 ] } },
{ "type": "Feature", "properties": { "P29_001": "12208", "P29_002": "D112210000495", "P29_003": "16004", "P29_004": "千葉県立野田中央高等学校", "P29_005": "千葉県野田市谷津713", "P29_006": "2", "P29_007": "0", "P29_008": "00", "P29_009": null }, "geometry": { "type": "Point", "coordinates": [ 139.855549845859855, 35.974618461554662 ] } },
{ "type": "Feature", "properties": { "P29_001": "12217", "P29_002": "D112210000707", "P29_003": "16004", "P29_004": "千葉県立柏高等学校", "P29_005": "千葉県柏市布施254", "P29_006": "2", "P29_007": "0", "P29_008": "00", "P29_009": null }, "geometry": { "type": "Point", "coordinates": [ 139.989455607788045, 35.892651499245481 ] } },
{ "type": "Feature", "properties": { "P29_001": "12217", "P29_002": "D112210000725", "P29_003": "16004", "P29_004": "千葉県立柏陵高等学校", "P29_005": "千葉県柏市逆井444-1", "P29_006": "2", "P29_007": "0", "P29_008": "00", "P29_009": null }, "geometry": { "type": "Point", "coordinates": [ 139.981175736297956, 35.810509908003326 ] } },
{ "type": "Feature", "properties": { "P29_001": "12217", "P29_002": "D112210000743", "P29_003": "16004", "P29_004": "千葉県立柏の葉高等学校", "P29_005": "千葉県柏市柏の葉6-1", "P29_006": "2", "P29_007": "0", "P29_008": "00", "P29_009": null }, "geometry": { "type": "Point", "coordinates": [ 139.944721721056794, 35.89203842966355 ] } },
{ "type": "Feature", "properties": { "P29_001": "12220", "P29_002": "D112210000805", "P29_003": "16004", "P29_004": "千葉県立流山高等学校", "P29_005": "千葉県流山市東初石2-98", "P29_006": "2", "P29_007": "0", "P29_008": "00", "P29_009": null }, "geometry": { "type": "Point", "coordinates": [ 139.919055821850947, 35.889964259989981 ] } },
{ "type": "Feature", "properties": { "P29_001": "12220", "P29_002": "D112210000823", "P29_003": "16004", "P29_004": "千葉県立流山北高等学校", "P29_005": "千葉県流山市中野久木7-1", "P29_006": "2", "P29_007": "0", "P29_008": "00", "P29_009": null }, "geometry": { "type": "Point", "coordinates": [ 139.895562999543074, 35.895286187712891 ] } },
{ "type": "Feature", "properties": { "P29_001": "12224", "P29_002": "D112210000896", "P29_003": "16004", "P29_004": "千葉県立鎌ヶ谷高等学校", "P29_005": "千葉県鎌ケ谷市東道野辺1-4-1", "P29_006": "2", "P29_007": "0", "P29_008": "00", "P29_009": null }, "geometry": { "type": "Point", "coordinates": [ 139.994830946857576, 35.757344042422233 ] } },
{ "type": "Feature", "properties": { "P29_001": "12208", "P29_002": "D112210001029", "P29_003": "16004", "P29_004": "千葉県立関宿高等学校", "P29_005": "千葉県野田市木間ヶ瀬4376", "P29_006": "2", "P29_007": "0", "P29_008": "01", "P29_009": null }, "geometry": { "type": "Point", "coordinates": [ 139.8393834107506, 36.012922998892172 ] } },
{ "type": "Feature", "properties": { "P29_001": "12232", "P29_002": "D112210001056", "P29_003": "16004", "P29_004": "千葉県立白井高等学校", "P29_005": "千葉県白井市池の上1-8-1", "P29_006": "2", "P29_007": "0", "P29_008": "00", "P29_009": null }, "geometry": { "type": "Point", "coordinates": [ 140.055969560415804, 35.776464388108835 ] } },
{ "type": "Feature", "properties": { "P29_001": "12204", "P29_002": "D112210001190", "P29_003": "16004", "P29_004": "千葉県立船橋啓明高等学校", "P29_005": "千葉県船橋市旭町333", "P29_006": "2", "P29_007": "0", "P29_008": "00", "P29_009": null }, "geometry": { "type": "Point", "coordinates": [ 139.984507675366444, 35.731550615662265 ] } },
{ "type": "Feature", "properties": { "P29_001": "12203", "P29_002": "D112210001207", "P29_003": "16004", "P29_004": "千葉県立市川昴高等学校", "P29_005": "千葉県市川市東国分1-1-1", "P29_006": "2", "P29_007": "0", "P29_008": "00", "P29_009": null }, "geometry": { "type": "Point", "coordinates": [ 139.923389731585644, 35.739760369263323 ] } },
{ "type": "Feature", "properties": { "P29_001": "12207", "P29_002": "D112210001216", "P29_003": "16004", "P29_004": "千葉県立松戸向陽高等学校", "P29_005": "千葉県松戸市秋山682", "P29_006": "2", "P29_007": "0", "P29_008": "00", "P29_009": null }, "geometry": { "type": "Point", "coordinates": [ 139.923956590072919, 35.766090667388127 ] } },
{ "type": "Feature", "properties": { "P29_001": "12222", "P29_002": "D112210001225", "P29_003": "16004", "P29_004": "千葉県立我孫子東高等学校", "P29_005": "千葉県我孫子市新々田172", "P29_006": "2", "P29_007": "0", "P29_008": "00", "P29_009": null }, "geometry": { "type": "Point", "coordinates": [ 140.130020434951547, 35.844384460873826 ] } },
{ "type": "Feature", "properties": { "P29_001": "12207", "P29_002": "D112210001270", "P29_003": "16004", "P29_004": "松戸市立松戸高等学校", "P29_005": "千葉県松戸市紙敷2-7-5", "P29_006": "3", "P29_007": "0", "P29_008": "00", "P29_009": null }, "geometry": { "type": "Point", "coordinates": [ 139.950759774068842, 35.776336657149905 ] } },
{ "type": "Feature", "properties": { "P29_001": "12217", "P29_002": "D112210001298", "P29_003": "16004", "P29_004": "柏市立柏高等学校", "P29_005": "千葉県柏市船戸山高野325-1", "P29_006": "3", "P29_007": "0", "P29_008": "00", "P29_009": null }, "geometry": { "type": "Point", "coordinates": [ 139.940226855035149, 35.924274641187573 ] } },
{ "type": "Feature", "properties": { "P29_001": "12203", "P29_002": "D112310000108", "P29_003": "16004", "P29_004": "昭和学院高等学校", "P29_005": "千葉県市川市東菅野2-17-1", "P29_006": "4", "P29_007": "0", "P29_008": "00", "P29_009": null }, "geometry": { "type": "Point", "coordinates": [ 139.930890011702701, 35.73342141954803 ] } },
{ "type": "Feature", "properties": { "P29_001": "12203", "P29_002": "D112310000117", "P29_003": "16004", "P29_004": "市川高等学校", "P29_005": "千葉県市川市本北方2-38-1", "P29_006": "4", "P29_007": "0", "P29_008": "00", "P29_009": null }, "geometry": { "type": "Point", "coordinates": [ 139.947020299329665, 35.73238367171075 ] } },
{ "type": "Feature", "properties": { "P29_001": "12203", "P29_002": "D112310000135", "P29_003": "16004", "P29_004": "日出学園高等学校", "P29_005": "千葉県市川市菅野3-23-1", "P29_006": "4", "P29_007": "0", "P29_008": "00", "P29_009": null }, "geometry": { "type": "Point", "coordinates": [ 139.917617020701272, 35.732550157854917 ] } },
{ "type": "Feature", "properties": { "P29_001": "12203", "P29_002": "D112310000144", "P29_003": "16004", "P29_004": "千葉商科大学付属高等学校", "P29_005": "千葉県市川市中国分2-10-1", "P29_006": "4", "P29_007": "0", "P29_008": "00", "P29_009": null }, "geometry": { "type": "Point", "coordinates": [ 139.911113247650462, 35.749499870631652 ] } },
{ "type": "Feature", "properties": { "P29_001": "12203", "P29_002": "D112310000153", "P29_003": "16004", "P29_004": "国府台女子学院高等部", "P29_005": "千葉県市川市菅野3-24-1", "P29_006": "4", "P29_007": "0", "P29_008": "00", "P29_009": null }, "geometry": { "type": "Point", "coordinates": [ 139.916057248382259, 35.732084273970337 ] } },
{ "type": "Feature", "properties": { "P29_001": "12203", "P29_002": "D112310000162", "P29_003": "16004", "P29_004": "不二女子高等学校", "P29_005": "千葉県市川市八幡4-5-7", "P29_006": "4", "P29_007": "0", "P29_008": "00", "P29_009": null }, "geometry": { "type": "Point", "coordinates": [ 139.929407383841834, 35.724704917664177 ] } },
{ "type": "Feature", "properties": { "P29_001": "12207", "P29_002": "D112310000279", "P29_003": "16004", "P29_004": "専修大学松戸高等学校", "P29_005": "千葉県松戸市上本郷2-3621", "P29_006": "4", "P29_007": "0", "P29_008": "00", "P29_009": null }, "geometry": { "type": "Point", "coordinates": [ 139.920564449347978, 35.798961168400716 ] } },
{ "type": "Feature", "properties": { "P29_001": "12208", "P29_002": "D112310000304", "P29_003": "16004", "P29_004": "あずさ第一高等学校", "P29_005": "千葉県野田市野田405-1", "P29_006": "4", "P29_007": "0", "P29_008": "00", "P29_009": null }, "geometry": { "type": "Point", "coordinates": [ 139.867135196712013, 35.945782424153634 ] } },
{ "type": "Feature", "properties": { "P29_001": "12217", "P29_002": "D112310000377", "P29_003": "16004", "P29_004": "芝浦工業大学柏高等学校", "P29_005": "千葉県柏市増尾700", "P29_006": "4", "P29_007": "0", "P29_008": "00", "P29_009": null }, "geometry": { "type": "Point", "coordinates": [ 139.985674527553272, 35.84076673949059 ] } },
{ "type": "Feature", "properties": { "P29_001": "12217", "P29_002": "D112310000395", "P29_003": "16004", "P29_004": "流通経済大学付属柏高等学校", "P29_005": "千葉県柏市十余二1-20", "P29_006": "4", "P29_007": "0", "P29_008": "00", "P29_009": null }, "geometry": { "type": "Point", "coordinates": [ 139.927940752142575, 35.906694800293899 ] } },
{ "type": "Feature", "properties": { "P29_001": "12227", "P29_002": "D112310000509", "P29_003": "16004", "P29_004": "東京学館浦安高等学校", "P29_005": "千葉県浦安市高洲1-23-1", "P29_006": "4", "P29_007": "0", "P29_008": "00", "P29_009": null }, "geometry": { "type": "Point", "coordinates": [ 139.913084148591253, 35.639528053833686 ] } },
{ "type": "Feature", "properties": { "P29_001": "12217", "P29_002": "D112310000536", "P29_003": "16004", "P29_004": "二松学舎大学附属柏高等学校", "P29_005": "千葉県柏市大井2590", "P29_006": "4", "P29_007": "0", "P29_008": "00", "P29_009": null }, "geometry": { "type": "Point", "coordinates": [ 140.012090069434834, 35.852022005067816 ] } },
{ "type": "Feature", "properties": { "P29_001": "12204", "P29_002": "D112210000299", "P29_003": "16004", "P29_004": "千葉県立船橋高等学校", "P29_005": "千葉県船橋市東船橋6-1-1", "P29_006": "2", "P29_007": "0", "P29_008": "00", "P29_009": null }, "geometry": { "type": "Point", "coordinates": [ 140.003232582994485, 35.695298077887088 ] } },
{ "type": "Feature", "properties": { "P29_001": "12204", "P29_002": "D112210000306", "P29_003": "16004", "P29_004": "千葉県立薬園台高等学校", "P29_005": "千葉県船橋市薬円台5-34-1", "P29_006": "2", "P29_007": "0", "P29_008": "00", "P29_009": null }, "geometry": { "type": "Point", "coordinates": [ 140.044597112789688, 35.711545807633392 ] } },
{ "type": "Feature", "properties": { "P29_001": "12216", "P29_002": "D112210000672", "P29_003": "16004", "P29_004": "千葉県立津田沼高等学校", "P29_005": "千葉県習志野市秋津5-9-1", "P29_006": "2", "P29_007": "0", "P29_008": "00", "P29_009": null }, "geometry": { "type": "Point", "coordinates": [ 140.010811599169841, 35.67486171465989 ] } },
{ "type": "Feature", "properties": { "P29_001": "12204", "P29_002": "D112210001261", "P29_003": "16004", "P29_004": "船橋市立船橋高等学校", "P29_005": "千葉県船橋市市場4-5-1", "P29_006": "3", "P29_007": "0", "P29_008": "00", "P29_009": null }, "geometry": { "type": "Point", "coordinates": [ 139.99916658285639, 35.701408399774913 ] } },
{ "type": "Feature", "properties": { "P29_001": "12204", "P29_002": "D112310000171", "P29_003": "16004", "P29_004": "東葉高等学校", "P29_005": "千葉県船橋市飯山満町2-665-1", "P29_006": "4", "P29_007": "0", "P29_008": "00", "P29_009": null }, "geometry": { "type": "Point", "coordinates": [ 140.020257931142169, 35.710616631707822 ] } },
{ "type": "Feature", "properties": { "P29_001": "12204", "P29_002": "D112310000215", "P29_003": "16004", "P29_004": "中山学園高等学校", "P29_005": "千葉県船橋市本町3-34-10", "P29_006": "4", "P29_007": "0", "P29_008": "00", "P29_009": null }, "geometry": { "type": "Point", "coordinates": [ 139.986150427910133, 35.696278237942487 ] } },
{ "type": "Feature", "properties": { "P29_001": "12106", "P29_002": "D112210000084", "P29_003": "16004", "P29_004": "千葉県立検見川高等学校", "P29_005": "千葉県千葉市美浜区真砂4-17-1", "P29_006": "2", "P29_007": "0", "P29_008": "00", "P29_009": null }, "geometry": { "type": "Point", "coordinates": [ 140.05710969406266, 35.63978539574498 ] } },
{ "type": "Feature", "properties": { "P29_001": "12103", "P29_002": "D112210000093", "P29_003": "16004", "P29_004": "千葉県立千葉北高等学校", "P29_005": "千葉県千葉市稲毛区長沼町153", "P29_006": "2", "P29_007": "0", "P29_008": "00", "P29_009": null }, "geometry": { "type": "Point", "coordinates": [ 140.113689180719376, 35.662191730245475 ] } },
{ "type": "Feature", "properties": { "P29_001": "12102", "P29_002": "D112210000155", "P29_003": "16004", "P29_004": "千葉県立柏井高等学校", "P29_005": "千葉県千葉市花見川区柏井町1452", "P29_006": "2", "P29_007": "0", "P29_008": "00", "P29_009": null }, "geometry": { "type": "Point", "coordinates": [ 140.107707595756864, 35.698238469600597 ] } },
{ "type": "Feature", "properties": { "P29_001": "12102", "P29_002": "D112210000191", "P29_003": "16004", "P29_004": "千葉県立犢橋高等学校", "P29_005": "千葉県千葉市花見川区千種町381-1", "P29_006": "2", "P29_007": "0", "P29_008": "00", "P29_009": null }, "geometry": { "type": "Point", "coordinates": [ 140.120760339823534, 35.678476736315638 ] } },
{ "type": "Feature", "properties": { "P29_001": "12106", "P29_002": "D112210000208", "P29_003": "16004", "P29_004": "千葉県立幕張総合高等学校", "P29_005": "千葉県千葉市美浜区若葉3-1-6", "P29_006": "2", "P29_007": "0", "P29_008": "00", "P29_009": null }, "geometry": { "type": "Point", "coordinates": [ 140.053065159004831, 35.647955907754756 ] } },
{ "type": "Feature", "properties": { "P29_001": "12202", "P29_002": "D112210000217", "P29_003": "16004", "P29_004": "千葉県立銚子高等学校", "P29_005": "千葉県銚子市南小川町943", "P29_006": "2", "P29_007": "0", "P29_008": "00", "P29_009": null }, "geometry": { "type": "Point", "coordinates": [ 140.837762031695974, 35.722737078804791 ] } },
{ "type": "Feature", "properties": { "P29_001": "12202", "P29_002": "D112210000226", "P29_003": "16004", "P29_004": "千葉県立銚子商業高等学校", "P29_005": "千葉県銚子市台町1781", "P29_006": "2", "P29_007": "0", "P29_008": "00", "P29_009": null }, "geometry": { "type": "Point", "coordinates": [ 140.826869866747643, 35.721313288570109 ] } },
{ "type": "Feature", "properties": { "P29_001": "12236", "P29_002": "D112210000510", "P29_003": "16004", "P29_004": "千葉県立佐原白楊高等学校", "P29_005": "千葉県香取市佐原イ861", "P29_006": "2", "P29_007": "0", "P29_008": "00", "P29_009": null }, "geometry": { "type": "Point", "coordinates": [ 140.489177960292096, 35.895025899949715 ] } },
{ "type": "Feature", "properties": { "P29_001": "12211", "P29_002": "D112210000556", "P29_003": "16004", "P29_004": "千葉県立成田西陵高等学校", "P29_005": "千葉県成田市松崎20", "P29_006": "2", "P29_007": "0", "P29_008": "00", "P29_009": null }, "geometry": { "type": "Point", "coordinates": [ 140.286236014437065, 35.810962910853384 ] } },
{ "type": "Feature", "properties": { "P29_001": "12211", "P29_002": "D112210000565", "P29_003": "16004", "P29_004": "千葉県立成田国際高等学校", "P29_005": "千葉県成田市加良部3-16", "P29_006": "2", "P29_007": "0", "P29_008": "00", "P29_009": null }, "geometry": { "type": "Point", "coordinates": [ 140.306260845385026, 35.777544556276567 ] } },
{ "type": "Feature", "properties": { "P29_001": "12211", "P29_002": "D112210000574", "P29_003": "16004", "P29_004": "千葉県立成田北高等学校", "P29_005": "千葉県成田市玉造5-1", "P29_006": "2", "P29_007": "0", "P29_008": "00", "P29_009": null }, "geometry": { "type": "Point", "coordinates": [ 140.294298128021325, 35.79507266227953 ] } },
{ "type": "Feature", "properties": { "P29_001": "12212", "P29_002": "D112210000583", "P29_003": "16004", "P29_004": "千葉県立佐倉高等学校", "P29_005": "千葉県佐倉市鍋山町18", "P29_006": "2", "P29_007": "0", "P29_008": "00", "P29_009": null }, "geometry": { "type": "Point", "coordinates": [ 140.236841579067601, 35.723715804075859 ] } },
{ "type": "Feature", "properties": { "P29_001": "12212", "P29_002": "D112210000609", "P29_003": "16004", "P29_004": "千葉県立佐倉西高等学校", "P29_005": "千葉県佐倉市下志津263", "P29_006": "2", "P29_007": "0", "P29_008": "00", "P29_009": null }, "geometry": { "type": "Point", "coordinates": [ 140.169933628973865, 35.717932967498967 ] } },
{ "type": "Feature", "properties": { "P29_001": "12212", "P29_002": "D112210000618", "P29_003": "16004", "P29_004": "千葉県立佐倉南高等学校", "P29_005": "千葉県佐倉市太田1956", "P29_006": "2", "P29_007": "0", "P29_008": "00", "P29_009": null }, "geometry": { "type": "Point", "coordinates": [ 140.214758127827849, 35.697782315437813 ] } },
{ "type": "Feature", "properties": { "P29_001": "12215", "P29_002": "D112210000663", "P29_003": "16004", "P29_004": "千葉県立東総工業高等学校", "P29_005": "千葉県旭市鎌数字川西5146", "P29_006": "2", "P29_007": "0", "P29_008": "01", "P29_009": null }, "geometry": { "type": "Point", "coordinates": [ 140.604626661504966, 35.725007166687732 ] } },
{ "type": "Feature", "properties": { "P29_001": "12216", "P29_002": "D112210000681", "P29_003": "16004", "P29_004": "千葉県立実籾高等学校", "P29_005": "千葉県習志野市実籾本郷22-1", "P29_006": "2", "P29_007": "0", "P29_008": "00", "P29_009": null }, "geometry": { "type": "Point", "coordinates": [ 140.063495789973388, 35.68232044814075 ] } },
{ "type": "Feature", "properties": { "P29_001": "12221", "P29_002": "D112210000841", "P29_003": "16004", "P29_004": "千葉県立八千代高等学校", "P29_005": "千葉県八千代市勝田台南1-1-1", "P29_006": "2", "P29_007": "0", "P29_008": "00", "P29_009": null }, "geometry": { "type": "Point", "coordinates": [ 140.121954369764779, 35.714371228978564 ] } },
{ "type": "Feature", "properties": { "P29_001": "12228", "P29_002": "D112210000994", "P29_003": "16004", "P29_004": "千葉県立四街道北高等学校", "P29_005": "千葉県四街道市栗山1055-4", "P29_006": "2", "P29_007": "0", "P29_008": "00", "P29_009": null }, "geometry": { "type": "Point", "coordinates": [ 140.168215099400868, 35.674262093619419 ] } },
{ "type": "Feature", "properties": { "P29_001": "12211", "P29_002": "D112210001074", "P29_003": "16004", "P29_004": "千葉県立下総高等学校", "P29_005": "千葉県成田市名古屋247", "P29_006": "2", "P29_007": "0", "P29_008": "00", "P29_009": null }, "geometry": { "type": "Point", "coordinates": [ 140.357152069002296, 35.85941891072391 ] } },
{ "type": "Feature", "properties": { "P29_001": "12236", "P29_002": "D112210001083", "P29_003": "16004", "P29_004": "千葉県立小見川高等学校", "P29_005": "千葉県香取市小見川4735-1", "P29_006": "2", "P29_007": "0", "P29_008": "00", "P29_009": null }, "geometry": { "type": "Point", "coordinates": [ 140.590402619795782, 35.859329662101608 ] } },
{ "type": "Feature", "properties": { "P29_001": "12106", "P29_002": "D112310000064", "P29_003": "16004", "P29_004": "昭和学院秀英高等学校", "P29_005": "千葉県千葉市美浜区若葉1-2", "P29_006": "4", "P29_007": "0", "P29_008": "00", "P29_009": null }, "geometry": { "type": "Point", "coordinates": [ 140.047193704359614, 35.655036811574341 ] } },
{ "type": "Feature", "properties": { "P29_001": "12106", "P29_002": "D112310000073", "P29_003": "16004", "P29_004": "渋谷教育学園幕張高等学校", "P29_005": "千葉県千葉市美浜区若葉1-3", "P29_006": "4", "P29_007": "0", "P29_008": "00", "P29_009": null }, "geometry": { "type": "Point", "coordinates": [ 140.04554724971689, 35.655040359173839 ] } },
{ "type": "Feature", "properties": { "P29_001": "12221", "P29_002": "D112310000420", "P29_003": "16004", "P29_004": "千葉英和高等学校", "P29_005": "千葉県八千代市村上709-1", "P29_006": "4", "P29_007": "0", "P29_008": "00", "P29_009": null }, "geometry": { "type": "Point", "coordinates": [ 140.124196137366226, 35.738710185453222 ] } },
{ "type": "Feature", "properties": { "P29_001": "12347", "P29_002": "D112310000581", "P29_003": "16004", "P29_004": "わせがく高等学校", "P29_005": "千葉県香取郡多古町飯笹字向台252-2", "P29_006": "4", "P29_007": "0", "P29_008": "00", "P29_009": null }, "geometry": { "type": "Point", "coordinates": [ 140.453262454462134, 35.758909820187327 ] } },
{ "type": "Feature", "properties": { "P29_001": "12213", "P29_002": "D112210000636", "P29_003": "16004", "P29_004": "千葉県立東金商業高等学校", "P29_005": "千葉県東金市松之郷字久我台1641-1", "P29_006": "2", "P29_007": "0", "P29_008": "01", "P29_009": null }, "geometry": { "type": "Point", "coordinates": [ 140.365009948529519, 35.579611183397176 ] } },
{ "type": "Feature", "properties": { "P29_001": "12403", "P29_002": "D112210001109", "P29_003": "16004", "P29_004": "千葉県立九十九里高等学校", "P29_005": "千葉県山武郡九十九里町片貝1910", "P29_006": "2", "P29_007": "0", "P29_008": "00", "P29_009": null }, "geometry": { "type": "Point", "coordinates": [ 140.421873929920366, 35.538549934552499 ] } },
{ "type": "Feature", "properties": { "P29_001": "12410", "P29_002": "D112310000563", "P29_003": "16004", "P29_004": "横芝敬愛高等学校", "P29_005": "千葉県山武郡横芝光町栗山4508", "P29_006": "4", "P29_007": "0", "P29_008": "00", "P29_009": null }, "geometry": { "type": "Point", "coordinates": [ 140.504221472510892, 35.644246884356384 ] } },
{ "type": "Feature", "properties": { "P29_001": "12203", "P29_002": "D112210000262", "P29_003": "16004", "P29_004": "千葉県立市川東高等学校", "P29_005": "千葉県市川市北方町4-2191", "P29_006": "2", "P29_007": "0", "P29_008": "00", "P29_009": null }, "geometry": { "type": "Point", "coordinates": [ 139.955848575907481, 35.737734129020915 ] } },
{ "type": "Feature", "properties": { "P29_001": "12203", "P29_002": "D112210000280", "P29_003": "16004", "P29_004": "千葉県立市川工業高等学校", "P29_005": "千葉県市川市平田3-10-10", "P29_006": "2", "P29_007": "0", "P29_008": "00", "P29_009": null }, "geometry": { "type": "Point", "coordinates": [ 139.920116063703745, 35.72286191094183 ] } },
{ "type": "Feature", "properties": { "P29_001": "12204", "P29_002": "D112210000315", "P29_003": "16004", "P29_004": "千葉県立船橋東高等学校", "P29_005": "千葉県船橋市芝山2-13-1", "P29_006": "2", "P29_007": "0", "P29_008": "00", "P29_009": null }, "geometry": { "type": "Point", "coordinates": [ 140.018937245025285, 35.722638942053337 ] } },
{ "type": "Feature", "properties": { "P29_001": "12204", "P29_002": "D112210000324", "P29_003": "16004", "P29_004": "千葉県立船橋芝山高等学校", "P29_005": "千葉県船橋市芝山7-39-1", "P29_006": "2", "P29_007": "0", "P29_008": "00", "P29_009": null }, "geometry": { "type": "Point", "coordinates": [ 140.028504769934017, 35.718243591015799 ] } },
{ "type": "Feature", "properties": { "P29_001": "12204", "P29_002": "D112210000342", "P29_003": "16004", "P29_004": "千葉県立船橋古和釜高等学校", "P29_005": "千葉県船橋市古和釜町586", "P29_006": "2", "P29_007": "0", "P29_008": "00", "P29_009": null }, "geometry": { "type": "Point", "coordinates": [ 140.05518974437274, 35.739999272714172 ] } },
{ "type": "Feature", "properties": { "P29_001": "12204", "P29_002": "D112210000351", "P29_003": "16004", "P29_004": "千葉県立船橋法典高等学校", "P29_005": "千葉県船橋市藤原4-1-1", "P29_006": "2", "P29_007": "0", "P29_008": "00", "P29_009": null }, "geometry": { "type": "Point", "coordinates": [ 139.97475426333682, 35.742326844056265 ] } },
{ "type": "Feature", "properties": { "P29_001": "12204", "P29_002": "D112210000360", "P29_003": "16004", "P29_004": "千葉県立船橋豊富高等学校", "P29_005": "千葉県船橋市豊富町656-8", "P29_006": "2", "P29_007": "0", "P29_008": "00", "P29_009": null }, "geometry": { "type": "Point", "coordinates": [ 140.07230677469633, 35.765084293260344 ] } },
{ "type": "Feature", "properties": { "P29_001": "12204", "P29_002": "D112210000379", "P29_003": "16004", "P29_004": "千葉県立船橋北高等学校", "P29_005": "千葉県船橋市神保町133-1", "P29_006": "2", "P29_007": "0", "P29_008": "00", "P29_009": null }, "geometry": { "type": "Point", "coordinates": [ 140.044274804487287, 35.762056885550393 ] } },
{ "type": "Feature", "properties": { "P29_001": "12206", "P29_002": "D112210000404", "P29_003": "16004", "P29_004": "千葉県立木更津高等学校", "P29_005": "千葉県木更津市文京4-1-1", "P29_006": "2", "P29_007": "0", "P29_008": "00", "P29_009": null }, "geometry": { "type": "Point", "coordinates": [ 139.933385587104397, 35.374414069665505 ] } },
{ "type": "Feature", "properties": { "P29_001": "12207", "P29_002": "D112210000459", "P29_003": "16004", "P29_004": "千葉県立松戸南高等学校", "P29_005": "千葉県松戸市紙敷1199", "P29_006": "2", "P29_007": "0", "P29_008": "00", "P29_009": null }, "geometry": { "type": "Point", "coordinates": [ 139.933630849074063, 35.77109500454339 ] } },
{ "type": "Feature", "properties": { "P29_001": "12208", "P29_002": "D112210000486", "P29_003": "16004", "P29_004": "千葉県立清水高等学校", "P29_005": "千葉県野田市清水482", "P29_006": "2", "P29_007": "0", "P29_008": "00", "P29_009": null }, "geometry": { "type": "Point", "coordinates": [ 139.856517643211333, 35.961147521539203 ] } },
{ "type": "Feature", "properties": { "P29_001": "12236", "P29_002": "D112210000501", "P29_003": "16004", "P29_004": "千葉県立佐原高等学校", "P29_005": "千葉県香取市佐原イ2685", "P29_006": "2", "P29_007": "0", "P29_008": "00", "P29_009": null }, "geometry": { "type": "Point", "coordinates": [ 140.505449871493568, 35.888107002341592 ] } },
{ "type": "Feature", "properties": { "P29_001": "12210", "P29_002": "D112210000538", "P29_003": "16004", "P29_004": "千葉県立茂原高等学校", "P29_005": "千葉県茂原市高師1300", "P29_006": "2", "P29_007": "0", "P29_008": "00", "P29_009": null }, "geometry": { "type": "Point", "coordinates": [ 140.285676928889586, 35.433242067420942 ] } },
{ "type": "Feature", "properties": { "P29_001": "12212", "P29_002": "D112210000592", "P29_003": "16004", "P29_004": "千葉県立佐倉東高等学校", "P29_005": "千葉県佐倉市城内町278", "P29_006": "2", "P29_007": "0", "P29_008": "00", "P29_009": null }, "geometry": { "type": "Point", "coordinates": [ 140.220738796281694, 35.718889523953749 ] } },
{ "type": "Feature", "properties": { "P29_001": "12213", "P29_002": "D112210000627", "P29_003": "16004", "P29_004": "千葉県立東金高等学校", "P29_005": "千葉県東金市東金1410", "P29_006": "2", "P29_007": "0", "P29_008": "00", "P29_009": null }, "geometry": { "type": "Point", "coordinates": [ 140.356181876075766, 35.56030839973495 ] } },
{ "type": "Feature", "properties": { "P29_001": "12235", "P29_002": "D112210000645", "P29_003": "16004", "P29_004": "千葉県立匝瑳高等学校", "P29_005": "千葉県匝瑳市八日市場イ1630", "P29_006": "2", "P29_007": "0", "P29_008": "00", "P29_009": null }, "geometry": { "type": "Point", "coordinates": [ 140.542135042148061, 35.708320958905759 ] } },
{ "type": "Feature", "properties": { "P29_001": "12215", "P29_002": "D112210000654", "P29_003": "16004", "P29_004": "千葉県立旭農業高等学校", "P29_005": "千葉県旭市ロ1", "P29_006": "2", "P29_007": "0", "P29_008": "01", "P29_009": null }, "geometry": { "type": "Point", "coordinates": [ 140.658908971698054, 35.716612786329421 ] } },
{ "type": "Feature", "properties": { "P29_001": "12217", "P29_002": "D112210000690", "P29_003": "16004", "P29_004": "千葉県立東葛飾高等学校", "P29_005": "千葉県柏市旭町3-2-1", "P29_006": "2", "P29_007": "0", "P29_008": "00", "P29_009": null }, "geometry": { "type": "Point", "coordinates": [ 139.964889696390742, 35.860825779420878 ] } },
{ "type": "Feature", "properties": { "P29_001": "12217", "P29_002": "D112210000716", "P29_003": "16004", "P29_004": "千葉県立柏南高等学校", "P29_005": "千葉県柏市増尾1705", "P29_006": "2", "P29_007": "0", "P29_008": "00", "P29_009": null }, "geometry": { "type": "Point", "coordinates": [ 139.976995494086907, 35.837594727066232 ] } },
{ "type": "Feature", "properties": { "P29_001": "12217", "P29_002": "D112210000734", "P29_003": "16004", "P29_004": "千葉県立柏中央高等学校", "P29_005": "千葉県柏市松ヶ崎884-1", "P29_006": "2", "P29_007": "0", "P29_008": "00", "P29_009": null }, "geometry": { "type": "Point", "coordinates": [ 139.973676966828606, 35.875218987830451 ] } },
{ "type": "Feature", "properties": { "P29_001": "12219", "P29_002": "D112210000752", "P29_003": "16004", "P29_004": "千葉県立市原高等学校", "P29_005": "千葉県市原市牛久655", "P29_006": "2", "P29_007": "0", "P29_008": "01", "P29_009": null }, "geometry": { "type": "Point", "coordinates": [ 140.136723982057021, 35.401984381859364 ] } },
{ "type": "Feature", "properties": { "P29_001": "12219", "P29_002": "D112210000770", "P29_003": "16004", "P29_004": "千葉県立市原緑高等学校", "P29_005": "千葉県市原市能満1531", "P29_006": "2", "P29_007": "0", "P29_008": "00", "P29_009": null }, "geometry": { "type": "Point", "coordinates": [ 140.137073014060576, 35.495820432784889 ] } },
{ "type": "Feature", "properties": { "P29_001": "12220", "P29_002": "D112210000814", "P29_003": "16004", "P29_004": "千葉県立流山南高等学校", "P29_005": "千葉県流山市流山9-800-1", "P29_006": "2", "P29_007": "0", "P29_008": "00", "P29_009": null }, "geometry": { "type": "Point", "coordinates": [ 139.898605974058626, 35.848377167329893 ] } },
{ "type": "Feature", "properties": { "P29_001": "12220", "P29_002": "D112210000832", "P29_003": "16004", "P29_004": "千葉県立流山おおたかの森高等学校", "P29_005": "千葉県流山市大畔275-5", "P29_006": "2", "P29_007": "0", "P29_008": "00", "P29_009": null }, "geometry": { "type": "Point", "coordinates": [ 139.910868566026437, 35.877119364906385 ] } },
{ "type": "Feature", "properties": { "P29_001": "12221", "P29_002": "D112210000850", "P29_003": "16004", "P29_004": "千葉県立八千代東高等学校", "P29_005": "千葉県八千代市村上881-1", "P29_006": "2", "P29_007": "0", "P29_008": "00", "P29_009": null }, "geometry": { "type": "Point", "coordinates": [ 140.1237415468172, 35.735255916528935 ] } },
{ "type": "Feature", "properties": { "P29_001": "12221", "P29_002": "D112210000869", "P29_003": "16004", "P29_004": "千葉県立八千代西高等学校", "P29_005": "千葉県八千代市吉橋2405-1", "P29_006": "2", "P29_007": "0", "P29_008": "00", "P29_009": null }, "geometry": { "type": "Point", "coordinates": [ 140.075665554044349, 35.744770824872809 ] } },
{ "type": "Feature", "properties": { "P29_001": "12222", "P29_002": "D112210000878", "P29_003": "16004", "P29_004": "千葉県立我孫子高等学校", "P29_005": "千葉県我孫子市若松18-4", "P29_006": "2", "P29_007": "0", "P29_008": "00", "P29_009": null }, "geometry": { "type": "Point", "coordinates": [ 140.025339378421023, 35.863651794575496 ] } },
{ "type": "Feature", "properties": { "P29_001": "12224", "P29_002": "D112210000903", "P29_003": "16004", "P29_004": "千葉県立鎌ヶ谷西高等学校", "P29_005": "千葉県鎌ケ谷市初富284-7", "P29_006": "2", "P29_007": "0", "P29_008": "00", "P29_009": null }, "geometry": { "type": "Point", "coordinates": [ 139.989016791605991, 35.789497506527859 ] } },
{ "type": "Feature", "properties": { "P29_001": "12225", "P29_002": "D112210000930", "P29_003": "16004", "P29_004": "千葉県立君津高等学校", "P29_005": "千葉県君津市坂田454", "P29_006": "2", "P29_007": "0", "P29_008": "00", "P29_009": null }, "geometry": { "type": "Point", "coordinates": [ 139.886911926578875, 35.341733477095296 ] } },
{ "type": "Feature", "properties": { "P29_001": "12227", "P29_002": "D112210000967", "P29_003": "16004", "P29_004": "千葉県立浦安高等学校", "P29_005": "千葉県浦安市海楽2-36-2", "P29_006": "2", "P29_007": "0", "P29_008": "00", "P29_009": null }, "geometry": { "type": "Point", "coordinates": [ 139.908232562679103, 35.660827960819802 ] } },
{ "type": "Feature", "properties": { "P29_001": "12227", "P29_002": "D112210000976", "P29_003": "16004", "P29_004": "千葉県立浦安南高等学校", "P29_005": "千葉県浦安市高洲9-4-1", "P29_006": "2", "P29_007": "0", "P29_008": "00", "P29_009": null }, "geometry": { "type": "Point", "coordinates": [ 139.917268274113468, 35.630137455480998 ] } },
{ "type": "Feature", "properties": { "P29_001": "12228", "P29_002": "D112210000985", "P29_003": "16004", "P29_004": "千葉県立四街道高等学校", "P29_005": "千葉県四街道市鹿渡809-2", "P29_006": "2", "P29_007": "0", "P29_008": "00", "P29_009": null }, "geometry": { "type": "Point", "coordinates": [ 140.171136224778536, 35.66799108500124 ] } },
{ "type": "Feature", "properties": { "P29_001": "12217", "P29_002": "D112210001001", "P29_003": "16004", "P29_004": "千葉県立沼南高等学校", "P29_005": "千葉県柏市岩井678-3", "P29_006": "2", "P29_007": "0", "P29_008": "00", "P29_009": null }, "geometry": { "type": "Point", "coordinates": [ 140.032041401616596, 35.844943037929959 ] } },
{ "type": "Feature", "properties": { "P29_001": "12217", "P29_002": "D112210001010", "P29_003": "16004", "P29_004": "千葉県立沼南高柳高等学校", "P29_005": "千葉県柏市高柳995", "P29_006": "2", "P29_007": "0", "P29_008": "00", "P29_009": null }, "geometry": { "type": "Point", "coordinates": [ 140.006496685107862, 35.804793037635761 ] } },
{ "type": "Feature", "properties": { "P29_001": "12230", "P29_002": "D112210001038", "P29_003": "16004", "P29_004": "千葉県立八街高等学校", "P29_005": "千葉県八街市八街ろ145-3", "P29_006": "2", "P29_007": "0", "P29_008": "00", "P29_009": null }, "geometry": { "type": "Point", "coordinates": [ 140.289688247241202, 35.672252785080154 ] } },
{ "type": "Feature", "properties": { "P29_001": "12231", "P29_002": "D112210001047", "P29_003": "16004", "P29_004": "千葉県立印旛明誠高等学校", "P29_005": "千葉県印西市草深1420-9", "P29_006": "2", "P29_007": "0", "P29_008": "00", "P29_009": null }, "geometry": { "type": "Point", "coordinates": [ 140.1493195480775, 35.807330212320238 ] } },
{ "type": "Feature", "properties": { "P29_001": "12233", "P29_002": "D112210001065", "P29_003": "16004", "P29_004": "千葉県立富里高等学校", "P29_005": "千葉県富里市七栄181-1", "P29_006": "2", "P29_007": "0", "P29_008": "00", "P29_009": null }, "geometry": { "type": "Point", "coordinates": [ 140.320324692508564, 35.733107489166656 ] } },
{ "type": "Feature", "properties": { "P29_001": "12347", "P29_002": "D112210001092", "P29_003": "16004", "P29_004": "千葉県立多古高等学校", "P29_005": "千葉県香取郡多古町多古3236", "P29_006": "2", "P29_007": "0", "P29_008": "00", "P29_009": null }, "geometry": { "type": "Point", "coordinates": [ 140.465770992795456, 35.742117553746525 ] } },
{ "type": "Feature", "properties": { "P29_001": "12237", "P29_002": "D112210001118", "P29_003": "16004", "P29_004": "千葉県立成東高等学校", "P29_005": "千葉県山武市成東3596", "P29_006": "2", "P29_007": "0", "P29_008": "00", "P29_009": null }, "geometry": { "type": "Point", "coordinates": [ 140.395604006788147, 35.600605365506404 ] } },
{ "type": "Feature", "properties": { "P29_001": "12237", "P29_002": "D112210001127", "P29_003": "16004", "P29_004": "千葉県立松尾高等学校", "P29_005": "千葉県山武市松尾町大堤546", "P29_006": "2", "P29_007": "0", "P29_008": "00", "P29_009": null }, "geometry": { "type": "Point", "coordinates": [ 140.451343385149528, 35.636280557777461 ] } },
{ "type": "Feature", "properties": { "P29_001": "12421", "P29_002": "D112210001145", "P29_003": "16004", "P29_004": "千葉県立一宮商業高等学校", "P29_005": "千葉県長生郡一宮町一宮3287", "P29_006": "2", "P29_007": "0", "P29_008": "00", "P29_009": null }, "geometry": { "type": "Point", "coordinates": [ 140.359194346314467, 35.375514133445193 ] } },
{ "type": "Feature", "properties": { "P29_001": "12238", "P29_002": "D112210001163", "P29_003": "16004", "P29_004": "千葉県立大原高等学校", "P29_005": "千葉県いすみ市大原7985", "P29_006": "2", "P29_007": "0", "P29_008": "00", "P29_009": null }, "geometry": { "type": "Point", "coordinates": [ 140.387560916169434, 35.245526223853901 ] } },
{ "type": "Feature", "properties": { "P29_001": "12229", "P29_002": "D112210001181", "P29_003": "16004", "P29_004": "千葉県立袖ヶ浦高等学校", "P29_005": "千葉県袖ケ浦市神納530", "P29_006": "2", "P29_007": "0", "P29_008": "00", "P29_009": null }, "geometry": { "type": "Point", "coordinates": [ 139.967587020682458, 35.423562185246709 ] } },
{ "type": "Feature", "properties": { "P29_001": "12202", "P29_002": "D112210001252", "P29_003": "16004", "P29_004": "銚子市立銚子高等学校", "P29_005": "千葉県銚子市春日町2689", "P29_006": "3", "P29_007": "0", "P29_008": "00", "P29_009": null }, "geometry": { "type": "Point", "coordinates": [ 140.816073521213525, 35.724282507429358 ] } },
{ "type": "Feature", "properties": { "P29_001": "12216", "P29_002": "D112210001289", "P29_003": "16004", "P29_004": "習志野市立習志野高等学校", "P29_005": "千葉県習志野市東習志野1-2-1", "P29_006": "3", "P29_007": "0", "P29_008": "00", "P29_009": null }, "geometry": { "type": "Point", "coordinates": [ 140.065988617290571, 35.694662289378655 ] } },
{ "type": "Feature", "properties": { "P29_001": "12203", "P29_002": "D112310000126", "P29_003": "16004", "P29_004": "和洋国府台女子高等学校", "P29_005": "千葉県市川市国府台2-3-1", "P29_006": "4", "P29_007": "0", "P29_008": "00", "P29_009": null }, "geometry": { "type": "Point", "coordinates": [ 139.904451038180184, 35.743904426102937 ] } },
{ "type": "Feature", "properties": { "P29_001": "12204", "P29_002": "D112310000180", "P29_003": "16004", "P29_004": "日本大学習志野高等学校", "P29_005": "千葉県船橋市習志野台7-24-24", "P29_006": "4", "P29_007": "0", "P29_008": "00", "P29_009": null }, "geometry": { "type": "Point", "coordinates": [ 140.057774381560193, 35.722597138461431 ] } },
{ "type": "Feature", "properties": { "P29_001": "12204", "P29_002": "D112310000199", "P29_003": "16004", "P29_004": "千葉日本大学第一高等学校", "P29_005": "千葉県船橋市習志野台8-34-1", "P29_006": "4", "P29_007": "0", "P29_008": "00", "P29_009": null }, "geometry": { "type": "Point", "coordinates": [ 140.058705169617951, 35.718510446372882 ] } },
{ "type": "Feature", "properties": { "P29_001": "12204", "P29_002": "D112310000206", "P29_003": "16004", "P29_004": "東京学館船橋高等学校", "P29_005": "千葉県船橋市豊富町577", "P29_006": "4", "P29_007": "0", "P29_008": "00", "P29_009": null }, "geometry": { "type": "Point", "coordinates": [ 140.073621654263462, 35.772903121321143 ] } },
{ "type": "Feature", "properties": { "P29_001": "12206", "P29_002": "D112310000233", "P29_003": "16004", "P29_004": "拓殖大学紅陵高等学校", "P29_005": "千葉県木更津市桜井1403", "P29_006": "4", "P29_007": "0", "P29_008": "00", "P29_009": null }, "geometry": { "type": "Point", "coordinates": [ 139.928019385413648, 35.363517172138963 ] } },
{ "type": "Feature", "properties": { "P29_001": "12206", "P29_002": "D112310000242", "P29_003": "16004", "P29_004": "暁星国際高等学校", "P29_005": "千葉県木更津市矢那1083", "P29_006": "4", "P29_007": "0", "P29_008": "00", "P29_009": null }, "geometry": { "type": "Point", "coordinates": [ 139.988527814428693, 35.348393380065367 ] } },
{ "type": "Feature", "properties": { "P29_001": "12206", "P29_002": "D112310000251", "P29_003": "16004", "P29_004": "志学館高等部", "P29_005": "千葉県木更津市真舟3-29-1", "P29_006": "4", "P29_007": "0", "P29_008": "00", "P29_009": null }, "geometry": { "type": "Point", "coordinates": [ 139.932228609071927, 35.355156379763173 ] } },
{ "type": "Feature", "properties": { "P29_001": "12206", "P29_002": "D112310000260", "P29_003": "16004", "P29_004": "木更津総合高等学校", "P29_005": "千葉県木更津市東太田3-4-1", "P29_006": "4", "P29_007": "0", "P29_008": "00", "P29_009": null }, "geometry": { "type": "Point", "coordinates": [ 139.956298867434754, 35.37604372061552 ] } },
{ "type": "Feature", "properties": { "P29_001": "12207", "P29_002": "D112310000288", "P29_003": "16004", "P29_004": "光英ＶＥＲＩＴＡＳ高等学校", "P29_005": "千葉県松戸市秋山600", "P29_006": "4", "P29_007": "0", "P29_008": "00", "P29_009": null }, "geometry": { "type": "Point", "coordinates": [ 139.924764256756021, 35.761513335401588 ] } },
{ "type": "Feature", "properties": { "P29_001": "12208", "P29_002": "D112310000297", "P29_003": "16004", "P29_004": "西武台千葉高等学校", "P29_005": "千葉県野田市尾崎2241-2", "P29_006": "4", "P29_007": "0", "P29_008": "00", "P29_009": null }, "geometry": { "type": "Point", "coordinates": [ 139.837199035624138, 35.991893253427499 ] } },
{ "type": "Feature", "properties": { "P29_001": "12236", "P29_002": "D112310000313", "P29_003": "16004", "P29_004": "千葉萌陽高等学校", "P29_005": "千葉県香取市佐原イ3371", "P29_006": "4", "P29_007": "0", "P29_008": "00", "P29_009": null }, "geometry": { "type": "Point", "coordinates": [ 140.500539050953961, 35.890033787706898 ] } },
{ "type": "Feature", "properties": { "P29_001": "12211", "P29_002": "D112310000322", "P29_003": "16004", "P29_004": "成田高等学校", "P29_005": "千葉県成田市成田27", "P29_006": "4", "P29_007": "0", "P29_008": "00", "P29_009": null }, "geometry": { "type": "Point", "coordinates": [ 140.322085634875037, 35.785146873821539 ] } },
{ "type": "Feature", "properties": { "P29_001": "12213", "P29_002": "D112310000331", "P29_003": "16004", "P29_004": "千葉学芸高等学校", "P29_005": "千葉県東金市田間1999", "P29_006": "4", "P29_007": "0", "P29_008": "00", "P29_009": null }, "geometry": { "type": "Point", "coordinates": [ 140.372174049550637, 35.574494845605585 ] } },
{ "type": "Feature", "properties": { "P29_001": "12235", "P29_002": "D112310000340", "P29_003": "16004", "P29_004": "敬愛大学八日市場高等学校", "P29_005": "千葉県匝瑳市八日市場ロ390", "P29_006": "4", "P29_007": "0", "P29_008": "00", "P29_009": null }, "geometry": { "type": "Point", "coordinates": [ 140.551982681162542, 35.706358144162465 ] } },
{ "type": "Feature", "properties": { "P29_001": "12216", "P29_002": "D112310000359", "P29_003": "16004", "P29_004": "東邦大学付属東邦高等学校", "P29_005": "千葉県習志野市泉町2-1-37", "P29_006": "4", "P29_007": "0", "P29_008": "00", "P29_009": null }, "geometry": { "type": "Point", "coordinates": [ 140.053497404233667, 35.691789361578977 ] } },
{ "type": "Feature", "properties": { "P29_001": "12217", "P29_002": "D112310000368", "P29_003": "16004", "P29_004": "麗澤高等学校", "P29_005": "千葉県柏市光ヶ丘2-1-1", "P29_006": "4", "P29_007": "0", "P29_008": "00", "P29_009": null }, "geometry": { "type": "Point", "coordinates": [ 139.950806826006954, 35.831253301145608 ] } },
{ "type": "Feature", "properties": { "P29_001": "12217", "P29_002": "D112310000386", "P29_003": "16004", "P29_004": "日本体育大学柏高等学校", "P29_005": "千葉県柏市戸張944", "P29_006": "4", "P29_007": "0", "P29_008": "00", "P29_009": null }, "geometry": { "type": "Point", "coordinates": [ 139.990083401924863, 35.857259484091038 ] } },
{ "type": "Feature", "properties": { "P29_001": "12219", "P29_002": "D112310000402", "P29_003": "16004", "P29_004": "東海大学付属市原望洋高等学校", "P29_005": "千葉県市原市能満1531", "P29_006": "4", "P29_007": "0", "P29_008": "00", "P29_009": null }, "geometry": { "type": "Point", "coordinates": [ 140.134462991685041, 35.498829793021201 ] } },
{ "type": "Feature", "properties": { "P29_001": "12219", "P29_002": "D112310000411", "P29_003": "16004", "P29_004": "市原中央高等学校", "P29_005": "千葉県市原市土宇1481-1", "P29_006": "4", "P29_007": "0", "P29_008": "00", "P29_009": null }, "geometry": { "type": "Point", "coordinates": [ 140.134657198782918, 35.437486129351178 ] } },
{ "type": "Feature", "properties": { "P29_001": "12221", "P29_002": "D112310000439", "P29_003": "16004", "P29_004": "八千代松陰高等学校", "P29_005": "千葉県八千代市村上727", "P29_006": "4", "P29_007": "0", "P29_008": "00", "P29_009": null }, "geometry": { "type": "Point", "coordinates": [ 140.125178749447343, 35.741670127455158 ] } },
{ "type": "Feature", "properties": { "P29_001": "12221", "P29_002": "D112310000448", "P29_003": "16004", "P29_004": "秀明大学学校教師学部附属秀明八千代高等学校", "P29_005": "千葉県八千代市桑橋803", "P29_006": "4", "P29_007": "0", "P29_008": "00", "P29_009": null }, "geometry": { "type": "Point", "coordinates": [ 140.087593644991699, 35.753757681089787 ] } },
{ "type": "Feature", "properties": { "P29_001": "12222", "P29_002": "D112310000457", "P29_003": "16004", "P29_004": "我孫子二階堂高等学校", "P29_005": "千葉県我孫子市久寺家479-1", "P29_006": "4", "P29_007": "0", "P29_008": "00", "P29_009": null }, "geometry": { "type": "Point", "coordinates": [ 140.01555501996549, 35.885214281063433 ] } },
{ "type": "Feature", "properties": { "P29_001": "12222", "P29_002": "D112310000466", "P29_003": "16004", "P29_004": "中央学院高等学校", "P29_005": "千葉県我孫子市都部765", "P29_006": "4", "P29_007": "0", "P29_008": "00", "P29_009": null }, "geometry": { "type": "Point", "coordinates": [ 140.061097294167212, 35.864187097027113 ] } },
{ "type": "Feature", "properties": { "P29_001": "12225", "P29_002": "D112310000484", "P29_003": "16004", "P29_004": "翔凛高等学校", "P29_005": "千葉県君津市三直1348-1", "P29_006": "4", "P29_007": "0", "P29_008": "00", "P29_009": null }, "geometry": { "type": "Point", "coordinates": [ 139.940797741878356, 35.324927200352143 ] } },
{ "type": "Feature", "properties": { "P29_001": "12227", "P29_002": "D112310000493", "P29_003": "16004", "P29_004": "東海大学付属浦安高等学校", "P29_005": "千葉県浦安市東野3-11-1", "P29_006": "4", "P29_007": "0", "P29_008": "00", "P29_009": null }, "geometry": { "type": "Point", "coordinates": [ 139.89246056487903, 35.645004824811025 ] } },
{ "type": "Feature", "properties": { "P29_001": "12228", "P29_002": "D112310000518", "P29_003": "16004", "P29_004": "千葉敬愛高等学校", "P29_005": "千葉県四街道市四街道1522", "P29_006": "4", "P29_007": "0", "P29_008": "00", "P29_009": null }, "geometry": { "type": "Point", "coordinates": [ 140.161004150554049, 35.666646441418777 ] } },
{ "type": "Feature", "properties": { "P29_001": "12228", "P29_002": "D112310000527", "P29_003": "16004", "P29_004": "愛国学園大学附属四街道高等学校", "P29_005": "千葉県四街道市四街道1532-16", "P29_006": "4", "P29_007": "0", "P29_008": "00", "P29_009": null }, "geometry": { "type": "Point", "coordinates": [ 140.159060781047003, 35.666794157205892 ] } },
{ "type": "Feature", "properties": { "P29_001": "12322", "P29_002": "D112310000545", "P29_003": "16004", "P29_004": "東京学館高等学校", "P29_005": "千葉県印旛郡酒々井町伊篠21", "P29_006": "4", "P29_007": "0", "P29_008": "00", "P29_009": null }, "geometry": { "type": "Point", "coordinates": [ 140.282067938326776, 35.747439966223112 ] } },
{ "type": "Feature", "properties": { "P29_001": "12230", "P29_002": "D112310000554", "P29_003": "16004", "P29_004": "千葉黎明高等学校", "P29_005": "千葉県八街市八街ほ625", "P29_006": "4", "P29_007": "0", "P29_008": "00", "P29_009": null }, "geometry": { "type": "Point", "coordinates": [ 140.307435167480264, 35.662434046070501 ] } },
{ "type": "Feature", "properties": { "P29_001": "12210", "P29_002": "D112310000572", "P29_003": "16004", "P29_004": "茂原北陵高等学校", "P29_005": "千葉県茂原市吉井上128", "P29_006": "4", "P29_007": "0", "P29_008": "00", "P29_009": null }, "geometry": { "type": "Point", "coordinates": [ 140.291915458480389, 35.482150975801162 ] } },
{ "type": "Feature", "properties": { "P29_001": "12443", "P29_002": "D112310000590", "P29_003": "16004", "P29_004": "中央国際高等学校", "P29_005": "千葉県夷隅郡御宿町久保1528", "P29_006": "4", "P29_007": "0", "P29_008": "00", "P29_009": null }, "geometry": { "type": "Point", "coordinates": [ 140.353237128885951, 35.194044551452883 ] } },
{ "type": "Feature", "properties": { "P29_001": "12202", "P29_002": "D112310000607", "P29_003": "16004", "P29_004": "千葉科学大学附属高等学校", "P29_005": "千葉県銚子市潮見町3", "P29_006": "4", "P29_007": "0", "P29_008": "00", "P29_009": null }, "geometry": { "type": "Point", "coordinates": [ 140.846174176485903, 35.701496421773186 ] } },
{ "type": "Feature", "properties": { "P29_001": "12210", "P29_002": "D112310000616", "P29_003": "16004", "P29_004": "ヒューマンキャンパスのぞみ高等学校", "P29_005": "千葉県茂原市緑ケ丘1-53", "P29_006": "4", "P29_007": "0", "P29_008": "00", "P29_009": null }, "geometry": { "type": "Point", "coordinates": [ 140.261503176466789, 35.439219623122554 ] } },
{ "type": "Feature", "properties": { "P29_001": "12218", "P29_002": "D112310000625", "P29_003": "16004", "P29_004": "成美学園高等學校", "P29_005": "千葉県勝浦市松部1000-1", "P29_006": "4", "P29_007": "0", "P29_008": "00", "P29_009": null }, "geometry": { "type": "Point", "coordinates": [ 140.294167995862125, 35.149514692544663 ] } },
{ "type": "Feature", "properties": { "P29_001": "12219", "P29_002": "D112210000752", "P29_003": "16004", "P29_004": "千葉県立市原高等学校", "P29_005": "千葉県市原市鶴舞1159-1", "P29_006": "2", "P29_007": "0", "P29_008": "02", "P29_009": "鶴舞グリーンキャンパス" }, "geometry": { "type": "Point", "coordinates": [ 140.153637551127559, 35.391077059323997 ] } }
]
}
