{
"type": "FeatureCollection",
"name": "geo_12_特定施設入居者生活介護（有料老人ホーム）",
"crs": { "type": "name", "properties": { "name": "urn:ogc:def:crs:OGC:1.3:CRS84" } },
"features": [
{ "type": "Feature", "properties": { "内容": "スマイリングホームメディス千葉浜野【特定施設入居者生活介護（有料老人ホーム）】千葉県千葉市中央区浜野町２３４－３", "url": "https://www.kaigokensaku.mhlw.go.jp/12/index.php?action_kouhyou_detail_004_kani=true&JigyosyoCd=1270103862-00&ServiceCd=331&Type=search", "url2": "http://www.greenlife-inc.co.jp/facilities/detail/medis_chibahamano/profile/" }, "geometry": { "type": "Point", "coordinates": [ 140.138283, 35.5528593 ] } },
{ "type": "Feature", "properties": { "内容": "さわやかゆう輝の里【特定施設入居者生活介護（有料老人ホーム）】千葉県千葉市中央区川戸町254-1", "url": "https://www.kaigokensaku.mhlw.go.jp/12/index.php?action_kouhyou_detail_004_kani=true&JigyosyoCd=1270103540-00&ServiceCd=331&Type=search", "url2": "http://www.sawayakaclub.jp" }, "geometry": { "type": "Point", "coordinates": [ 140.167441, 35.5809624 ] } },
{ "type": "Feature", "properties": { "内容": "セントケアヴィレッジ蘇我【特定施設入居者生活介護（有料老人ホーム）】千葉県千葉市中央区蘇我2-5-3", "url": "https://www.kaigokensaku.mhlw.go.jp/12/index.php?action_kouhyou_detail_004_kani=true&JigyosyoCd=1270102385-00&ServiceCd=331&Type=search", "url2": "http://www.saint-care.com/" }, "geometry": { "type": "Point", "coordinates": [ 140.1324401, 35.5732217 ] } },
{ "type": "Feature", "properties": { "内容": "エクセルシオール千葉【特定施設入居者生活介護（有料老人ホーム）】千葉県千葉市中央区鶴沢町10番１１号", "url": "https://www.kaigokensaku.mhlw.go.jp/12/index.php?action_kouhyou_detail_004_kani=true&JigyosyoCd=1270104084-00&ServiceCd=331&Type=search", "url2": "：http://excelsiorjapan.com" }, "geometry": { "type": "Point", "coordinates": [ 140.131824700000038, 35.6106011 ] } },
{ "type": "Feature", "properties": { "内容": "ヒューマンライフケア千葉院内の郷【特定施設入居者生活介護（有料老人ホーム）】千葉県千葉市中央区院内一丁目７番６号", "url": "https://www.kaigokensaku.mhlw.go.jp/12/index.php?action_kouhyou_detail_004_kani=true&JigyosyoCd=1270102922-00&ServiceCd=331&Type=search", "url2": "http://hlc.athuman.com/caresearch/chiba/361017/index.php?sisetu=11" }, "geometry": { "type": "Point", "coordinates": [ 140.123139, 35.6133365 ] } },
{ "type": "Feature", "properties": { "内容": "ハートピア故郷苑【特定施設入居者生活介護（有料老人ホーム）】千葉県千葉市中央区神明町26番地3", "url": "https://www.kaigokensaku.mhlw.go.jp/12/index.php?action_kouhyou_detail_004_kani=true&JigyosyoCd=1270105172-00&ServiceCd=331&Type=search", "url2": "http://furusatoen.jp/" }, "geometry": { "type": "Point", "coordinates": [ 140.117740199999957, 35.6014298 ] } },
{ "type": "Feature", "properties": { "内容": "ブランシエールケア西千葉【特定施設入居者生活介護（有料老人ホーム）】千葉県千葉市中央区松波2-21-16ブランシエールケア西千葉", "url": "https://www.kaigokensaku.mhlw.go.jp/12/index.php?action_kouhyou_detail_004_kani=true&JigyosyoCd=1270105552-00&ServiceCd=331&Type=search", "url2": "http://www.haseko-senior.co.jp/home/nishichiba/" }, "geometry": { "type": "Point", "coordinates": [ 140.3653128, 38.2394845 ] } },
{ "type": "Feature", "properties": { "内容": "敬老園サンテール千葉【特定施設入居者生活介護（有料老人ホーム）】千葉県千葉市中央区仁戸名町682-70", "url": "https://www.kaigokensaku.mhlw.go.jp/12/index.php?action_kouhyou_detail_004_kani=true&JigyosyoCd=1270102948-00&ServiceCd=331&Type=search", "url2": "http://www.keirouen.jp/" }, "geometry": { "type": "Point", "coordinates": [ 140.162418600000024, 35.5847947 ] } },
{ "type": "Feature", "properties": { "内容": "そんぽの家　蘇我【特定施設入居者生活介護（有料老人ホーム）】千葉県千葉市中央区蘇我５丁目２２－３７", "url": "https://www.kaigokensaku.mhlw.go.jp/12/index.php?action_kouhyou_detail_004_kani=true&JigyosyoCd=1270101957-00&ServiceCd=331&Type=search", "url2": "https://www.sompocare.com/" }, "geometry": { "type": "Point", "coordinates": [ 140.137977299999989, 35.5723093 ] } },
{ "type": "Feature", "properties": { "内容": "敬老園ナーシングヴィラ浜野【特定施設入居者生活介護（有料老人ホーム）】千葉市中央区村田町41-1", "url": "https://www.kaigokensaku.mhlw.go.jp/12/index.php?action_kouhyou_detail_004_kani=true&JigyosyoCd=1270100322-00&ServiceCd=331&Type=search", "url2": "http://www.keirouen.jp/" }, "geometry": { "type": "Point", "coordinates": [ 140.136784799999987, 35.5449589 ] } },
{ "type": "Feature", "properties": { "内容": "ニチイケアセンター千葉中央【特定施設入居者生活介護（有料老人ホーム）】千葉県千葉市中央区長洲2-25-13介護付有料老人ホーム　ニチイのきらめき　ニチイケアセンター千葉中央", "url": "https://www.kaigokensaku.mhlw.go.jp/12/index.php?action_kouhyou_detail_004_kani=true&JigyosyoCd=1270102773-00&ServiceCd=331&Type=search", "url2": "http://www.nichiigakkan.co.jp/" }, "geometry": { "type": "Point", "coordinates": [ 140.122681899999947, 35.5987406 ] } },
{ "type": "Feature", "properties": { "内容": "アビタシオン京成千葉中央【特定施設入居者生活介護（有料老人ホーム）】千葉県千葉市中央区神明町2-2", "url": "https://www.kaigokensaku.mhlw.go.jp/12/index.php?action_kouhyou_detail_004_kani=true&JigyosyoCd=1270104167-00&ServiceCd=331&Type=search", "url2": "https://www.habitation.co.jp/kcc/" }, "geometry": { "type": "Point", "coordinates": [ 140.118102499999964, 35.6041337 ] } },
{ "type": "Feature", "properties": { "内容": "医療法人社団福生会あんしんかん【特定施設入居者生活介護（有料老人ホーム）】千葉県千葉市中央区道場南１－１５－３１", "url": "https://www.kaigokensaku.mhlw.go.jp/12/index.php?action_kouhyou_detail_004_kani=true&JigyosyoCd=1270104209-00&ServiceCd=331&Type=search", "url2": "http://www.saito-rosai.or.jp/anshinkan/" }, "geometry": { "type": "Point", "coordinates": [ 140.130807900000036, 35.6131062 ] } },
{ "type": "Feature", "properties": { "内容": "ハイアットレジデンス季美の都ちば【特定施設入居者生活介護（有料老人ホーム）】千葉県千葉市中央区都町5丁目29番14号", "url": "https://www.kaigokensaku.mhlw.go.jp/12/index.php?action_kouhyou_detail_004_kani=true&JigyosyoCd=1270104597-00&ServiceCd=331&Type=search", "url2": "http://kiminomiyako.net/" }, "geometry": { "type": "Point", "coordinates": [ 140.150169422753947, 35.610755747031568 ] } },
{ "type": "Feature", "properties": { "内容": "リアンレーヴ蘇我壱番館【特定施設入居者生活介護（有料老人ホーム）】千葉県千葉市中央区今井1-17-16リアンレーヴ蘇我壱番館", "url": "https://www.kaigokensaku.mhlw.go.jp/12/index.php?action_kouhyou_detail_004_kani=true&JigyosyoCd=1270104795-00&ServiceCd=331&Type=search", "url2": "http://www.kinoshita-kaigo.co.jp/facility/care_home/lien-reve_sogaichibankan.html" }, "geometry": { "type": "Point", "coordinates": [ 140.127723699999933, 35.5820539 ] } },
{ "type": "Feature", "properties": { "内容": "SOMPOケアラヴィーレ千葉椿森【特定施設入居者生活介護（有料老人ホーム）】千葉県千葉市中央区椿森6-3-5SOMPOケアラヴィーレ千葉椿森", "url": "https://www.kaigokensaku.mhlw.go.jp/12/index.php?action_kouhyou_detail_004_kani=true&JigyosyoCd=1270105040-00&ServiceCd=331&Type=search", "url2": "https://www.sompocare.com" }, "geometry": { "type": "Point", "coordinates": [ 140.1236212, 35.6206065 ] } },
{ "type": "Feature", "properties": { "内容": "ベストライフ千葉みなと【特定施設入居者生活介護（有料老人ホーム）】千葉県千葉市中央区中央港1-25-20", "url": "https://www.kaigokensaku.mhlw.go.jp/12/index.php?action_kouhyou_detail_004_kani=true&JigyosyoCd=1270105362-00&ServiceCd=331&Type=search", "url2": null }, "geometry": { "type": "Point", "coordinates": [ 140.1003904, 35.6063099 ] } },
{ "type": "Feature", "properties": { "内容": "有料老人ホーム　サニーライフ浜野【特定施設入居者生活介護（有料老人ホーム）】千葉県千葉市中央区浜野町1025-91有料老人ホーム　サニーライフ浜野", "url": "https://www.kaigokensaku.mhlw.go.jp/12/index.php?action_kouhyou_detail_004_kani=true&JigyosyoCd=1270105453-00&ServiceCd=331&Type=search", "url2": "https://www.sunnylife-group.co.jp" }, "geometry": { "type": "Point", "coordinates": [ 140.126361426943646, 35.552368330423981 ] } },
{ "type": "Feature", "properties": { "内容": "敬老園ロイヤルヴィラ矢作台【特定施設入居者生活介護（有料老人ホーム）】千葉県千葉市中央区矢作町941-22", "url": "https://www.kaigokensaku.mhlw.go.jp/12/index.php?action_kouhyou_detail_004_kani=true&JigyosyoCd=1270100645-00&ServiceCd=331&Type=search", "url2": "http://www.keirouen.jp" }, "geometry": { "type": "Point", "coordinates": [ 140.141427, 35.6010468 ] } },
{ "type": "Feature", "properties": { "内容": "メディカル・リハビリホームボンセジュール千葉【特定施設入居者生活介護（有料老人ホーム）】千葉県千葉市中央区東千葉2-8-7", "url": "https://www.kaigokensaku.mhlw.go.jp/12/index.php?action_kouhyou_detail_004_kani=true&JigyosyoCd=1270103417-00&ServiceCd=331&Type=search", "url2": "http://www.benesse-style-care.co.jp" }, "geometry": { "type": "Point", "coordinates": [ 140.128365600000052, 35.623024 ] } },
{ "type": "Feature", "properties": { "内容": "有料老人ホーム　百々花【特定施設入居者生活介護（有料老人ホーム）】千葉県千葉市花見川区千種町１７７－２８", "url": "https://www.kaigokensaku.mhlw.go.jp/12/index.php?action_kouhyou_detail_004_kani=true&JigyosyoCd=1270201088-00&ServiceCd=331&Type=search", "url2": "http://www.seikoukai-hp.or.jp/momoka/" }, "geometry": { "type": "Point", "coordinates": [ 140.11597519999998, 35.6743046 ] } },
{ "type": "Feature", "properties": { "内容": "ホームステーションらいふ幕張本郷【特定施設入居者生活介護（有料老人ホーム）】千葉県千葉市花見川区幕張本郷1-15-1", "url": "https://www.kaigokensaku.mhlw.go.jp/12/index.php?action_kouhyou_detail_004_kani=true&JigyosyoCd=1270203142-00&ServiceCd=331&Type=search", "url2": "https://www.life-silver.com/life/" }, "geometry": { "type": "Point", "coordinates": [ 140.039613564417976, 35.671341157921312 ] } },
{ "type": "Feature", "properties": { "内容": "シニア町内会　癒しのまくはり館【特定施設入居者生活介護（有料老人ホーム）】千葉県千葉市花見川区幕張町5-370-4", "url": "https://www.kaigokensaku.mhlw.go.jp/12/index.php?action_kouhyou_detail_004_kani=true&JigyosyoCd=1270200833-00&ServiceCd=331&Type=search", "url2": "http://www.riei.co.jp/" }, "geometry": { "type": "Point", "coordinates": [ 140.060687799999982, 35.6536096 ] } },
{ "type": "Feature", "properties": { "内容": "エクセルシオール八千代台【特定施設入居者生活介護（有料老人ホーム）】千葉県千葉市花見川区天戸町1482-9", "url": "https://www.kaigokensaku.mhlw.go.jp/12/index.php?action_kouhyou_detail_004_kani=true&JigyosyoCd=1270202508-00&ServiceCd=331&Type=search", "url2": "http://www.excelsior-yachiyodai.com/" }, "geometry": { "type": "Point", "coordinates": [ 140.091305899999952, 35.6838223 ] } },
{ "type": "Feature", "properties": { "内容": "ハートフル・ニュー幕張【特定施設入居者生活介護（有料老人ホーム）】千葉県千葉市花見川区花園３－５－６", "url": "https://www.kaigokensaku.mhlw.go.jp/12/index.php?action_kouhyou_detail_004_kani=true&JigyosyoCd=1270201302-00&ServiceCd=331&Type=search", "url2": "http://www.heartfc.com/" }, "geometry": { "type": "Point", "coordinates": [ 140.06958039999995, 35.6554585 ] } },
{ "type": "Feature", "properties": { "内容": "そんぽの家朝日ヶ丘【特定施設入居者生活介護（有料老人ホーム）】千葉県千葉市花見川区朝日ヶ丘２－５－２そんぽの家朝日ヶ丘", "url": "https://www.kaigokensaku.mhlw.go.jp/12/index.php?action_kouhyou_detail_004_kani=true&JigyosyoCd=1270201377-00&ServiceCd=331&Type=search", "url2": "https://www.sompocare.com/service/home/kaigo/H000193/" }, "geometry": { "type": "Point", "coordinates": [ 140.087921599999959, 35.6590025 ] } },
{ "type": "Feature", "properties": { "内容": "介護付有料老人ホーム　ル・レーヴ花見川【特定施設入居者生活介護（有料老人ホーム）】千葉県千葉市花見川区横戸町1131-2", "url": "https://www.kaigokensaku.mhlw.go.jp/12/index.php?action_kouhyou_detail_004_kani=true&JigyosyoCd=1270201781-00&ServiceCd=331&Type=search", "url2": "http;//www.ej-welfare.jp" }, "geometry": { "type": "Point", "coordinates": [ 140.118263100000036, 35.7032657 ] } },
{ "type": "Feature", "properties": { "内容": "アズハイム千葉幕張【特定施設入居者生活介護（有料老人ホーム）】千葉県千葉市花見川区幕張町3-876-3", "url": "https://www.kaigokensaku.mhlw.go.jp/12/index.php?action_kouhyou_detail_004_kani=true&JigyosyoCd=1270202938-00&ServiceCd=331&Type=search", "url2": "http://www.as-heim.com/makuhari/" }, "geometry": { "type": "Point", "coordinates": [ 140.051399333865646, 35.661767126511002 ] } },
{ "type": "Feature", "properties": { "内容": "グッドタイムナーシングホーム・幕張【特定施設入居者生活介護（有料老人ホーム）】幕張本郷2-15-8", "url": "https://www.kaigokensaku.mhlw.go.jp/12/index.php?action_kouhyou_detail_004_kani=true&JigyosyoCd=1270203555-00&ServiceCd=331&Type=search", "url2": "http://www.goodtimealliance.net/" }, "geometry": { "type": "Point", "coordinates": [ 140.040637299999958, 35.6680706 ] } },
{ "type": "Feature", "properties": { "内容": "ベストライフ幕張【特定施設入居者生活介護（有料老人ホーム）】千葉県千葉市花見川区幕張本郷2-15-22", "url": "https://www.kaigokensaku.mhlw.go.jp/12/index.php?action_kouhyou_detail_004_kani=true&JigyosyoCd=1270203654-00&ServiceCd=331&Type=search", "url2": null }, "geometry": { "type": "Point", "coordinates": [ 140.0399837, 35.6682024 ] } },
{ "type": "Feature", "properties": { "内容": "ニチイケアセンター新検見川【特定施設入居者生活介護（有料老人ホーム）】千葉県千葉市花見川区畑町662-442", "url": "https://www.kaigokensaku.mhlw.go.jp/12/index.php?action_kouhyou_detail_004_kani=true&JigyosyoCd=1270201898-00&ServiceCd=331&Type=search", "url2": "http://www.nichiigakkan.co.jp" }, "geometry": { "type": "Point", "coordinates": [ 140.0804243, 35.6610885 ] } },
{ "type": "Feature", "properties": { "内容": "ボンセジュール花見川【特定施設入居者生活介護（有料老人ホーム）】千葉県千葉市花見川区花園3-4-6", "url": "https://www.kaigokensaku.mhlw.go.jp/12/index.php?action_kouhyou_detail_004_kani=true&JigyosyoCd=1270202441-00&ServiceCd=331&Type=search", "url2": "http://www.benesse-style-care.co.jp/" }, "geometry": { "type": "Point", "coordinates": [ 140.068678299999988, 35.6557364 ] } },
{ "type": "Feature", "properties": { "内容": "ニチイケアセンター稲毛の園【特定施設入居者生活介護（有料老人ホーム）】千葉県千葉市稲毛区園生町817", "url": "https://www.kaigokensaku.mhlw.go.jp/12/index.php?action_kouhyou_detail_004_kani=true&JigyosyoCd=1270301300-00&ServiceCd=331&Type=search", "url2": "http://www.nichiigakkan.co.jp" }, "geometry": { "type": "Point", "coordinates": [ 140.106047100000069, 35.6450552 ] } },
{ "type": "Feature", "properties": { "内容": "有料老人ホーム　サニーライフ西千葉【特定施設入居者生活介護（有料老人ホーム）】千葉県千葉市稲毛区緑町１－３－４", "url": "https://www.kaigokensaku.mhlw.go.jp/12/index.php?action_kouhyou_detail_004_kani=true&JigyosyoCd=1270300898-00&ServiceCd=331&Type=search", "url2": "http://sunnylife-group.co.jp" }, "geometry": { "type": "Point", "coordinates": [ 140.099043100000017, 35.6240607 ] } },
{ "type": "Feature", "properties": { "内容": "敬老園ロイヤルヴィラ稲毛【特定施設入居者生活介護（有料老人ホーム）】千葉県千葉市稲毛区園生町146", "url": "https://www.kaigokensaku.mhlw.go.jp/12/index.php?action_kouhyou_detail_004_kani=true&JigyosyoCd=1270300195-00&ServiceCd=331&Type=search", "url2": "http://keirouen.jp" }, "geometry": { "type": "Point", "coordinates": [ 140.100897600000053, 35.6481796 ] } },
{ "type": "Feature", "properties": { "内容": "ハートフル稲毛【特定施設入居者生活介護（有料老人ホーム）】千葉県千葉市稲毛区黒砂台３－２－４１", "url": "https://www.kaigokensaku.mhlw.go.jp/12/index.php?action_kouhyou_detail_004_kani=true&JigyosyoCd=1270300435-00&ServiceCd=331&Type=search", "url2": "http://platinum-care.jp/hc/inage/" }, "geometry": { "type": "Point", "coordinates": [ 140.09824750000007, 35.6346591 ] } },
{ "type": "Feature", "properties": { "内容": "リスペクト稲毛【特定施設入居者生活介護（有料老人ホーム）】千葉県千葉市稲毛区稲毛東5-15-7", "url": "https://www.kaigokensaku.mhlw.go.jp/12/index.php?action_kouhyou_detail_004_kani=true&JigyosyoCd=1270300591-00&ServiceCd=331&Type=search", "url2": "http://www.sun-respect.com" }, "geometry": { "type": "Point", "coordinates": [ 140.086581600000045, 35.6397992 ] } },
{ "type": "Feature", "properties": { "内容": "アーバンリビング稲毛【特定施設入居者生活介護（有料老人ホーム）】千葉県千葉市稲毛区山王町327-1", "url": "https://www.kaigokensaku.mhlw.go.jp/12/index.php?action_kouhyou_detail_004_kani=true&JigyosyoCd=1270301375-00&ServiceCd=331&Type=search", "url2": "http://j-lifedesign.com" }, "geometry": { "type": "Point", "coordinates": [ 140.1389944, 35.6621824 ] } },
{ "type": "Feature", "properties": { "内容": "ベストライフ稲毛【特定施設入居者生活介護（有料老人ホーム）】千葉県千葉市稲毛区穴川町381-1", "url": "https://www.kaigokensaku.mhlw.go.jp/12/index.php?action_kouhyou_detail_004_kani=true&JigyosyoCd=1270302829-00&ServiceCd=331&Type=search", "url2": null }, "geometry": { "type": "Point", "coordinates": [ 140.1074088, 35.6375928 ] } },
{ "type": "Feature", "properties": { "内容": "ここち稲毛【特定施設入居者生活介護（有料老人ホーム）】千葉県千葉市稲毛区黒砂台２－４－１", "url": "https://www.kaigokensaku.mhlw.go.jp/12/index.php?action_kouhyou_detail_004_kani=true&JigyosyoCd=1270301946-00&ServiceCd=331&Type=search", "url2": "https://kaigo.benesse-style-care.co.jp/area_chiba/chiba/home_c-inage" }, "geometry": { "type": "Point", "coordinates": [ 140.09386829999994, 35.6310148 ] } },
{ "type": "Feature", "properties": { "内容": "ふるさとホーム千葉稲毛【特定施設入居者生活介護（有料老人ホーム）】千葉県千葉市稲毛区園生町487-13ふるさとホーム千葉稲毛", "url": "https://www.kaigokensaku.mhlw.go.jp/12/index.php?action_kouhyou_detail_004_kani=true&JigyosyoCd=1270302589-00&ServiceCd=331&Type=search", "url2": "https://www.vati.co.jp" }, "geometry": { "type": "Point", "coordinates": [ 140.1119167, 35.6452578 ] } },
{ "type": "Feature", "properties": { "内容": "アシステッドリビング稲毛【特定施設入居者生活介護（有料老人ホーム）】千葉県千葉市稲毛区園生町1017-11", "url": "https://www.kaigokensaku.mhlw.go.jp/12/index.php?action_kouhyou_detail_004_kani=true&JigyosyoCd=1270302068-00&ServiceCd=331&Type=search", "url2": "http://www.zenwellness.co.jp/" }, "geometry": { "type": "Point", "coordinates": [ 140.108249699999988, 35.63927 ] } },
{ "type": "Feature", "properties": { "内容": "ラ・ナシカ　こぶけ【特定施設入居者生活介護（有料老人ホーム）】千葉市稲毛区小深町261-10ラ・ナシカ　こぶけ", "url": "https://www.kaigokensaku.mhlw.go.jp/12/index.php?action_kouhyou_detail_004_kani=true&JigyosyoCd=1270300906-00&ServiceCd=331&Type=search", "url2": "http://www.cedar-group.co.jp" }, "geometry": { "type": "Point", "coordinates": [ 140.1507772, 35.6603974 ] } },
{ "type": "Feature", "properties": { "内容": "ＨＩＴＯＷＡケアサービス　イリーゼ都賀桜木【特定施設入居者生活介護（有料老人ホーム）】千葉県千葉市若葉区5-17-30", "url": "https://www.kaigokensaku.mhlw.go.jp/12/index.php?action_kouhyou_detail_004_kani=true&JigyosyoCd=1270403486-00&ServiceCd=331&Type=search", "url2": null }, "geometry": { "type": "Point", "coordinates": [ 140.1532502, 35.6273472 ] } },
{ "type": "Feature", "properties": { "内容": "介護付有料老人ホーム　オアゾ桜木【特定施設入居者生活介護（有料老人ホーム）】千葉県千葉市若葉区小倉町1763-13", "url": "https://www.kaigokensaku.mhlw.go.jp/12/index.php?action_kouhyou_detail_004_kani=true&JigyosyoCd=1270401340-00&ServiceCd=331&Type=search", "url2": null }, "geometry": { "type": "Point", "coordinates": [ 140.164857200000029, 35.6317579 ] } },
{ "type": "Feature", "properties": { "内容": "アシステッドリビング若葉【特定施設入居者生活介護（有料老人ホーム）】千葉県千葉市若葉区桜木北2丁目26番47号アシステッドリビング若葉", "url": "https://www.kaigokensaku.mhlw.go.jp/12/index.php?action_kouhyou_detail_004_kani=true&JigyosyoCd=1270403676-00&ServiceCd=331&Type=search", "url2": "http：//www.zenwellness.co.jp/" }, "geometry": { "type": "Point", "coordinates": [ 140.1580979, 35.6327563 ] } },
{ "type": "Feature", "properties": { "内容": "そんぽの家　都賀【特定施設入居者生活介護（有料老人ホーム）】千葉県千葉市若葉区桜木北２－１４－１", "url": "https://www.kaigokensaku.mhlw.go.jp/12/index.php?action_kouhyou_detail_004_kani=true&JigyosyoCd=1270401381-00&ServiceCd=331&Type=search", "url2": "https://www.sompocare.com/service/home/kaigo/H000225/" }, "geometry": { "type": "Point", "coordinates": [ 140.157398899999947, 35.6338713 ] } },
{ "type": "Feature", "properties": { "内容": "ＳＯＭＰＯケアラヴィーレみつわ台【特定施設入居者生活介護（有料老人ホーム）】千葉県千葉市若葉区みつわ台2-34-15", "url": "https://www.kaigokensaku.mhlw.go.jp/12/index.php?action_kouhyou_detail_004_kani=true&JigyosyoCd=1270403619-00&ServiceCd=331&Type=search", "url2": "https://www.sompocare.com" }, "geometry": { "type": "Point", "coordinates": [ 140.1335211, 35.6386363 ] } },
{ "type": "Feature", "properties": { "内容": "介護付有料老人ホーム　　ラ・ナシカ　たかしな【特定施設入居者生活介護（有料老人ホーム）】千葉県千葉市若葉区東寺山町770-8", "url": "https://www.kaigokensaku.mhlw.go.jp/12/index.php?action_kouhyou_detail_004_kani=true&JigyosyoCd=1270401233-00&ServiceCd=331&Type=search", "url2": null }, "geometry": { "type": "Point", "coordinates": [ 140.131045800000038, 35.6256543 ] } },
{ "type": "Feature", "properties": { "内容": "鎌取ケアコミュニティそよ風【特定施設入居者生活介護（有料老人ホーム）】千葉市緑区おゆみ野３－２６－３", "url": "https://www.kaigokensaku.mhlw.go.jp/12/index.php?action_kouhyou_detail_004_kani=true&JigyosyoCd=1270500737-00&ServiceCd=331&Type=search", "url2": "http://www.unimat-rc.co.jp" }, "geometry": { "type": "Point", "coordinates": [ 140.1746498, 35.561595 ] } },
{ "type": "Feature", "properties": { "内容": "介護付有料老人ホームあすみが丘グリーンヒルズ【特定施設入居者生活介護（有料老人ホーム）】千葉県千葉市緑区あすみが丘7丁目２番３", "url": "https://www.kaigokensaku.mhlw.go.jp/12/index.php?action_kouhyou_detail_004_kani=true&JigyosyoCd=1270500943-00&ServiceCd=331&Type=search", "url2": "http://www.asumigaokagh.co.jp" }, "geometry": { "type": "Point", "coordinates": [ 140.264975618530798, 35.520783915376363 ] } },
{ "type": "Feature", "properties": { "内容": "介護付き有料老人ホーム　アシステッドリビング土気【特定施設入居者生活介護（有料老人ホーム）】土気町299-4", "url": "https://www.kaigokensaku.mhlw.go.jp/12/index.php?action_kouhyou_detail_004_kani=true&JigyosyoCd=1270502170-00&ServiceCd=331&Type=search", "url2": "https://www.zenwellness.co.jp/" }, "geometry": { "type": "Point", "coordinates": [ 140.277089478295892, 35.530630035062281 ] } },
{ "type": "Feature", "properties": { "内容": "有料老人ホーム　サニーライフおゆみ野【特定施設入居者生活介護（有料老人ホーム）】千葉県千葉市緑区おゆみ野２丁目１７番地１", "url": "https://www.kaigokensaku.mhlw.go.jp/12/index.php?action_kouhyou_detail_004_kani=true&JigyosyoCd=1270500505-00&ServiceCd=331&Type=search", "url2": "http://www.sunnylife-group.co.jp" }, "geometry": { "type": "Point", "coordinates": [ 140.174727500000017, 35.5642003 ] } },
{ "type": "Feature", "properties": { "内容": "アビタシオン千葉【特定施設入居者生活介護（有料老人ホーム）】千葉県千葉市緑区辺田町2-12", "url": "https://www.kaigokensaku.mhlw.go.jp/12/index.php?action_kouhyou_detail_004_kani=true&JigyosyoCd=1270500968-00&ServiceCd=331&Type=search", "url2": "https://www.habitation.co.jp/chiba/" }, "geometry": { "type": "Point", "coordinates": [ 140.181723599999941, 35.5656572 ] } },
{ "type": "Feature", "properties": { "内容": "応援家族あすみが丘【特定施設入居者生活介護（有料老人ホーム）】千葉県千葉市緑区あすみが丘8-1-6応援家族あすみが丘", "url": "https://www.kaigokensaku.mhlw.go.jp/12/index.php?action_kouhyou_detail_004_kani=true&JigyosyoCd=1270501966-00&ServiceCd=331&Type=search", "url2": "http://www.kinoshita-kaigo.co.jp/" }, "geometry": { "type": "Point", "coordinates": [ 140.269283500000029, 35.521406400000011 ] } },
{ "type": "Feature", "properties": { "内容": "ラ・ナシカ　あすみが丘【特定施設入居者生活介護（有料老人ホーム）】千葉市緑区あすみが丘８－３７－１０", "url": "https://www.kaigokensaku.mhlw.go.jp/12/index.php?action_kouhyou_detail_004_kani=true&JigyosyoCd=1270500745-00&ServiceCd=331&Type=search", "url2": "https://www.cedar-group.co.jp/portal/facilities/detail---id-33.html" }, "geometry": { "type": "Point", "coordinates": [ 140.2695754, 35.5146378 ] } },
{ "type": "Feature", "properties": { "内容": "ホームステーションらいふ稲毛海岸【特定施設入居者生活介護（有料老人ホーム）】千葉県千葉市美浜区高洲1-1-13", "url": "https://www.kaigokensaku.mhlw.go.jp/12/index.php?action_kouhyou_detail_004_kani=true&JigyosyoCd=1270600743-00&ServiceCd=331&Type=search", "url2": "http://www.life-silver.com/kaigo/inage/" }, "geometry": { "type": "Point", "coordinates": [ 140.083819400000039, 35.627576 ] } },
{ "type": "Feature", "properties": { "内容": "介護付有料老人ホーム　プレザンメゾン美浜【特定施設入居者生活介護（有料老人ホーム）】千葉県千葉市美浜区高浜2-3-12", "url": "https://www.kaigokensaku.mhlw.go.jp/12/index.php?action_kouhyou_detail_004_kani=true&JigyosyoCd=1270601261-00&ServiceCd=331&Type=search", "url2": "https://www.care21.co.jp/" }, "geometry": { "type": "Point", "coordinates": [ 140.067871700000012, 35.6179862 ] } },
{ "type": "Feature", "properties": { "内容": "エクセルシオール稲毛海岸【特定施設入居者生活介護（有料老人ホーム）】千葉県千葉市美浜区真砂1-12-14エクセルシオール稲毛海岸", "url": "https://www.kaigokensaku.mhlw.go.jp/12/index.php?action_kouhyou_detail_004_kani=true&JigyosyoCd=1270600941-00&ServiceCd=331&Type=search", "url2": "http://www.excelsior-inagekaigan.com" }, "geometry": { "type": "Point", "coordinates": [ 140.070664814433258, 35.632946741210169 ] } },
{ "type": "Feature", "properties": { "内容": "グッドタイムホーム・行徳【特定施設入居者生活介護（有料老人ホーム）】千葉県市川市湊新田2-7-10", "url": "https://www.kaigokensaku.mhlw.go.jp/12/index.php?action_kouhyou_detail_004_kani=true&JigyosyoCd=1270805458-00&ServiceCd=331&Type=search", "url2": "http:www.goodtimehome.com" }, "geometry": { "type": "Point", "coordinates": [ 139.912287200000037, 35.6783278 ] } },
{ "type": "Feature", "properties": { "内容": "有料老人ホーム　オアゾ市川【特定施設入居者生活介護（有料老人ホーム）】千葉県市川市稲越1-25-35", "url": "https://www.kaigokensaku.mhlw.go.jp/12/index.php?action_kouhyou_detail_004_kani=true&JigyosyoCd=1270801952-00&ServiceCd=331&Type=search", "url2": null }, "geometry": { "type": "Point", "coordinates": [ 139.9305478, 35.7575893 ] } },
{ "type": "Feature", "properties": { "内容": "アイホーム市川まつひ台【特定施設入居者生活介護（有料老人ホーム）】千葉県市川市大町558番地アイホーム市川まつひ台", "url": "https://www.kaigokensaku.mhlw.go.jp/12/index.php?action_kouhyou_detail_004_kani=true&JigyosyoCd=1270802703-00&ServiceCd=331&Type=search", "url2": "http://www.imedicare.jp" }, "geometry": { "type": "Point", "coordinates": [ 139.95827810000003, 35.7751685 ] } },
{ "type": "Feature", "properties": { "内容": "ベストライフ市川【特定施設入居者生活介護（有料老人ホーム）】千葉県市川市田尻4-12-5", "url": "https://www.kaigokensaku.mhlw.go.jp/12/index.php?action_kouhyou_detail_004_kani=true&JigyosyoCd=1270805656-00&ServiceCd=331&Type=search", "url2": null }, "geometry": { "type": "Point", "coordinates": [ 139.9332062, 35.7037176 ] } },
{ "type": "Feature", "properties": { "内容": "そんぽの家市川【特定施設入居者生活介護（有料老人ホーム）】千葉県市川市柏井町1丁目1073番地", "url": "https://www.kaigokensaku.mhlw.go.jp/12/index.php?action_kouhyou_detail_004_kani=true&JigyosyoCd=1270803420-00&ServiceCd=331&Type=search", "url2": "https://www.sompocare.com" }, "geometry": { "type": "Point", "coordinates": [ 139.971383232679727, 35.74021901190028 ] } },
{ "type": "Feature", "properties": { "内容": "ニッケあすも市川【特定施設入居者生活介護（有料老人ホーム）】千葉県市川市鬼高2-20-25", "url": "https://www.kaigokensaku.mhlw.go.jp/12/index.php?action_kouhyou_detail_004_kani=true&JigyosyoCd=1270804980-00&ServiceCd=331&Type=search", "url2": "https://nikkecare.com/" }, "geometry": { "type": "Point", "coordinates": [ 139.936792873411036, 35.716343121246354 ] } },
{ "type": "Feature", "properties": { "内容": "リアンレーヴ市川【特定施設入居者生活介護（有料老人ホーム）】千葉県市川市大町564番地", "url": "https://www.kaigokensaku.mhlw.go.jp/12/index.php?action_kouhyou_detail_004_kani=true&JigyosyoCd=1270805433-00&ServiceCd=331&Type=search", "url2": "https://www.kinoshita-kaigo.co.jp/facility/housing_typse/lien_reve_ichikawa.html" }, "geometry": { "type": "Point", "coordinates": [ 139.957268, 35.774897 ] } },
{ "type": "Feature", "properties": { "内容": "アズハイム市川【特定施設入居者生活介護（有料老人ホーム）】千葉県市川市須和田2丁目17番6号", "url": "https://www.kaigokensaku.mhlw.go.jp/12/index.php?action_kouhyou_detail_004_kani=true&JigyosyoCd=1270805292-00&ServiceCd=331&Type=search", "url2": "http://www.as-partners.co.jp/" }, "geometry": { "type": "Point", "coordinates": [ 139.912819200000058, 35.7378144 ] } },
{ "type": "Feature", "properties": { "内容": "ブランシエール市川【特定施設入居者生活介護（有料老人ホーム）】千葉県市川市市川南1丁目1番1Ⅰ-linkタウンいちかわ　ザ・タワーズイースト", "url": "https://www.kaigokensaku.mhlw.go.jp/12/index.php?action_kouhyou_detail_004_kani=true&JigyosyoCd=1270802463-00&ServiceCd=331&Type=search", "url2": "https://www.haseko-senior.co.jp/home/ichikawa/index.html" }, "geometry": { "type": "Point", "coordinates": [ 139.908103100000062, 35.7283354 ] } },
{ "type": "Feature", "properties": { "内容": "まどか本八幡【特定施設入居者生活介護（有料老人ホーム）】千葉県市川市南八幡二丁目19番14号", "url": "https://www.kaigokensaku.mhlw.go.jp/12/index.php?action_kouhyou_detail_004_kani=true&JigyosyoCd=1270800855-00&ServiceCd=331&Type=search", "url2": "https://www.benesse-style-care.co.jp/" }, "geometry": { "type": "Point", "coordinates": [ 139.927596599999987, 35.714099 ] } },
{ "type": "Feature", "properties": { "内容": "まどか南行徳【特定施設入居者生活介護（有料老人ホーム）】千葉県市川市相之川三丁目9番11号", "url": "https://www.kaigokensaku.mhlw.go.jp/12/index.php?action_kouhyou_detail_004_kani=true&JigyosyoCd=1270801002-00&ServiceCd=331&Type=search", "url2": "https://www.benesse-style-care.co.jp/" }, "geometry": { "type": "Point", "coordinates": [ 139.899639, 35.6755424 ] } },
{ "type": "Feature", "properties": { "内容": "まどか本八幡東【特定施設入居者生活介護（有料老人ホーム）】千葉県市川市南八幡一丁目23番14号", "url": "https://www.kaigokensaku.mhlw.go.jp/12/index.php?action_kouhyou_detail_004_kani=true&JigyosyoCd=1270801135-00&ServiceCd=331&Type=search", "url2": "https://www.benesse-style-care.co.jp/" }, "geometry": { "type": "Point", "coordinates": [ 139.931079599999947, 35.7154071 ] } },
{ "type": "Feature", "properties": { "内容": "グットタイムホーム・南行徳【特定施設入居者生活介護（有料老人ホーム）】千葉県市川市南行徳1-14-5グッドタイムホーム南行徳", "url": "https://www.kaigokensaku.mhlw.go.jp/12/index.php?action_kouhyou_detail_004_kani=true&JigyosyoCd=1270805466-00&ServiceCd=331&Type=search", "url2": "http://www.goodtimehome.com" }, "geometry": { "type": "Point", "coordinates": [ 139.904227100000071, 35.6723993 ] } },
{ "type": "Feature", "properties": { "内容": "イリーゼふなばし【特定施設入居者生活介護（有料老人ホーム）】千葉県船橋市西船6-7-8", "url": "https://www.kaigokensaku.mhlw.go.jp/12/index.php?action_kouhyou_detail_004_kani=true&JigyosyoCd=1270903808-00&ServiceCd=331&Type=search", "url2": "http;//www.irs.jp" }, "geometry": { "type": "Point", "coordinates": [ 139.956319, 35.714034600000026 ] } },
{ "type": "Feature", "properties": { "内容": "家族の家ひまわり船橋【特定施設入居者生活介護（有料老人ホーム）】千葉県船橋市東船橋5-17-10", "url": "https://www.kaigokensaku.mhlw.go.jp/12/index.php?action_kouhyou_detail_004_kani=true&JigyosyoCd=1270904483-00&ServiceCd=331&Type=search", "url2": "http://www.saneido.co.jp/kaigo/" }, "geometry": { "type": "Point", "coordinates": [ 140.005330100000037, 35.6918088 ] } },
{ "type": "Feature", "properties": { "内容": "リッチランド豊南郷【特定施設入居者生活介護（有料老人ホーム）】千葉県船橋市金堀町５８２番地１", "url": "https://www.kaigokensaku.mhlw.go.jp/12/index.php?action_kouhyou_detail_004_kani=true&JigyosyoCd=1270901315-00&ServiceCd=331&Type=search", "url2": "http://www.richlando.com/" }, "geometry": { "type": "Point", "coordinates": [ 140.064367599999969, 35.7581312 ] } },
{ "type": "Feature", "properties": { "内容": "ライフコミューン船橋【特定施設入居者生活介護（有料老人ホーム）】千葉県船橋市駿河台2-1-17", "url": "https://www.kaigokensaku.mhlw.go.jp/12/index.php?action_kouhyou_detail_004_kani=true&JigyosyoCd=1270901406-00&ServiceCd=331&Type=search", "url2": "http://www.kinoshita-kaigo.co.jp/facilities/state/chiba/funabashi.html" }, "geometry": { "type": "Point", "coordinates": [ 140.011334799999986, 35.7038157 ] } },
{ "type": "Feature", "properties": { "内容": "ケアライフ船橋【特定施設入居者生活介護（有料老人ホーム）】千葉県船橋市新高根5-3-1", "url": "https://www.kaigokensaku.mhlw.go.jp/12/index.php?action_kouhyou_detail_004_kani=true&JigyosyoCd=1270908690-00&ServiceCd=331&Type=search", "url2": null }, "geometry": { "type": "Point", "coordinates": [ 140.02767080000001, 35.7274525 ] } },
{ "type": "Feature", "properties": { "内容": "介護付き有料老人ホーム　プレザンメゾン東船橋【特定施設入居者生活介護（有料老人ホーム）】千葉県船橋市宮本6-31-1", "url": "https://www.kaigokensaku.mhlw.go.jp/12/index.php?action_kouhyou_detail_004_kani=true&JigyosyoCd=1270907593-00&ServiceCd=331&Type=search", "url2": null }, "geometry": { "type": "Point", "coordinates": [ 139.998, 35.698824600000016 ] } },
{ "type": "Feature", "properties": { "内容": "SOMPOケア　ラヴィーレ習志野台【特定施設入居者生活介護（有料老人ホーム）】千葉県船橋市習志野台1-13-30", "url": "https://www.kaigokensaku.mhlw.go.jp/12/index.php?action_kouhyou_detail_004_kani=true&JigyosyoCd=1270908682-00&ServiceCd=331&Type=search", "url2": "https://www.sompocare.com/" }, "geometry": { "type": "Point", "coordinates": [ 140.038075400000025, 35.7269999 ] } },
{ "type": "Feature", "properties": { "内容": "ニチイホーム東船橋【特定施設入居者生活介護（有料老人ホーム）】千葉県船橋市市場4-4-35ニチイホーム　東船橋", "url": "https://www.kaigokensaku.mhlw.go.jp/12/index.php?action_kouhyou_detail_004_kani=true&JigyosyoCd=1270908146-00&ServiceCd=331&Type=search", "url2": "https://www.nichii-carepalace.co.jp/" }, "geometry": { "type": "Point", "coordinates": [ 140.000547133065794, 35.701872106405276 ] } },
{ "type": "Feature", "properties": { "内容": "ＳＯＭＰＯケア　ラヴィーレ西船橋【特定施設入居者生活介護（有料老人ホーム）】千葉県船橋市西船7丁目11番8号ＳＯＭＰＯケア　ラヴィーレ西船橋", "url": "https://www.kaigokensaku.mhlw.go.jp/12/index.php?action_kouhyou_detail_004_kani=true&JigyosyoCd=1270908666-00&ServiceCd=331&Type=search", "url2": "https://www.sompocare.com" }, "geometry": { "type": "Point", "coordinates": [ 139.955227299999933, 35.7176451 ] } },
{ "type": "Feature", "properties": { "内容": "ＳＯＭＰＯケアラヴィーレ津田沼【特定施設入居者生活介護（有料老人ホーム）】千葉県船橋市中野木2-3-32", "url": "https://www.kaigokensaku.mhlw.go.jp/12/index.php?action_kouhyou_detail_004_kani=true&JigyosyoCd=1270908674-00&ServiceCd=331&Type=search", "url2": "https://www.sompocare.com" }, "geometry": { "type": "Point", "coordinates": [ 140.0168483, 35.6998217 ] } },
{ "type": "Feature", "properties": { "内容": "敬老園ナーシングヴィラ東船橋【特定施設入居者生活介護（有料老人ホーム）】千葉県船橋市駿河台2-29-29", "url": "https://www.kaigokensaku.mhlw.go.jp/12/index.php?action_kouhyou_detail_004_kani=true&JigyosyoCd=1270900556-00&ServiceCd=331&Type=search", "url2": "https://keirouen.com/" }, "geometry": { "type": "Point", "coordinates": [ 140.0133234, 35.7060849 ] } },
{ "type": "Feature", "properties": { "内容": "グリーンライフ船橋【特定施設入居者生活介護（有料老人ホーム）】千葉県船橋市本郷町618-1", "url": "https://www.kaigokensaku.mhlw.go.jp/12/index.php?action_kouhyou_detail_004_kani=true&JigyosyoCd=1270910597-00&ServiceCd=331&Type=search", "url2": "https://www.greenlife-inc.co.jp/" }, "geometry": { "type": "Point", "coordinates": [ 139.951883400000014, 35.7074945 ] } },
{ "type": "Feature", "properties": { "内容": "ライフコミューン下総中山【特定施設入居者生活介護（有料老人ホーム）】千葉県船橋市本中山3-2-3", "url": "https://www.kaigokensaku.mhlw.go.jp/12/index.php?action_kouhyou_detail_004_kani=true&JigyosyoCd=1270902107-00&ServiceCd=331&Type=search", "url2": "http://www.kinoshita-kaigo.co.jp/facilities/state/chiba/shimousanakayama.html" }, "geometry": { "type": "Point", "coordinates": [ 139.946231099999977, 35.7124295 ] } },
{ "type": "Feature", "properties": { "内容": "クラーチ・ファミリア船橋【特定施設入居者生活介護（有料老人ホーム）】千葉県船橋市高根台7-18-15", "url": "https://www.kaigokensaku.mhlw.go.jp/12/index.php?action_kouhyou_detail_004_kani=true&JigyosyoCd=1270908427-00&ServiceCd=331&Type=search", "url2": "https://www.kuraci.co.jp/" }, "geometry": { "type": "Point", "coordinates": [ 140.03075739999997, 35.7279593 ] } },
{ "type": "Feature", "properties": { "内容": "イリーゼ船橋緑台【特定施設入居者生活介護（有料老人ホーム）】千葉県船橋市緑台二丁目4番55号イリーゼ船橋緑台", "url": "https://www.kaigokensaku.mhlw.go.jp/12/index.php?action_kouhyou_detail_004_kani=true&JigyosyoCd=1270909748-00&ServiceCd=331&Type=search", "url2": "https://www.irs.jp/?utm_source=google&utm_medium=cpc&utm_campaign=gss_listing_brand&argument=XgDKgLKL&dmai=gs_190409_001&gclid=EAIaIQobChMIlaDMk_KS9gIVRQp9Ch016w8zEAAYASAAEgLr8PD_BwE" }, "geometry": { "type": "Point", "coordinates": [ 140.014671525794995, 35.728835706376962 ] } },
{ "type": "Feature", "properties": { "内容": "リアンレーヴ東船橋【特定施設入居者生活介護（有料老人ホーム）】千葉県船橋市宮本4-12-39リアンレーヴ東船橋", "url": "https://www.kaigokensaku.mhlw.go.jp/12/index.php?action_kouhyou_detail_004_kani=true&JigyosyoCd=1270908229-00&ServiceCd=331&Type=search", "url2": "http://www.kinoshita-kaigo.co.jp/" }, "geometry": { "type": "Point", "coordinates": [ 139.995950900000025, 35.6910499 ] } },
{ "type": "Feature", "properties": { "内容": "ヨウコーフォレスト館山【特定施設入居者生活介護（有料老人ホーム）】千葉県館山市大賀１１４５", "url": "https://www.kaigokensaku.mhlw.go.jp/12/index.php?action_kouhyou_detail_004_kani=true&JigyosyoCd=1271000091-00&ServiceCd=331&Type=search", "url2": "https://rehabili-youko.com/" }, "geometry": { "type": "Point", "coordinates": [ 139.826297167459074, 34.978816012857642 ] } },
{ "type": "Feature", "properties": { "内容": "介護付き有料老人ホーム　まきの実ガーデン【特定施設入居者生活介護（有料老人ホーム）】千葉県館山市南条287-1", "url": "https://www.kaigokensaku.mhlw.go.jp/12/index.php?action_kouhyou_detail_004_kani=true&JigyosyoCd=1271001388-00&ServiceCd=331&Type=search", "url2": "https://www.makinomi.co.jp/kyoju-shisetsu/kaigo-yuryo-2/" }, "geometry": { "type": "Point", "coordinates": [ 139.8724455, 34.9748145 ] } },
{ "type": "Feature", "properties": { "内容": "介護付有料老人ホームヴェルデ北条【特定施設入居者生活介護（有料老人ホーム）】千葉県館山市北条1100番地１", "url": "https://www.kaigokensaku.mhlw.go.jp/12/index.php?action_kouhyou_detail_004_kani=true&JigyosyoCd=1271000802-00&ServiceCd=331&Type=search", "url2": "http://verde-care.net/" }, "geometry": { "type": "Point", "coordinates": [ 139.868993199999977, 34.99337 ] } },
{ "type": "Feature", "properties": { "内容": "介護付有料老人ホーム木更津真心生楽館【特定施設入居者生活介護（有料老人ホーム）】千葉県木更津市木更津3-6-16木更津真心生楽館", "url": "https://www.kaigokensaku.mhlw.go.jp/12/index.php?action_kouhyou_detail_004_kani=true&JigyosyoCd=1271103010-00&ServiceCd=331&Type=search", "url2": "https://www.chishinkai-group.jp/" }, "geometry": { "type": "Point", "coordinates": [ 139.935144799999989, 35.3823105 ] } },
{ "type": "Feature", "properties": { "内容": "アビタシオン木更津一番館【特定施設入居者生活介護（有料老人ホーム）】千葉県木更津市金田東4丁目11-1", "url": "https://www.kaigokensaku.mhlw.go.jp/12/index.php?action_kouhyou_detail_004_kani=true&JigyosyoCd=1271102616-00&ServiceCd=331&Type=search", "url2": "https://www.habitation.co.jp/kisarazu/" }, "geometry": { "type": "Point", "coordinates": [ 139.9359068, 35.428625 ] } },
{ "type": "Feature", "properties": { "内容": "親愛カトレア館【特定施設入居者生活介護（有料老人ホーム）】千葉県松戸市紙敷3-10-1", "url": "https://www.kaigokensaku.mhlw.go.jp/12/index.php?action_kouhyou_detail_004_kani=true&JigyosyoCd=1271202911-00&ServiceCd=331&Type=search", "url2": "http://www.sinai.jp" }, "geometry": { "type": "Point", "coordinates": [ 139.950209399999949, 35.7728879 ] } },
{ "type": "Feature", "properties": { "内容": "松戸ナーシングヴィラそよ風【特定施設入居者生活介護（有料老人ホーム）】千葉県松戸市常盤平5-24-2", "url": "https://www.kaigokensaku.mhlw.go.jp/12/index.php?action_kouhyou_detail_004_kani=true&JigyosyoCd=1271205518-00&ServiceCd=331&Type=search", "url2": "https://www.sykz.co.jp/shisetsu/163" }, "geometry": { "type": "Point", "coordinates": [ 139.9617465, 35.7949391 ] } },
{ "type": "Feature", "properties": { "内容": "親愛荘【特定施設入居者生活介護（有料老人ホーム）】千葉県松戸市和名ヶ谷1258-1", "url": "https://www.kaigokensaku.mhlw.go.jp/12/index.php?action_kouhyou_detail_004_kani=true&JigyosyoCd=1271207035-00&ServiceCd=331&Type=search", "url2": "https://sinaikai.com/" }, "geometry": { "type": "Point", "coordinates": [ 139.92265610000004, 35.7751701 ] } },
{ "type": "Feature", "properties": { "内容": "アイホームまつど中央【特定施設入居者生活介護（有料老人ホーム）】千葉県松戸市岩瀬595-1アイホームまつど中央", "url": "https://www.kaigokensaku.mhlw.go.jp/12/index.php?action_kouhyou_detail_004_kani=true&JigyosyoCd=1271206060-00&ServiceCd=331&Type=search", "url2": "http://www.imedicare.jp" }, "geometry": { "type": "Point", "coordinates": [ 139.906631800000014, 35.7834496 ] } },
{ "type": "Feature", "properties": { "内容": "メディクスケアホーム松戸【特定施設入居者生活介護（有料老人ホーム）】千葉県松戸市松戸1063-1メディクスケアホーム松戸", "url": "https://www.kaigokensaku.mhlw.go.jp/12/index.php?action_kouhyou_detail_004_kani=true&JigyosyoCd=1271209395-00&ServiceCd=331&Type=search", "url2": "https://carehome.swrc.co.jp/" }, "geometry": { "type": "Point", "coordinates": [ 139.9032587, 35.7781419 ] } },
{ "type": "Feature", "properties": { "内容": "リアンレーヴ松戸【特定施設入居者生活介護（有料老人ホーム）】千葉県松戸市六高台2丁目42-1リアンレーヴ松戸", "url": "https://www.kaigokensaku.mhlw.go.jp/12/index.php?action_kouhyou_detail_004_kani=true&JigyosyoCd=1271205880-00&ServiceCd=331&Type=search", "url2": "http://www.kinoshita-kaigo.co.jp/facilities/state/chiba/post-8.html" }, "geometry": { "type": "Point", "coordinates": [ 139.986918599999967, 35.7948843 ] } },
{ "type": "Feature", "properties": { "内容": "グランドめいと北小金【特定施設入居者生活介護（有料老人ホーム）】千葉県松戸市殿平賀56-1", "url": "https://www.kaigokensaku.mhlw.go.jp/12/index.php?action_kouhyou_detail_004_kani=true&JigyosyoCd=1271206516-00&ServiceCd=331&Type=search", "url2": "https://mate-care.co.jp/" }, "geometry": { "type": "Point", "coordinates": [ 139.930183299999953, 35.8365076 ] } },
{ "type": "Feature", "properties": { "内容": "介護付有料老人ホームときわ苑【特定施設入居者生活介護（有料老人ホーム）】千葉県松戸市五香西５－３０－３", "url": "https://www.kaigokensaku.mhlw.go.jp/12/index.php?action_kouhyou_detail_004_kani=true&JigyosyoCd=1271205427-00&ServiceCd=331&Type=search", "url2": "http://www.tokiwakai-chp.com/" }, "geometry": { "type": "Point", "coordinates": [ 139.9492785, 35.7872337 ] } },
{ "type": "Feature", "properties": { "内容": "介護付有料老人ホームユーカリ小金原【特定施設入居者生活介護（有料老人ホーム）】千葉県松戸市小金原4-3-4", "url": "https://www.kaigokensaku.mhlw.go.jp/12/index.php?action_kouhyou_detail_004_kani=true&JigyosyoCd=1271204941-00&ServiceCd=331&Type=search", "url2": "http://www.seikatsukaigo.co.jp" }, "geometry": { "type": "Point", "coordinates": [ 139.9391137, 35.8228348 ] } },
{ "type": "Feature", "properties": { "内容": "松戸めいせい【特定施設入居者生活介護（有料老人ホーム）】千葉県松戸市河原塚258-20", "url": "https://www.kaigokensaku.mhlw.go.jp/12/index.php?action_kouhyou_detail_004_kani=true&JigyosyoCd=1271206292-00&ServiceCd=331&Type=search", "url2": "http://www.fukushi-e.com" }, "geometry": { "type": "Point", "coordinates": [ 139.940429399999971, 35.7813811 ] } },
{ "type": "Feature", "properties": { "内容": "介護付き有料老人ホーム　あさひガーデン松戸【特定施設入居者生活介護（有料老人ホーム）】千葉県松戸市栄町西３－１０６６", "url": "https://www.kaigokensaku.mhlw.go.jp/12/index.php?action_kouhyou_detail_004_kani=true&JigyosyoCd=1271204602-00&ServiceCd=331&Type=search", "url2": "http://www.asahigarden-matsudo.com/" }, "geometry": { "type": "Point", "coordinates": [ 139.901481099999955, 35.81196 ] } },
{ "type": "Feature", "properties": { "内容": "SOMPOケアラヴィーレ松戸【特定施設入居者生活介護（有料老人ホーム）】千葉県松戸市馬橋312-1", "url": "https://www.kaigokensaku.mhlw.go.jp/12/index.php?action_kouhyou_detail_004_kani=true&JigyosyoCd=1271208199-00&ServiceCd=331&Type=search", "url2": "https://www.sompocare.com/" }, "geometry": { "type": "Point", "coordinates": [ 139.918151800000032, 35.8128405 ] } },
{ "type": "Feature", "properties": { "内容": "ウェル・エイジング・プラザ松戸ニッセイエデンの園【特定施設入居者生活介護（有料老人ホーム）】千葉県松戸市高塚新田123-1", "url": "https://www.kaigokensaku.mhlw.go.jp/12/index.php?action_kouhyou_detail_004_kani=true&JigyosyoCd=1271200592-00&ServiceCd=331&Type=search", "url2": "http://www.nissay-seirei.org/matsudo/index.html" }, "geometry": { "type": "Point", "coordinates": [ 139.942674500000066, 35.7558676 ] } },
{ "type": "Feature", "properties": { "内容": "介護付有料老人ホーム　ハルトリーゲル松戸【特定施設入居者生活介護（有料老人ホーム）】千葉県松戸市和名ヶ谷１００９－３３", "url": "https://www.kaigokensaku.mhlw.go.jp/12/index.php?action_kouhyou_detail_004_kani=true&JigyosyoCd=1271205815-00&ServiceCd=331&Type=search", "url2": "https://hartriegel.jp/" }, "geometry": { "type": "Point", "coordinates": [ 139.920869900000071, 35.7803277 ] } },
{ "type": "Feature", "properties": { "内容": "パークヴィラ陽春館【特定施設入居者生活介護（有料老人ホーム）】千葉県松戸市金ヶ作115-1", "url": "https://www.kaigokensaku.mhlw.go.jp/12/index.php?action_kouhyou_detail_004_kani=true&JigyosyoCd=1271200337-00&ServiceCd=331&Type=search", "url2": "http://youshunkan.co.jp/" }, "geometry": { "type": "Point", "coordinates": [ 139.945791800000052, 35.8066982 ] } },
{ "type": "Feature", "properties": { "内容": "ベストライフ松戸【特定施設入居者生活介護（有料老人ホーム）】千葉県松戸市八ヶ崎7-30-3", "url": "https://www.kaigokensaku.mhlw.go.jp/12/index.php?action_kouhyou_detail_004_kani=true&JigyosyoCd=1271208694-00&ServiceCd=331&Type=search", "url2": null }, "geometry": { "type": "Point", "coordinates": [ 139.929021299999988, 35.8115688 ] } },
{ "type": "Feature", "properties": { "内容": "介護付有料老人ホーム　ハーモニー六高台【特定施設入居者生活介護（有料老人ホーム）】千葉県松戸市六高台９－５６－３介護付有料老人ホーム　ハーモニー六高台", "url": "https://www.kaigokensaku.mhlw.go.jp/12/index.php?action_kouhyou_detail_004_kani=true&JigyosyoCd=1271206227-00&ServiceCd=331&Type=search", "url2": "www.ｈarmony-matudo.co.jp//" }, "geometry": { "type": "Point", "coordinates": [ 139.990044999475089, 35.805982833736735 ] } },
{ "type": "Feature", "properties": { "内容": "そんぽの家　松戸五香【特定施設入居者生活介護（有料老人ホーム）】千葉県松戸市五香３－２５－４", "url": "https://www.kaigokensaku.mhlw.go.jp/12/index.php?action_kouhyou_detail_004_kani=true&JigyosyoCd=1271202143-00&ServiceCd=331&Type=search", "url2": "http://www.sompocare.com" }, "geometry": { "type": "Point", "coordinates": [ 139.975931100000025, 35.7932896 ] } },
{ "type": "Feature", "properties": { "内容": "SOMPOケアラヴィーレ東松戸【特定施設入居者生活介護（有料老人ホーム）】千葉県松戸市東松戸3-15-10SOMPOケアラヴィーレ東松戸（旧　レストヴィラ東松戸）", "url": "https://www.kaigokensaku.mhlw.go.jp/12/index.php?action_kouhyou_detail_004_kani=true&JigyosyoCd=1271208207-00&ServiceCd=331&Type=search", "url2": "https://www.sompocare.com/service/home/kaigo/H000098/" }, "geometry": { "type": "Point", "coordinates": [ 139.939573200000041, 35.7698761 ] } },
{ "type": "Feature", "properties": { "内容": "グランドめいと松戸【特定施設入居者生活介護（有料老人ホーム）】千葉県松戸市上本郷3906", "url": "https://www.kaigokensaku.mhlw.go.jp/12/index.php?action_kouhyou_detail_004_kani=true&JigyosyoCd=1271202697-00&ServiceCd=331&Type=search", "url2": "https://mate-care.co.jp/" }, "geometry": { "type": "Point", "coordinates": [ 139.918655100000024, 35.7974979 ] } },
{ "type": "Feature", "properties": { "内容": "アイホームまつど小金【特定施設入居者生活介護（有料老人ホーム）】千葉県松戸市大金平2丁目71番地", "url": "https://www.kaigokensaku.mhlw.go.jp/12/index.php?action_kouhyou_detail_004_kani=true&JigyosyoCd=1271204206-00&ServiceCd=331&Type=search", "url2": "http://www.imedicare.jp" }, "geometry": { "type": "Point", "coordinates": [ 139.9276863, 35.8365241 ] } },
{ "type": "Feature", "properties": { "内容": "グレースメイト松戸【特定施設入居者生活介護（有料老人ホーム）】千葉県松戸市旭町1－193グレースメイト松戸", "url": "https://www.kaigokensaku.mhlw.go.jp/12/index.php?action_kouhyou_detail_004_kani=true&JigyosyoCd=1271209106-00&ServiceCd=331&Type=search", "url2": "https://solasto-kaigo.com/service/home/matsudo" }, "geometry": { "type": "Point", "coordinates": [ 139.8992963, 35.8171247 ] } },
{ "type": "Feature", "properties": { "内容": "サンセット豊夢【特定施設入居者生活介護（有料老人ホーム）】千葉県松戸市河原塚146-1", "url": "https://www.kaigokensaku.mhlw.go.jp/12/index.php?action_kouhyou_detail_004_kani=true&JigyosyoCd=1271208629-00&ServiceCd=331&Type=search", "url2": "https://www.wakei-kai.or.jp/home-sunset/" }, "geometry": { "type": "Point", "coordinates": [ 139.936541900000037, 35.777675899999984 ] } },
{ "type": "Feature", "properties": { "内容": "シーハーツ松戸【特定施設入居者生活介護（有料老人ホーム）】千葉県松戸市河原塚101-3", "url": "https://www.kaigokensaku.mhlw.go.jp/12/index.php?action_kouhyou_detail_004_kani=true&JigyosyoCd=1271209692-00&ServiceCd=331&Type=search", "url2": "https://www.greenlife-inc.co.jp/facility/c-hearts_matsudo/" }, "geometry": { "type": "Point", "coordinates": [ 139.938892, 35.7803957 ] } },
{ "type": "Feature", "properties": { "内容": "応援家族松戸【特定施設入居者生活介護（有料老人ホーム）】千葉県松戸市五香4丁目22番地応援家族松戸116号", "url": "https://www.kaigokensaku.mhlw.go.jp/12/index.php?action_kouhyou_detail_004_kani=true&JigyosyoCd=1271207845-00&ServiceCd=331&Type=search", "url2": "https://www.kinoshita-kaigo.co.jp/" }, "geometry": { "type": "Point", "coordinates": [ 139.981027700000027, 35.7938008 ] } },
{ "type": "Feature", "properties": { "内容": "イリーゼまつど【特定施設入居者生活介護（有料老人ホーム）】千葉県松戸市日暮3-25-1", "url": "https://www.kaigokensaku.mhlw.go.jp/12/index.php?action_kouhyou_detail_004_kani=true&JigyosyoCd=1271210054-00&ServiceCd=331&Type=search", "url2": "https://www.irs.jp" }, "geometry": { "type": "Point", "coordinates": [ 139.9363295, 35.7886155 ] } },
{ "type": "Feature", "properties": { "内容": "介護付有料老人ホーム　ハーモニー松戸【特定施設入居者生活介護（有料老人ホーム）】千葉県松戸市五香西5丁目３－１４", "url": "https://www.kaigokensaku.mhlw.go.jp/12/index.php?action_kouhyou_detail_004_kani=true&JigyosyoCd=1271203349-00&ServiceCd=331&Type=search", "url2": "http://www.harmony-matudo.co.jp" }, "geometry": { "type": "Point", "coordinates": [ 139.9565, 35.78842 ] } },
{ "type": "Feature", "properties": { "内容": "ブリスイン野田【特定施設入居者生活介護（有料老人ホーム）】千葉県野田市宮崎81-6", "url": "https://www.kaigokensaku.mhlw.go.jp/12/index.php?action_kouhyou_detail_004_kani=true&JigyosyoCd=1271301804-00&ServiceCd=331&Type=search", "url2": "http://www.bliss-noda.co.jp" }, "geometry": { "type": "Point", "coordinates": [ 139.872538800000029, 35.9531896 ] } },
{ "type": "Feature", "properties": { "内容": "ここち野田【特定施設入居者生活介護（有料老人ホーム）】千葉県野田市山崎2210-7", "url": "https://www.kaigokensaku.mhlw.go.jp/12/index.php?action_kouhyou_detail_004_kani=true&JigyosyoCd=1271301549-00&ServiceCd=331&Type=search", "url2": "https://kaigo.benesse-style-care.co.jp/area_chiba/noda/home_c-noda" }, "geometry": { "type": "Point", "coordinates": [ 139.891450099999929, 35.9265427 ] } },
{ "type": "Feature", "properties": { "内容": "サンライズ茂原【特定施設入居者生活介護（有料老人ホーム）】千葉県茂原市本納3356-1", "url": "https://www.kaigokensaku.mhlw.go.jp/12/index.php?action_kouhyou_detail_004_kani=true&JigyosyoCd=1271500074-00&ServiceCd=331&Type=search", "url2": "https://sunrize-mobara.co.jp/" }, "geometry": { "type": "Point", "coordinates": [ 140.2996161, 35.4803364 ] } },
{ "type": "Feature", "properties": { "内容": "有料老人ホーム陽だまりの里【特定施設入居者生活介護（有料老人ホーム）】千葉県茂原市高師878", "url": "https://www.kaigokensaku.mhlw.go.jp/12/index.php?action_kouhyou_detail_004_kani=true&JigyosyoCd=1271500843-00&ServiceCd=331&Type=search", "url2": "http://www.life-as.com/" }, "geometry": { "type": "Point", "coordinates": [ 140.296547499999974, 35.4292107 ] } },
{ "type": "Feature", "properties": { "内容": "ニチイケアセンター成田【特定施設入居者生活介護（有料老人ホーム）】千葉県成田市土屋1314-4", "url": "https://www.kaigokensaku.mhlw.go.jp/12/index.php?action_kouhyou_detail_004_kani=true&JigyosyoCd=1271600825-00&ServiceCd=331&Type=search", "url2": "https://www.nichiigakkan.co.jp/" }, "geometry": { "type": "Point", "coordinates": [ 140.314336200000071, 35.7929027 ] } },
{ "type": "Feature", "properties": { "内容": "SOMPOケアラヴィーレ成田【特定施設入居者生活介護（有料老人ホーム）】千葉県成田市飯仲28番18", "url": "https://www.kaigokensaku.mhlw.go.jp/12/index.php?action_kouhyou_detail_004_kani=true&JigyosyoCd=1271601757-00&ServiceCd=331&Type=search", "url2": "https://www.sompocare.com" }, "geometry": { "type": "Point", "coordinates": [ 140.2999618, 35.7533188 ] } },
{ "type": "Feature", "properties": { "内容": "ベストライフ成田【特定施設入居者生活介護（有料老人ホーム）】千葉県成田市囲護台1155－1", "url": "https://www.kaigokensaku.mhlw.go.jp/12/index.php?action_kouhyou_detail_004_kani=true&JigyosyoCd=1271601864-00&ServiceCd=331&Type=search", "url2": null }, "geometry": { "type": "Point", "coordinates": [ 140.3046172, 35.7736732 ] } },
{ "type": "Feature", "properties": { "内容": "さわやか成田館【特定施設入居者生活介護（有料老人ホーム）】千葉県成田市並木町142-28さわやか成田館", "url": "https://www.kaigokensaku.mhlw.go.jp/12/index.php?action_kouhyou_detail_004_kani=true&JigyosyoCd=1271601278-00&ServiceCd=331&Type=search", "url2": "http://sawayakaclub.jp" }, "geometry": { "type": "Point", "coordinates": [ 140.311857803704811, 35.754986727090383 ] } },
{ "type": "Feature", "properties": { "内容": "クラーチ・ファミリア佐倉【特定施設入居者生活介護（有料老人ホーム）】千葉県佐倉市上座５６７－１－２", "url": "https://www.kaigokensaku.mhlw.go.jp/12/index.php?action_kouhyou_detail_004_kani=true&JigyosyoCd=1271702175-00&ServiceCd=331&Type=search", "url2": "https://www.kuraci.co.jp/home/famila-sakura/" }, "geometry": { "type": "Point", "coordinates": [ 140.149911386108414, 35.721432848501358 ] } },
{ "type": "Feature", "properties": { "内容": "一般財団法人日本老人福祉財団　佐倉〈ゆうゆうの里〉【特定施設入居者生活介護（有料老人ホーム）】千葉県佐倉市鏑木町270－１", "url": "https://www.kaigokensaku.mhlw.go.jp/12/index.php?action_kouhyou_detail_004_kani=true&JigyosyoCd=1271700070-00&ServiceCd=331&Type=search", "url2": "https://www.yuyunosato.or.jp/place/sakura" }, "geometry": { "type": "Point", "coordinates": [ 140.236655674972866, 35.715328797292202 ] } },
{ "type": "Feature", "properties": { "内容": "介護付有料老人ホーム　ミライアコート宮の杜【特定施設入居者生活介護（有料老人ホーム）】千葉県佐倉市宮ノ台6丁目6番地1介護付有料老人ホーム　ミライアコート宮の杜", "url": "https://www.kaigokensaku.mhlw.go.jp/12/index.php?action_kouhyou_detail_004_kani=true&JigyosyoCd=1271702308-00&ServiceCd=331&Type=search", "url2": "https://miraiacourt.yutokai.com/" }, "geometry": { "type": "Point", "coordinates": [ 140.1496836, 35.7407426 ] } },
{ "type": "Feature", "properties": { "内容": "ラ・ナシカさくら【特定施設入居者生活介護（有料老人ホーム）】千葉県佐倉市寺崎北四丁目６番地５", "url": "https://www.kaigokensaku.mhlw.go.jp/12/index.php?action_kouhyou_detail_004_kani=true&JigyosyoCd=1271701961-00&ServiceCd=331&Type=search", "url2": "https://www.cedar-group.co.jp" }, "geometry": { "type": "Point", "coordinates": [ 140.217509327153039, 35.711469970747778 ] } },
{ "type": "Feature", "properties": { "内容": "夢眠ちば【特定施設入居者生活介護（有料老人ホーム）】千葉県佐倉市下志津214-1", "url": "https://www.kaigokensaku.mhlw.go.jp/12/index.php?action_kouhyou_detail_004_kani=true&JigyosyoCd=1271702688-00&ServiceCd=331&Type=search", "url2": "https://muminhome.jp/chiba" }, "geometry": { "type": "Point", "coordinates": [ 140.1652392, 35.7138288 ] } },
{ "type": "Feature", "properties": { "内容": "染井野ヒルズひまわりの里【特定施設入居者生活介護（有料老人ホーム）】千葉県佐倉市生谷1575-5", "url": "https://www.kaigokensaku.mhlw.go.jp/12/index.php?action_kouhyou_detail_004_kani=true&JigyosyoCd=1271701805-00&ServiceCd=331&Type=search", "url2": "https://someino-hills.jp/" }, "geometry": { "type": "Point", "coordinates": [ 140.187706400000025, 35.7227017 ] } },
{ "type": "Feature", "properties": { "内容": "介護付有料老人ホームプレザンメゾン　習志野実籾【特定施設入居者生活介護（有料老人ホーム）】千葉県習志野市実籾3-12-1", "url": "https://www.kaigokensaku.mhlw.go.jp/12/index.php?action_kouhyou_detail_004_kani=true&JigyosyoCd=1272101674-00&ServiceCd=331&Type=search", "url2": "http://www.care21.co.jp/" }, "geometry": { "type": "Point", "coordinates": [ 140.069960600000059, 35.6857774 ] } },
{ "type": "Feature", "properties": { "内容": "そんぽの家津田沼【特定施設入居者生活介護（有料老人ホーム）】千葉県習志野市藤崎4丁目10－18", "url": "https://www.kaigokensaku.mhlw.go.jp/12/index.php?action_kouhyou_detail_004_kani=true&JigyosyoCd=1272100494-00&ServiceCd=331&Type=search", "url2": "http://www.sompocare.com" }, "geometry": { "type": "Point", "coordinates": [ 140.037103483933151, 35.693249256713855 ] } },
{ "type": "Feature", "properties": { "内容": "ウェルケアテラス谷津【特定施設入居者生活介護（有料老人ホーム）】千葉県習志野市谷津四丁目7番34号", "url": "https://www.kaigokensaku.mhlw.go.jp/12/index.php?action_kouhyou_detail_004_kani=true&JigyosyoCd=1272101666-00&ServiceCd=331&Type=search", "url2": "http://www.sankeiwellcare.com/" }, "geometry": { "type": "Point", "coordinates": [ 140.005769200000032, 35.6850568 ] } },
{ "type": "Feature", "properties": { "内容": "アミカの郷津田沼【特定施設入居者生活介護（有料老人ホーム）】千葉県習志野市藤崎４－１－５", "url": "https://www.kaigokensaku.mhlw.go.jp/12/index.php?action_kouhyou_detail_004_kani=true&JigyosyoCd=1272102433-00&ServiceCd=331&Type=search", "url2": null }, "geometry": { "type": "Point", "coordinates": [ 140.0351297, 35.6919155 ] } },
{ "type": "Feature", "properties": { "内容": "アズハイム習志野【特定施設入居者生活介護（有料老人ホーム）】千葉県習志野市新栄一丁目12番8号", "url": "https://www.kaigokensaku.mhlw.go.jp/12/index.php?action_kouhyou_detail_004_kani=true&JigyosyoCd=1272102540-00&ServiceCd=331&Type=search", "url2": "https://www.as-partners.co.jp/" }, "geometry": { "type": "Point", "coordinates": [ 140.0630678, 35.6901874 ] } },
{ "type": "Feature", "properties": { "内容": "そんぽの家京成大久保【特定施設入居者生活介護（有料老人ホーム）】千葉県習志野市大久保２－９－３０", "url": "https://www.kaigokensaku.mhlw.go.jp/12/index.php?action_kouhyou_detail_004_kani=true&JigyosyoCd=1272100585-00&ServiceCd=331&Type=search", "url2": "https://www.sompocare.com" }, "geometry": { "type": "Point", "coordinates": [ 140.0527899, 35.687349200000014 ] } },
{ "type": "Feature", "properties": { "内容": "リハビリホームボンセジュール谷津【特定施設入居者生活介護（有料老人ホーム）】千葉県習志野市谷津4丁目4番30号", "url": "https://www.kaigokensaku.mhlw.go.jp/12/index.php?action_kouhyou_detail_004_kani=true&JigyosyoCd=1272102177-00&ServiceCd=331&Type=search", "url2": "https://kaigo.benesse-style-care.co.jp/area_chiba/narashino/home_b-yatsu" }, "geometry": { "type": "Point", "coordinates": [ 140.0090107, 35.6841621 ] } },
{ "type": "Feature", "properties": { "内容": "アシステッドリビング習志野【特定施設入居者生活介護（有料老人ホーム）】千葉県習志野市実籾5-3-20", "url": "https://www.kaigokensaku.mhlw.go.jp/12/index.php?action_kouhyou_detail_004_kani=true&JigyosyoCd=1272101922-00&ServiceCd=331&Type=search", "url2": "http://www.zenwellness.co.jp/" }, "geometry": { "type": "Point", "coordinates": [ 140.068910599999981, 35.6886521 ] } },
{ "type": "Feature", "properties": { "内容": "シーハーツ柏【特定施設入居者生活介護（有料老人ホーム）】千葉県柏市根戸445-2", "url": "https://www.kaigokensaku.mhlw.go.jp/12/index.php?action_kouhyou_detail_004_kani=true&JigyosyoCd=1272202183-00&ServiceCd=331&Type=search", "url2": "http://www.greenlife-inc.co.jp/" }, "geometry": { "type": "Point", "coordinates": [ 139.983885399999963, 35.8837963 ] } },
{ "type": "Feature", "properties": { "内容": "シーハーツ柏の葉【特定施設入居者生活介護（有料老人ホーム）】千葉県柏市十余二４０９－１２", "url": "https://www.kaigokensaku.mhlw.go.jp/12/index.php?action_kouhyou_detail_004_kani=true&JigyosyoCd=1272202738-00&ServiceCd=331&Type=search", "url2": "http://www.greenlife-inc.co.jp/facility/c-hearts_kashiwanoha/" }, "geometry": { "type": "Point", "coordinates": [ 139.945602199999939, 35.8883693 ] } },
{ "type": "Feature", "properties": { "内容": "ニチイホーム柏の葉【特定施設入居者生活介護（有料老人ホーム）】千葉県柏市正連寺544番地中央136街区7", "url": "https://www.kaigokensaku.mhlw.go.jp/12/index.php?action_kouhyou_detail_004_kani=true&JigyosyoCd=1272203702-00&ServiceCd=331&Type=search", "url2": "https://www.nichii-carepalace.co.jp/shisetsu/area/chiba/kashiwanoha.html" }, "geometry": { "type": "Point", "coordinates": [ 139.950919437017774, 35.898851429565042 ] } },
{ "type": "Feature", "properties": { "内容": "介護付有料老人ホーム　ヒューマンサポート柏の葉【特定施設入居者生活介護（有料老人ホーム）】千葉県柏市正連寺３８７番地中央６９街区６", "url": "https://www.kaigokensaku.mhlw.go.jp/12/index.php?action_kouhyou_detail_004_kani=true&JigyosyoCd=1272207794-00&ServiceCd=331&Type=search", "url2": "https://n-h-s.jp/wp/" }, "geometry": { "type": "Point", "coordinates": [ 139.954899113653852, 35.898774794629475 ] } },
{ "type": "Feature", "properties": { "内容": "有料老人ホームグランシア北柏【特定施設入居者生活介護（有料老人ホーム）】千葉県柏市根戸414-12", "url": "https://www.kaigokensaku.mhlw.go.jp/12/index.php?action_kouhyou_detail_004_kani=true&JigyosyoCd=1272201888-00&ServiceCd=331&Type=search", "url2": null }, "geometry": { "type": "Point", "coordinates": [ 139.987507300000061, 35.8832771 ] } },
{ "type": "Feature", "properties": { "内容": "そんぽの家柏豊四季【特定施設入居者生活介護（有料老人ホーム）】千葉県柏市豊四季２９５ー２", "url": "https://www.kaigokensaku.mhlw.go.jp/12/index.php?action_kouhyou_detail_004_kani=true&JigyosyoCd=1272202027-00&ServiceCd=331&Type=search", "url2": "https://www.sompocare.com" }, "geometry": { "type": "Point", "coordinates": [ 139.9493142, 35.8609489 ] } },
{ "type": "Feature", "properties": { "内容": "有料老人ホームボンノールガーデン【特定施設入居者生活介護（有料老人ホーム）】千葉県柏市篠籠田1385番地の1", "url": "https://www.kaigokensaku.mhlw.go.jp/12/index.php?action_kouhyou_detail_004_kani=true&JigyosyoCd=1272200419-00&ServiceCd=331&Type=search", "url2": "https://www.bonheur-garden.co.jp/" }, "geometry": { "type": "Point", "coordinates": [ 139.947927899999968, 35.8706055 ] } },
{ "type": "Feature", "properties": { "内容": "アビリティーズ・気まま館柏【特定施設入居者生活介護（有料老人ホーム）】千葉県柏市あかね町４－３", "url": "https://www.kaigokensaku.mhlw.go.jp/12/index.php?action_kouhyou_detail_004_kani=true&JigyosyoCd=1272202654-00&ServiceCd=331&Type=search", "url2": null }, "geometry": { "type": "Point", "coordinates": [ 139.981833400000028, 35.8504541 ] } },
{ "type": "Feature", "properties": { "内容": "ホームステーション柏【特定施設入居者生活介護（有料老人ホーム）】千葉県柏市南増尾6-15-19ホームステーションらいふ柏南・はなみずき", "url": "https://www.kaigokensaku.mhlw.go.jp/12/index.php?action_kouhyou_detail_004_kani=true&JigyosyoCd=1272206499-00&ServiceCd=331&Type=search", "url2": "https://www.life-silver.com/index.php?prev=1&d=life_facility&c=chiba&p=hanamizuki.html" }, "geometry": { "type": "Point", "coordinates": [ 139.963353899999987, 35.8102319 ] } },
{ "type": "Feature", "properties": { "内容": "さわやか柏館【特定施設入居者生活介護（有料老人ホーム）】千葉県柏市南逆井2丁目14番41号", "url": "https://www.kaigokensaku.mhlw.go.jp/12/index.php?action_kouhyou_detail_004_kani=true&JigyosyoCd=1272205624-00&ServiceCd=331&Type=search", "url2": "http://www.sawayakaclub.jp" }, "geometry": { "type": "Point", "coordinates": [ 139.970153399999958, 35.8051522 ] } },
{ "type": "Feature", "properties": { "内容": "サンシティ柏【特定施設入居者生活介護（有料老人ホーム）】千葉県柏市増尾台１丁目２番１号サンシティ柏　壱番館", "url": "https://www.kaigokensaku.mhlw.go.jp/12/index.php?action_kouhyou_detail_004_kani=true&JigyosyoCd=1272200591-00&ServiceCd=331&Type=search", "url2": "https://hcm-suncity.co.jp/" }, "geometry": { "type": "Point", "coordinates": [ 139.971862900000019, 35.8285713 ] } },
{ "type": "Feature", "properties": { "内容": "ケアレジデンス五井【特定施設入居者生活介護（有料老人ホーム）】千葉県市原市五井５９１１", "url": "https://www.kaigokensaku.mhlw.go.jp/12/index.php?action_kouhyou_detail_004_kani=true&JigyosyoCd=1272403385-00&ServiceCd=331&Type=search", "url2": null }, "geometry": { "type": "Point", "coordinates": [ 140.087798747251895, 35.527273774419584 ] } },
{ "type": "Feature", "properties": { "内容": "ケアレジデンス　グラン市原【特定施設入居者生活介護（有料老人ホーム）】千葉県市原市五井中央西２丁目２４番６０", "url": "https://www.kaigokensaku.mhlw.go.jp/12/index.php?action_kouhyou_detail_004_kani=true&JigyosyoCd=1272404375-00&ServiceCd=331&Type=search", "url2": null }, "geometry": { "type": "Point", "coordinates": [ 140.087978810103607, 35.517635061154046 ] } },
{ "type": "Feature", "properties": { "内容": "介護付き有料老人ホームリヤンド姉崎【特定施設入居者生活介護（有料老人ホーム）】千葉県市原市姉崎807-1", "url": "https://www.kaigokensaku.mhlw.go.jp/12/index.php?action_kouhyou_detail_004_kani=true&JigyosyoCd=1272404607-00&ServiceCd=331&Type=search", "url2": "http://liende-kizuna.jp/allliende/anesaki/" }, "geometry": { "type": "Point", "coordinates": [ 140.0488914, 35.4813902 ] } },
{ "type": "Feature", "properties": { "内容": "昭和の里市原【特定施設入居者生活介護（有料老人ホーム）】千葉県市原市山木1144-2", "url": "https://www.kaigokensaku.mhlw.go.jp/12/index.php?action_kouhyou_detail_004_kani=true&JigyosyoCd=1272404383-00&ServiceCd=331&Type=search", "url2": null }, "geometry": { "type": "Point", "coordinates": [ 140.143374099999988, 35.5172773 ] } },
{ "type": "Feature", "properties": { "内容": "有料老人ホーム　サニーライフ姉ヶ崎【特定施設入居者生活介護（有料老人ホーム）】千葉県市原市姉崎1800番地4", "url": "https://www.kaigokensaku.mhlw.go.jp/12/index.php?action_kouhyou_detail_004_kani=true&JigyosyoCd=1272404995-00&ServiceCd=331&Type=search", "url2": "http://www.sunnylife-group.co.jp" }, "geometry": { "type": "Point", "coordinates": [ 140.051294399999989, 35.4821166 ] } },
{ "type": "Feature", "properties": { "内容": "ニチイケアセンター流山【特定施設入居者生活介護（有料老人ホーム）】千葉県流山市向小金２－５６２－１", "url": "https://www.kaigokensaku.mhlw.go.jp/12/index.php?action_kouhyou_detail_004_kani=true&JigyosyoCd=1272501360-00&ServiceCd=331&Type=search", "url2": null }, "geometry": { "type": "Point", "coordinates": [ 139.9446514, 35.8388109 ] } },
{ "type": "Feature", "properties": { "内容": "アイホームセントラルパーク【特定施設入居者生活介護（有料老人ホーム）】千葉県流山市後平井162-1", "url": "https://www.kaigokensaku.mhlw.go.jp/12/index.php?action_kouhyou_detail_004_kani=true&JigyosyoCd=1272501857-00&ServiceCd=331&Type=search", "url2": "http://www.imedicare.jp" }, "geometry": { "type": "Point", "coordinates": [ 139.916181115097061, 35.85627564233868 ] } },
{ "type": "Feature", "properties": { "内容": "ゆうゆうヴィラ・ナチュラ流山【特定施設入居者生活介護（有料老人ホーム）】千葉県流山市東深井948", "url": "https://www.kaigokensaku.mhlw.go.jp/12/index.php?action_kouhyou_detail_004_kani=true&JigyosyoCd=1272500107-00&ServiceCd=331&Type=search", "url2": "https://www.nenkin-h.co.jp/" }, "geometry": { "type": "Point", "coordinates": [ 139.914443600000027, 35.907115 ] } },
{ "type": "Feature", "properties": { "内容": "マザアス南柏【特定施設入居者生活介護（有料老人ホーム）】千葉県流山市向小金3-147-2", "url": "https://www.kaigokensaku.mhlw.go.jp/12/index.php?action_kouhyou_detail_004_kani=true&JigyosyoCd=1272503242-00&ServiceCd=331&Type=search", "url2": "https://www.motherth.com" }, "geometry": { "type": "Point", "coordinates": [ 139.9537057, 35.8378009 ] } },
{ "type": "Feature", "properties": { "内容": "アミカの郷流山【特定施設入居者生活介護（有料老人ホーム）】千葉県流山市美原1-1222-1アミカの郷流山", "url": "https://www.kaigokensaku.mhlw.go.jp/12/index.php?action_kouhyou_detail_004_kani=true&JigyosyoCd=1272502970-00&ServiceCd=331&Type=search", "url2": "https://kaigo.alsok.co.jp" }, "geometry": { "type": "Point", "coordinates": [ 139.906787400000013, 35.8986493 ] } },
{ "type": "Feature", "properties": { "内容": "SOMPOケア　ラヴィーレ流山おおたかの森【特定施設入居者生活介護（有料老人ホーム）】千葉県流山市おおたかの森東一丁目11番地の5", "url": "https://www.kaigokensaku.mhlw.go.jp/12/index.php?action_kouhyou_detail_004_kani=true&JigyosyoCd=1272502723-00&ServiceCd=331&Type=search", "url2": "https://www.sompocare.com" }, "geometry": { "type": "Point", "coordinates": [ 139.928942, 35.8728645 ] } },
{ "type": "Feature", "properties": { "内容": "特定施設入居者生活介護　アンジュカ初石【特定施設入居者生活介護（有料老人ホーム）】千葉県流山市東初石2丁目175番地", "url": "https://www.kaigokensaku.mhlw.go.jp/12/index.php?action_kouhyou_detail_004_kani=true&JigyosyoCd=1272502749-00&ServiceCd=331&Type=search", "url2": null }, "geometry": { "type": "Point", "coordinates": [ 139.919671699999981, 35.887024 ] } },
{ "type": "Feature", "properties": { "内容": "イリーゼ南流山【特定施設入居者生活介護（有料老人ホーム）】千葉県流山市木三丁目22番地の1", "url": "https://www.kaigokensaku.mhlw.go.jp/12/index.php?action_kouhyou_detail_004_kani=true&JigyosyoCd=1272503689-00&ServiceCd=331&Type=search", "url2": "https://www.irs.jp" }, "geometry": { "type": "Point", "coordinates": [ 139.896075599999989, 35.8283916 ] } },
{ "type": "Feature", "properties": { "内容": "ＳＯＭＰＯケアラヴィーレ八千代【特定施設入居者生活介護（有料老人ホーム）】千葉県八千代市萱田町516-1", "url": "https://www.kaigokensaku.mhlw.go.jp/12/index.php?action_kouhyou_detail_004_kani=true&JigyosyoCd=1272603158-00&ServiceCd=331&Type=search", "url2": "https://www.sompocare.com/service/home/kaigo/H000095/" }, "geometry": { "type": "Point", "coordinates": [ 140.0966333, 35.7314063 ] } },
{ "type": "Feature", "properties": { "内容": "有料老人ホーム　愛生グリーンプラザ八千代【特定施設入居者生活介護（有料老人ホーム）】千葉県八千代市吉橋1060番地", "url": "https://www.kaigokensaku.mhlw.go.jp/12/index.php?action_kouhyou_detail_004_kani=true&JigyosyoCd=1272600246-00&ServiceCd=331&Type=search", "url2": "https://aisei-greenplaza.jp" }, "geometry": { "type": "Point", "coordinates": [ 140.075838299999987, 35.7328611 ] } },
{ "type": "Feature", "properties": { "内容": "ＳＯＭＰＯケア　ラヴィーレ勝田台【特定施設入居者生活介護（有料老人ホーム）】千葉県八千代市勝田台二丁目44-3", "url": "https://www.kaigokensaku.mhlw.go.jp/12/index.php?action_kouhyou_detail_004_kani=true&JigyosyoCd=1272603141-00&ServiceCd=331&Type=search", "url2": "https://www.sompocare.com" }, "geometry": { "type": "Point", "coordinates": [ 140.123898100000019, 35.7099922 ] } },
{ "type": "Feature", "properties": { "内容": "敬老園ロイヤルヴィラ・ナーシングヴィラ八千代台【特定施設入居者生活介護（有料老人ホーム）】千葉県八千代市八千代台北15-19-27", "url": "https://www.kaigokensaku.mhlw.go.jp/12/index.php?action_kouhyou_detail_004_kani=true&JigyosyoCd=1272600261-00&ServiceCd=331&Type=search", "url2": "https://keirouen.com/" }, "geometry": { "type": "Point", "coordinates": [ 140.100675799999976, 35.7111169 ] } },
{ "type": "Feature", "properties": { "内容": "リアンレーヴ我孫子【特定施設入居者生活介護（有料老人ホーム）】千葉県我孫子市下ヶ戸1815－1", "url": "https://www.kaigokensaku.mhlw.go.jp/12/index.php?action_kouhyou_detail_004_kani=true&JigyosyoCd=1272701564-00&ServiceCd=331&Type=search", "url2": "https://www.kinoshita-kaigo.co.jp/" }, "geometry": { "type": "Point", "coordinates": [ 140.047852908348062, 35.87135552445308 ] } },
{ "type": "Feature", "properties": { "内容": "グランドめいと我孫子【特定施設入居者生活介護（有料老人ホーム）】千葉県我孫子市我孫子1-11-17", "url": "https://www.kaigokensaku.mhlw.go.jp/12/index.php?action_kouhyou_detail_004_kani=true&JigyosyoCd=1272701101-00&ServiceCd=331&Type=search", "url2": "https://www.mate-care.co.jp/" }, "geometry": { "type": "Point", "coordinates": [ 140.011882, 35.873412 ] } },
{ "type": "Feature", "properties": { "内容": "グランドめいと我孫子弐番館【特定施設入居者生活介護（有料老人ホーム）】千葉県我孫子市本町3-6-6グランドめいと我孫子弐番館", "url": "https://www.kaigokensaku.mhlw.go.jp/12/index.php?action_kouhyou_detail_004_kani=true&JigyosyoCd=1272701697-00&ServiceCd=331&Type=search", "url2": "https://mate-care.co.jp/" }, "geometry": { "type": "Point", "coordinates": [ 140.014505681614651, 35.872407884940877 ] } },
{ "type": "Feature", "properties": { "内容": "有料老人ホームサニーライフ北柏【特定施設入居者生活介護（有料老人ホーム）】千葉県我孫子市台田2-21-48", "url": "https://www.kaigokensaku.mhlw.go.jp/12/index.php?action_kouhyou_detail_004_kani=true&JigyosyoCd=1272700475-00&ServiceCd=331&Type=search", "url2": "https://www.sunnylife-group.co.jp/" }, "geometry": { "type": "Point", "coordinates": [ 139.998284099999978, 35.8739149 ] } },
{ "type": "Feature", "properties": { "内容": "ベストライフ我孫子Ⅱ【特定施設入居者生活介護（有料老人ホーム）】千葉県我孫子市我孫子4-2-14", "url": "https://www.kaigokensaku.mhlw.go.jp/12/index.php?action_kouhyou_detail_004_kani=true&JigyosyoCd=1272701879-00&ServiceCd=331&Type=search", "url2": null }, "geometry": { "type": "Point", "coordinates": [ 140.0103351, 35.874981800000015 ] } },
{ "type": "Feature", "properties": { "内容": "グランドﾞめいと我孫子布佐【特定施設入居者生活介護（有料老人ホーム）】千葉県我孫子市布佐2195－2", "url": "https://www.kaigokensaku.mhlw.go.jp/12/index.php?action_kouhyou_detail_004_kani=true&JigyosyoCd=1272700368-00&ServiceCd=331&Type=search", "url2": "https://mate-care.co.jp/" }, "geometry": { "type": "Point", "coordinates": [ 140.130893499999956, 35.8510009 ] } },
{ "type": "Feature", "properties": { "内容": "ベストライフ我孫子【特定施設入居者生活介護（有料老人ホーム）】千葉県我孫子市つくし野2-27-22", "url": "https://www.kaigokensaku.mhlw.go.jp/12/index.php?action_kouhyou_detail_004_kani=true&JigyosyoCd=1272701861-00&ServiceCd=331&Type=search", "url2": null }, "geometry": { "type": "Point", "coordinates": [ 140.0093218, 35.8796526 ] } },
{ "type": "Feature", "properties": { "内容": "有料老人ホーム　ナーシングヴィラ　ハートフル鴨川【特定施設入居者生活介護（有料老人ホーム）】千葉県鴨川市太海６３０－１", "url": "https://www.kaigokensaku.mhlw.go.jp/12/index.php?action_kouhyou_detail_004_kani=true&JigyosyoCd=1272800036-00&ServiceCd=331&Type=search", "url2": "http://www.ebihara.or.jp" }, "geometry": { "type": "Point", "coordinates": [ 140.090978899999982, 35.0908428 ] } },
{ "type": "Feature", "properties": { "内容": "パークウェルステイト鴨川【特定施設入居者生活介護（有料老人ホーム）】千葉県鴨川市浜荻1002番パークウェルステイト鴨川", "url": "https://www.kaigokensaku.mhlw.go.jp/12/index.php?action_kouhyou_detail_004_kani=true&JigyosyoCd=1272800713-00&ServiceCd=331&Type=search", "url2": "https://www.mfrw.co.jp/bukken/N1702/" }, "geometry": { "type": "Point", "coordinates": [ 140.143374099999988, 35.1240463 ] } },
{ "type": "Feature", "properties": { "内容": "あいらの杜新鎌ヶ谷【特定施設入居者生活介護（有料老人ホーム）】千葉県鎌ケ谷市初富26-7あいらの杜新鎌ヶ谷", "url": "https://www.kaigokensaku.mhlw.go.jp/12/index.php?action_kouhyou_detail_004_kani=true&JigyosyoCd=1272902170-00&ServiceCd=331&Type=search", "url2": "https://www.halenosumai.jp/homes/29/" }, "geometry": { "type": "Point", "coordinates": [ 139.9822514, 35.7838779 ] } },
{ "type": "Feature", "properties": { "内容": "介護付有料老人ホームハッピーライフ菜の花館【特定施設入居者生活介護（有料老人ホーム）】千葉県鎌ケ谷市初富３７３－１１", "url": "https://www.kaigokensaku.mhlw.go.jp/12/index.php?action_kouhyou_detail_004_kani=true&JigyosyoCd=1272901693-00&ServiceCd=331&Type=search", "url2": "http://www.nanohanakan.co.jp" }, "geometry": { "type": "Point", "coordinates": [ 139.985472499999986, 35.7788829 ] } },
{ "type": "Feature", "properties": { "内容": "アビタシオン鎌ケ谷【特定施設入居者生活介護（有料老人ホーム）】千葉県鎌ケ谷市新鎌ケ谷4-12-3", "url": "https://www.kaigokensaku.mhlw.go.jp/12/index.php?action_kouhyou_detail_004_kani=true&JigyosyoCd=1272902105-00&ServiceCd=331&Type=search", "url2": "http://www.habitation.co.jp/kamagaya/" }, "geometry": { "type": "Point", "coordinates": [ 140.0028335, 35.782915 ] } },
{ "type": "Feature", "properties": { "内容": "介護付有料老人ホームリーベン鎌ヶ谷【特定施設入居者生活介護（有料老人ホーム）】千葉県鎌ケ谷市丸山3-17-18", "url": "https://www.kaigokensaku.mhlw.go.jp/12/index.php?action_kouhyou_detail_004_kani=true&JigyosyoCd=1272900471-00&ServiceCd=331&Type=search", "url2": "http://www.rikushinkai.com/" }, "geometry": { "type": "Point", "coordinates": [ 140.004211510975608, 35.759986431884734 ] } },
{ "type": "Feature", "properties": { "内容": "有料老人ホームグランシア鎌ヶ谷【特定施設入居者生活介護（有料老人ホーム）】千葉県鎌ヶ谷市道野辺中央4-8-1", "url": "https://www.kaigokensaku.mhlw.go.jp/12/index.php?action_kouhyou_detail_004_kani=true&JigyosyoCd=1272900273-00&ServiceCd=331&Type=search", "url2": "https://grandic.jp/kamagaya/index.html" }, "geometry": { "type": "Point", "coordinates": [ 139.993550300000038, 35.7628596 ] } },
{ "type": "Feature", "properties": { "内容": "サン・ラポール南房総【特定施設入居者生活介護（有料老人ホーム）】千葉県君津市豊英355-1", "url": "https://www.kaigokensaku.mhlw.go.jp/12/index.php?action_kouhyou_detail_004_kani=true&JigyosyoCd=1273000016-00&ServiceCd=331&Type=search", "url2": "https://www.sun-rapport.co.jp/" }, "geometry": { "type": "Point", "coordinates": [ 140.006684800000016, 35.178876 ] } },
{ "type": "Feature", "properties": { "内容": "有料老人ホーム　サニーライフ　君津【特定施設入居者生活介護（有料老人ホーム）】千葉県君津市東猪原２４８－２", "url": "https://www.kaigokensaku.mhlw.go.jp/12/index.php?action_kouhyou_detail_004_kani=true&JigyosyoCd=1273000032-00&ServiceCd=331&Type=search", "url2": "http://www.sunnylife-group.co.jp" }, "geometry": { "type": "Point", "coordinates": [ 140.008416799999964, 35.261147 ] } },
{ "type": "Feature", "properties": { "内容": "あいらの杜　浦安富岡【特定施設入居者生活介護（有料老人ホーム）】千葉県浦安市富岡3丁目2番6号", "url": "https://www.kaigokensaku.mhlw.go.jp/12/index.php?action_kouhyou_detail_004_kani=true&JigyosyoCd=1273201465-00&ServiceCd=331&Type=search", "url2": null }, "geometry": { "type": "Point", "coordinates": [ 139.900899311639392, 35.642712348298446 ] } },
{ "type": "Feature", "properties": { "内容": "介護付有料老人ホーム　浦安エデンの園【特定施設入居者生活介護（有料老人ホーム）】千葉県浦安市日の出1-2-1", "url": "https://www.kaigokensaku.mhlw.go.jp/12/index.php?action_kouhyou_detail_004_kani=true&JigyosyoCd=1273200731-00&ServiceCd=331&Type=search", "url2": "http://www.seirei.or.jp/eden/urayasu/" }, "geometry": { "type": "Point", "coordinates": [ 139.921674100000018, 35.6480734 ] } },
{ "type": "Feature", "properties": { "内容": "舞浜倶楽部・新浦安フォーラム【特定施設入居者生活介護（有料老人ホーム）】千葉県浦安市高洲１－２－１", "url": "https://www.kaigokensaku.mhlw.go.jp/12/index.php?action_kouhyou_detail_004_kani=true&JigyosyoCd=1273200814-00&ServiceCd=331&Type=search", "url2": "https://www.maihamaclub.co.jp" }, "geometry": { "type": "Point", "coordinates": [ 139.914363800000046, 35.6413185 ] } },
{ "type": "Feature", "properties": { "内容": "グッドタイムリビング新浦安【特定施設入居者生活介護（有料老人ホーム）】千葉県浦安市明海６－１－３", "url": "https://www.kaigokensaku.mhlw.go.jp/12/index.php?action_kouhyou_detail_004_kani=true&JigyosyoCd=1273200715-00&ServiceCd=331&Type=search", "url2": "https://www.gtl-daiwa.co.jp/" }, "geometry": { "type": "Point", "coordinates": [ 139.922463200000038, 35.6382995 ] } },
{ "type": "Feature", "properties": { "内容": "舞浜倶楽部　富士見サンヴァーロ【特定施設入居者生活介護（有料老人ホーム）】千葉県浦安市富士見３－１６－４６", "url": "https://www.kaigokensaku.mhlw.go.jp/12/index.php?action_kouhyou_detail_004_kani=true&JigyosyoCd=1273200467-00&ServiceCd=331&Type=search", "url2": "https://www.maihamaclub.co.jp" }, "geometry": { "type": "Point", "coordinates": [ 139.887574399999949, 35.6466423 ] } },
{ "type": "Feature", "properties": { "内容": "コンシェール舞浜【特定施設入居者生活介護（有料老人ホーム）】千葉県浦安市東野3-4-37", "url": "https://www.kaigokensaku.mhlw.go.jp/12/index.php?action_kouhyou_detail_004_kani=true&JigyosyoCd=1273200384-00&ServiceCd=331&Type=search", "url2": "https://www.riei.co.jp/" }, "geometry": { "type": "Point", "coordinates": [ 139.892794741999637, 35.646359225816205 ] } },
{ "type": "Feature", "properties": { "内容": "うらら新浦安【特定施設入居者生活介護（有料老人ホーム）】千葉県浦安市明海2-12-1", "url": "https://www.kaigokensaku.mhlw.go.jp/12/index.php?action_kouhyou_detail_004_kani=true&JigyosyoCd=1273201358-00&ServiceCd=331&Type=search", "url2": "https://www.starts-care.jp/s_shinurayasu/nursinghome/" }, "geometry": { "type": "Point", "coordinates": [ 139.91704501422538, 35.641401651502569 ] } },
{ "type": "Feature", "properties": { "内容": "チェリーコート四街道【特定施設入居者生活介護（有料老人ホーム）】千葉県四街道市大日526-22", "url": "https://www.kaigokensaku.mhlw.go.jp/12/index.php?action_kouhyou_detail_004_kani=true&JigyosyoCd=1273300036-00&ServiceCd=331&Type=search", "url2": "http://www.cherry-coat.co.jp/" }, "geometry": { "type": "Point", "coordinates": [ 140.1664101, 35.680456200000016 ] } },
{ "type": "Feature", "properties": { "内容": "「手と手と手」【特定施設入居者生活介護（有料老人ホーム）】千葉県八街市榎戸917-1", "url": "https://www.kaigokensaku.mhlw.go.jp/12/index.php?action_kouhyou_detail_004_kani=true&JigyosyoCd=1273500528-00&ServiceCd=331&Type=search", "url2": "http://www.tetotetote.jp" }, "geometry": { "type": "Point", "coordinates": [ 140.288145799999938, 35.6849476 ] } },
{ "type": "Feature", "properties": { "内容": "有料老人ホームアビタシオン白松【特定施設入居者生活介護（有料老人ホーム）】千葉県八街市文違301", "url": "https://www.kaigokensaku.mhlw.go.jp/12/index.php?action_kouhyou_detail_004_kani=true&JigyosyoCd=1273500171-00&ServiceCd=331&Type=search", "url2": "http://www.habitation.co.jp/hakusho/" }, "geometry": { "type": "Point", "coordinates": [ 140.305076513296115, 35.675022752319805 ] } },
{ "type": "Feature", "properties": { "内容": "トミオ印西コスモステラス【特定施設入居者生活介護（有料老人ホーム）】千葉県印西市草深2429-11", "url": "https://www.kaigokensaku.mhlw.go.jp/12/index.php?action_kouhyou_detail_004_kani=true&JigyosyoCd=1273600641-00&ServiceCd=331&Type=search", "url2": "https://tomiocare.co.jp/info-cosmos/" }, "geometry": { "type": "Point", "coordinates": [ 140.1544123, 35.7987277 ] } },
{ "type": "Feature", "properties": { "内容": "ベストライフ印西【特定施設入居者生活介護（有料老人ホーム）】千葉県印西市大森3696", "url": "https://www.kaigokensaku.mhlw.go.jp/12/index.php?action_kouhyou_detail_004_kani=true&JigyosyoCd=1273600930-00&ServiceCd=331&Type=search", "url2": null }, "geometry": { "type": "Point", "coordinates": [ 140.144173, 35.8378157 ] } },
{ "type": "Feature", "properties": { "内容": "ウィズホスピタル千葉白井【特定施設入居者生活介護（有料老人ホーム）】千葉県白井市復1448-1", "url": "https://www.kaigokensaku.mhlw.go.jp/12/index.php?action_kouhyou_detail_004_kani=true&JigyosyoCd=1274200656-00&ServiceCd=331&Type=search", "url2": "https://www.with-hospital.jp/" }, "geometry": { "type": "Point", "coordinates": [ 140.057685229360914, 35.793968112169082 ] } },
{ "type": "Feature", "properties": { "内容": "介護付有料老人ホームはなみずきの里【特定施設入居者生活介護（有料老人ホーム）】千葉県富里市七栄653-70介護付有料老人ホームはなみずきの里", "url": "https://www.kaigokensaku.mhlw.go.jp/12/index.php?action_kouhyou_detail_004_kani=true&JigyosyoCd=1274000395-00&ServiceCd=331&Type=search", "url2": "https://www.tomomikai-tatsuoka.com/" }, "geometry": { "type": "Point", "coordinates": [ 140.3373947, 35.7261555 ] } },
{ "type": "Feature", "properties": { "内容": "エクセルシオール佐原【特定施設入居者生活介護（有料老人ホーム）】千葉県香取市佐原ハ4491", "url": "https://www.kaigokensaku.mhlw.go.jp/12/index.php?action_kouhyou_detail_004_kani=true&JigyosyoCd=1278900111-00&ServiceCd=331&Type=search", "url2": "http://www.excelsior-sawara.com/" }, "geometry": { "type": "Point", "coordinates": [ 140.5226202, 35.929456812432051 ] } },
{ "type": "Feature", "properties": { "内容": "エクセルシオール山武【特定施設入居者生活介護（有料老人ホーム）】千葉県山武市本須賀3841-70", "url": "https://www.kaigokensaku.mhlw.go.jp/12/index.php?action_kouhyou_detail_004_kani=true&JigyosyoCd=1279000184-00&ServiceCd=331&Type=search", "url2": "http://www.excelsior-sammu.com/" }, "geometry": { "type": "Point", "coordinates": [ 140.46774460000006, 35.552455200000011 ] } },
{ "type": "Feature", "properties": { "内容": "ジャルダンカトレアいすみ【特定施設入居者生活介護（有料老人ホーム）】千葉県いすみ市岬町和泉772-1ジャルダンカトレアいすみ", "url": "https://www.kaigokensaku.mhlw.go.jp/12/index.php?action_kouhyou_detail_004_kani=true&JigyosyoCd=1278600547-00&ServiceCd=331&Type=search", "url2": "https://www.jardin-cattleya.jp/" }, "geometry": { "type": "Point", "coordinates": [ 140.402564299999966, 35.316437400000019 ] } },
{ "type": "Feature", "properties": { "内容": "敬老園ロイヤルヴィラ大網白里【特定施設入居者生活介護（有料老人ホーム）】千葉県大網白里市四天木乙2574-24", "url": "https://www.kaigokensaku.mhlw.go.jp/12/index.php?action_kouhyou_detail_004_kani=true&JigyosyoCd=1275800074-00&ServiceCd=331&Type=search", "url2": "https://keirouen.com/" }, "geometry": { "type": "Point", "coordinates": [ 140.4151359, 35.4754269 ] } },
{ "type": "Feature", "properties": { "内容": "プラチナ・シニアホームむつざわ【特定施設入居者生活介護（有料老人ホーム）】千葉県長生郡睦沢町川島1446-10", "url": "https://www.kaigokensaku.mhlw.go.jp/12/index.php?action_kouhyou_detail_004_kani=true&JigyosyoCd=1276700109-00&ServiceCd=331&Type=search", "url2": "https://lakes21.co.jp/" }, "geometry": { "type": "Point", "coordinates": [ 140.33605733743434, 35.387979626702865 ] } },
{ "type": "Feature", "properties": { "内容": "有料老人ホームラビドール御宿【特定施設入居者生活介護（有料老人ホーム）】千葉県夷隅郡御宿町御宿台１３２番地", "url": "https://www.kaigokensaku.mhlw.go.jp/12/index.php?action_kouhyou_detail_004_kani=true&JigyosyoCd=1277400048-00&ServiceCd=331&Type=search", "url2": "https://www.laviedor.or.jp/" }, "geometry": { "type": "Point", "coordinates": [ 140.337910500000021, 35.1914225 ] } }
]
}
