{
"type": "FeatureCollection",
"name": "geo_12_短期大学",
"crs": { "type": "name", "properties": { "name": "urn:ogc:def:crs:EPSG::6668" } },
"features": [
{ "type": "Feature", "properties": { "P29_001": "12101", "P29_002": "F212310102617", "P29_003": "16006", "P29_004": "千葉明徳短期大学", "P29_005": "千葉県千葉市中央区南生実町1412", "P29_006": "4", "P29_007": "0", "P29_008": "00", "P29_009": null }, "geometry": { "type": "Point", "coordinates": [ 140.155783490194153, 35.559711861238881 ] } },
{ "type": "Feature", "properties": { "P29_001": "12206", "P29_002": "F212310102644", "P29_003": "16006", "P29_004": "清和大学短期大学部", "P29_005": "千葉県木更津市東太田3-4-2", "P29_006": "4", "P29_007": "0", "P29_008": "00", "P29_009": null }, "geometry": { "type": "Point", "coordinates": [ 139.95991158716717, 35.376584553709307 ] } },
{ "type": "Feature", "properties": { "P29_001": "12103", "P29_002": "F212310102662", "P29_003": "16006", "P29_004": "千葉経済大学短期大学部", "P29_005": "千葉県千葉市稲毛区轟町3-59-5", "P29_006": "4", "P29_007": "0", "P29_008": "00", "P29_009": null }, "geometry": { "type": "Point", "coordinates": [ 140.110173677934483, 35.628562175694803 ] } },
{ "type": "Feature", "properties": { "P29_001": "12104", "P29_002": "F212310102680", "P29_003": "16006", "P29_004": "植草学園短期大学", "P29_005": "千葉県千葉市若葉区小倉町1639-3", "P29_006": "4", "P29_007": "0", "P29_008": "00", "P29_009": null }, "geometry": { "type": "Point", "coordinates": [ 140.182510086854933, 35.634405812718754 ] } },
{ "type": "Feature", "properties": { "P29_001": "12203", "P29_002": "F212310102626", "P29_003": "16006", "P29_004": "昭和学院短期大学", "P29_005": "千葉県市川市東菅野2-17-1", "P29_006": "4", "P29_007": "0", "P29_008": "00", "P29_009": null }, "geometry": { "type": "Point", "coordinates": [ 139.930167672436085, 35.734529672984706 ] } },
{ "type": "Feature", "properties": { "P29_001": "12207", "P29_002": "F212310102635", "P29_003": "16006", "P29_004": "聖徳大学短期大学部", "P29_005": "千葉県松戸市岩瀬550", "P29_006": "4", "P29_007": "0", "P29_008": "00", "P29_009": null }, "geometry": { "type": "Point", "coordinates": [ 139.905251584675796, 35.783853051909574 ] } },
{ "type": "Feature", "properties": { "P29_001": "12203", "P29_002": "F212310102671", "P29_003": "16006", "P29_004": "東京経営短期大学", "P29_005": "千葉県市川市二俣625-1", "P29_006": "4", "P29_007": "0", "P29_008": "00", "P29_009": null }, "geometry": { "type": "Point", "coordinates": [ 139.9572699172341, 35.699255143496018 ] } },
{ "type": "Feature", "properties": { "P29_001": "12212", "P29_002": "F212310102653", "P29_003": "16006", "P29_004": "千葉敬愛短期大学", "P29_005": "千葉県佐倉市山王1-9", "P29_006": "4", "P29_007": "0", "P29_008": "00", "P29_009": null }, "geometry": { "type": "Point", "coordinates": [ 140.208420093037574, 35.685249426747831 ] } },
{ "type": "Feature", "properties": { "P29_001": "12204", "P29_002": "F213310104419", "P29_003": "16006", "P29_004": "日本大学短期大学部", "P29_005": "千葉県船橋市習志野台7-24-1", "P29_006": "4", "P29_007": "0", "P29_008": "02", "P29_009": "船橋キャンパス" }, "geometry": { "type": "Point", "coordinates": [ 140.058768710735137, 35.723169522315949 ] } }
]
}
