{
"type": "FeatureCollection",
"name": "geo_12_夜間対応型訪問介護",
"crs": { "type": "name", "properties": { "name": "urn:ogc:def:crs:OGC:1.3:CRS84" } },
"features": [
{ "type": "Feature", "properties": { "内容": "一般財団法人　市川市福祉公社【夜間対応型訪問介護】千葉県市川市市川南1-1-1ザタワーズイースト209", "url2": "https://www.kaigokensaku.mhlw.go.jp/12/index.php?action_kouhyou_detail_004_kani=true&JigyosyoCd=1290800018-00&ServiceCd=710&Type=search" }, "geometry": { "type": "Point", "coordinates": [ 139.908068926458782, 35.728207803734563 ] } },
{ "type": "Feature", "properties": { "内容": "夜間対応型訪問介護和気あいあい【夜間対応型訪問介護】千葉県柏市松葉町3丁目24-7", "url2": "https://www.kaigokensaku.mhlw.go.jp/12/index.php?action_kouhyou_detail_004_kani=true&JigyosyoCd=1292200928-00&ServiceCd=710&Type=search" }, "geometry": { "type": "Point", "coordinates": [ 139.966169971163936, 35.886531869019144 ] } },
{ "type": "Feature", "properties": { "内容": "SOMPOケア地域サービスセンター豊四季　夜間訪問介護【夜間対応型訪問介護】千葉県柏市豊四季283－1", "url2": "https://www.kaigokensaku.mhlw.go.jp/12/index.php?action_kouhyou_detail_004_kani=true&JigyosyoCd=1292200613-00&ServiceCd=710&Type=search" }, "geometry": { "type": "Point", "coordinates": [ 139.948141419591593, 35.861069705008887 ] } },
{ "type": "Feature", "properties": { "内容": "夜間対応型訪問介護事業所つばさ【夜間対応型訪問介護】千葉県君津市郡２－７－１０", "url2": "https://www.kaigokensaku.mhlw.go.jp/12/index.php?action_kouhyou_detail_004_kani=true&JigyosyoCd=1293000053-00&ServiceCd=710&Type=search" }, "geometry": { "type": "Point", "coordinates": [ 139.914455153264612, 35.307231970228777 ] } },
{ "type": "Feature", "properties": { "内容": "第二松丘園ケア・サポート【夜間対応型訪問介護】千葉県山武郡横芝光町宮川12103-1", "url2": "https://www.kaigokensaku.mhlw.go.jp/12/index.php?action_kouhyou_detail_004_kani=true&JigyosyoCd=1299100022-00&ServiceCd=710&Type=search" }, "geometry": { "type": "Point", "coordinates": [ 140.503985100000023, 35.6577655 ] } }
]
}
