{
"type": "FeatureCollection",
"name": "geo_12_定期巡回・随時対応型訪問介護看護",
"crs": { "type": "name", "properties": { "name": "urn:ogc:def:crs:OGC:1.3:CRS84" } },
"features": [
{ "type": "Feature", "properties": { "内容": "やさしい手千葉新田町定期巡回・随時対応型訪問介護看護事業所【定期巡回・随時対応型訪問介護看護】千葉県千葉市中央区新田町４－２２サンライトビル２０２", "url": "https://www.kaigokensaku.mhlw.go.jp/12/index.php?action_kouhyou_detail_004_kani=true&JigyosyoCd=1290100245-00&ServiceCd=760&Type=search", "url2": "http://www.yasashiite.com/subdomains/section/032/" }, "geometry": { "type": "Point", "coordinates": [ 140.1138039, 35.6092005 ] } },
{ "type": "Feature", "properties": { "内容": "古峡ヒルズ定期巡回事業所【定期巡回・随時対応型訪問介護看護】千葉県千葉市中央区千葉寺町307古峡ヒルズ", "url": "https://www.kaigokensaku.mhlw.go.jp/12/index.php?action_kouhyou_detail_004_kani=true&JigyosyoCd=1290100682-00&ServiceCd=760&Type=search", "url2": "https://green-eminence.com" }, "geometry": { "type": "Point", "coordinates": [ 140.1302725, 35.5943547 ] } },
{ "type": "Feature", "properties": { "内容": "ドットライフ本千葉（定期巡回・随時対応サービス）【定期巡回・随時対応型訪問介護看護】千葉県千葉市中央区寒川町二丁目147番地1ドットホーム本千葉（ナーシングホーム）1階", "url": "https://www.kaigokensaku.mhlw.go.jp/12/index.php?action_kouhyou_detail_004_kani=true&JigyosyoCd=1290100815-00&ServiceCd=760&Type=search", "url2": null }, "geometry": { "type": "Point", "coordinates": [ 140.1236515, 35.5954811 ] } },
{ "type": "Feature", "properties": { "内容": "生活クラブ風の村定期巡回ステーション稲毛【定期巡回・随時対応型訪問介護看護】千葉県千葉市稲毛区園生町1107-7生活クラブ風の村いなげ", "url": "https://www.kaigokensaku.mhlw.go.jp/12/index.php?action_kouhyou_detail_004_kani=true&JigyosyoCd=1290193011-00&ServiceCd=760&Type=search", "url2": null }, "geometry": { "type": "Point", "coordinates": [ 140.103566900000033, 35.641189 ] } },
{ "type": "Feature", "properties": { "内容": "ツクイ・サンフォレスト千葉稲毛【定期巡回・随時対応型訪問介護看護】千葉県稲毛区小中台町1498-5ツクイ・サンフォレスト千葉稲毛", "url": "https://www.kaigokensaku.mhlw.go.jp/12/index.php?action_kouhyou_detail_004_kani=true&JigyosyoCd=1290300514-00&ServiceCd=760&Type=search", "url2": "https://www.tsukui.net/jutakugata/chibainage/" }, "geometry": { "type": "Point", "coordinates": [ 140.0851645, 35.6483756 ] } },
{ "type": "Feature", "properties": { "内容": "やさしい手都賀定期巡回・随時対応型訪問介護看護【定期巡回・随時対応型訪問介護看護】千葉県千葉市若葉区都賀５－１９－１グランドマストやさしえ都賀", "url": "https://www.kaigokensaku.mhlw.go.jp/12/index.php?action_kouhyou_detail_004_kani=true&JigyosyoCd=1290400140-00&ServiceCd=760&Type=search", "url2": "http://www.yasashiite.com" }, "geometry": { "type": "Point", "coordinates": [ 140.154594234423854, 35.637820866150435 ] } },
{ "type": "Feature", "properties": { "内容": "若葉定期巡回訪問介護看護ステーション【定期巡回・随時対応型訪問介護看護】千葉県千葉市若葉区小倉町1763番地12", "url": "https://www.kaigokensaku.mhlw.go.jp/12/index.php?action_kouhyou_detail_004_kani=true&JigyosyoCd=1290400165-00&ServiceCd=760&Type=search", "url2": "https://www.habitation.co.jp/wakaba" }, "geometry": { "type": "Point", "coordinates": [ -8.24389, 53.41291 ] } },
{ "type": "Feature", "properties": { "内容": "ケアタク【定期巡回・随時対応型訪問介護看護】千葉県千葉市若葉区桜木4-17-39", "url": "https://www.kaigokensaku.mhlw.go.jp/12/index.php?action_kouhyou_detail_004_kani=true&JigyosyoCd=1290400272-00&ServiceCd=760&Type=search", "url2": "https://largo-care.com" }, "geometry": { "type": "Point", "coordinates": [ 140.157466500000027, 35.6252347 ] } },
{ "type": "Feature", "properties": { "内容": "みどり定期巡回訪問介護看護ステーション【定期巡回・随時対応型訪問介護看護】千葉県千葉市緑区あすみが丘2-27-1ひまわりの郷あすみが丘", "url": "https://www.kaigokensaku.mhlw.go.jp/12/index.php?action_kouhyou_detail_004_kani=true&JigyosyoCd=1290500188-00&ServiceCd=760&Type=search", "url2": "https://lihd.co.jp/asumigaoka/service/" }, "geometry": { "type": "Point", "coordinates": [ 140.271816699999988, 35.5246928 ] } },
{ "type": "Feature", "properties": { "内容": "定期巡回随時対応型訪問介護看護楽隠居【定期巡回・随時対応型訪問介護看護】千葉県千葉市緑区おゆみ野南2-10-4おゆみ野楽隠居倶楽部弐号館", "url": "https://www.kaigokensaku.mhlw.go.jp/12/index.php?action_kouhyou_detail_004_kani=true&JigyosyoCd=1290500139-00&ServiceCd=760&Type=search", "url2": "http://www.kimeikai-kaigo.jp/" }, "geometry": { "type": "Point", "coordinates": [ 140.167475299999978, 35.5517348 ] } },
{ "type": "Feature", "properties": { "内容": "亀田ホームケアサービス幕張【定期巡回・随時対応型訪問介護看護】若葉3-1-23", "url": "https://www.kaigokensaku.mhlw.go.jp/12/index.php?action_kouhyou_detail_004_kani=true&JigyosyoCd=1290600194-00&ServiceCd=760&Type=search", "url2": "https://www.taiyou-kai.jp/makuhari/care/" }, "geometry": { "type": "Point", "coordinates": [ 140.0535063, 35.6449328 ] } },
{ "type": "Feature", "properties": { "内容": "しょうじゅ定期巡回・随時対応型訪問介護事業所【定期巡回・随時対応型訪問介護看護】千葉県千葉市美浜区幸町2-12-1", "url": "https://www.kaigokensaku.mhlw.go.jp/12/index.php?action_kouhyou_detail_004_kani=true&JigyosyoCd=1290600103-00&ServiceCd=760&Type=search", "url2": "http://www.akaedakai.com" }, "geometry": { "type": "Point", "coordinates": [ 140.092835499999978, 35.6210108 ] } },
{ "type": "Feature", "properties": { "内容": "定期巡回サービスなごやか【定期巡回・随時対応型訪問介護看護】千葉県銚子市茶畑町５２番地", "url": "https://www.kaigokensaku.mhlw.go.jp/12/index.php?action_kouhyou_detail_004_kani=true&JigyosyoCd=1290700259-00&ServiceCd=760&Type=search", "url2": "https://www.nagoyaka-kaigo.jp/" }, "geometry": { "type": "Point", "coordinates": [ 140.738424599999973, 35.7355711 ] } },
{ "type": "Feature", "properties": { "内容": "くらしさ南行徳【定期巡回・随時対応型訪問介護看護】千葉県市川市南行徳3-16-12", "url": "https://www.kaigokensaku.mhlw.go.jp/12/index.php?action_kouhyou_detail_004_kani=true&JigyosyoCd=1290800661-00&ServiceCd=760&Type=search", "url2": null }, "geometry": { "type": "Point", "coordinates": [ 139.900957299999988, 35.669332 ] } },
{ "type": "Feature", "properties": { "内容": "生活クラブ風の村定期巡回ステーション市川【定期巡回・随時対応型訪問介護看護】千葉県市川市須和田1丁目23-4", "url": "https://www.kaigokensaku.mhlw.go.jp/12/index.php?action_kouhyou_detail_004_kani=true&JigyosyoCd=1290801008-00&ServiceCd=760&Type=search", "url2": null }, "geometry": { "type": "Point", "coordinates": [ 139.917567899999966, 35.736806 ] } },
{ "type": "Feature", "properties": { "内容": "一般財団法人市川市福祉公社【定期巡回・随時対応型訪問介護看護】千葉県市川市市川南一丁目1番1号ザタワーズイースト209号", "url": "https://www.kaigokensaku.mhlw.go.jp/12/index.php?action_kouhyou_detail_004_kani=true&JigyosyoCd=1290800224-00&ServiceCd=760&Type=search", "url2": "http://www.i-fukukou.com" }, "geometry": { "type": "Point", "coordinates": [ 139.908061399999951, 35.7282187 ] } },
{ "type": "Feature", "properties": { "内容": "SOMPOケア　地域サービスセンター　市川八幡　定期巡回【定期巡回・随時対応型訪問介護看護】千葉県市川市八幡2丁目3番18号ヴェルス本八幡　１階", "url": "https://www.kaigokensaku.mhlw.go.jp/12/index.php?action_kouhyou_detail_004_kani=true&JigyosyoCd=1290800448-00&ServiceCd=760&Type=search", "url2": "https://www.sompocare.com" }, "geometry": { "type": "Point", "coordinates": [ 139.928910099999939, 35.723178 ] } },
{ "type": "Feature", "properties": { "内容": "銀木犀＜薬園台＞定期巡回随時対応型事業所【定期巡回・随時対応型訪問介護看護】千葉県船橋市飯山満町3-1587", "url": "https://www.kaigokensaku.mhlw.go.jp/12/index.php?action_kouhyou_detail_004_kani=true&JigyosyoCd=1290900727-00&ServiceCd=760&Type=search", "url2": "http://ginmokusei.net" }, "geometry": { "type": "Point", "coordinates": [ 140.0313741, 35.7134512 ] } },
{ "type": "Feature", "properties": { "内容": "今から定巡２４【定期巡回・随時対応型訪問介護看護】千葉県船橋市本町４－４０－２３SadoyaSouthernTerrace9F", "url": "https://www.kaigokensaku.mhlw.go.jp/12/index.php?action_kouhyou_detail_004_kani=true&JigyosyoCd=1290901584-00&ServiceCd=760&Type=search", "url2": "http://ima-kara.co.jp/" }, "geometry": { "type": "Point", "coordinates": [ 139.986401199999989, 35.6982116 ] } },
{ "type": "Feature", "properties": { "内容": "ＳＯＭＰＯケア　船橋前原　定期巡回【定期巡回・随時対応型訪問介護看護】千葉県船橋市前原西3-16-6", "url": "https://www.kaigokensaku.mhlw.go.jp/12/index.php?action_kouhyou_detail_004_kani=true&JigyosyoCd=1290900792-00&ServiceCd=760&Type=search", "url2": "https://www.sompocare.com/" }, "geometry": { "type": "Point", "coordinates": [ 140.0211091, 35.6962249 ] } },
{ "type": "Feature", "properties": { "内容": "生活クラブ風の村定期巡回ステーション高根台【定期巡回・随時対応型訪問介護看護】千葉県船橋市高根台2-2-17", "url": "https://www.kaigokensaku.mhlw.go.jp/12/index.php?action_kouhyou_detail_004_kani=true&JigyosyoCd=1292893011-00&ServiceCd=760&Type=search", "url2": "https://kazenomura.jp/" }, "geometry": { "type": "Point", "coordinates": [ 140.031767899999977, 35.73439810000005 ] } },
{ "type": "Feature", "properties": { "内容": "丸美ライフサービス定期巡回・随時対応事務所【定期巡回・随時対応型訪問介護看護】千葉県船橋市本町2-26-20", "url": "https://www.kaigokensaku.mhlw.go.jp/12/index.php?action_kouhyou_detail_004_kani=true&JigyosyoCd=1292893029-00&ServiceCd=760&Type=search", "url2": "http://www.marumi-life.co.jp/" }, "geometry": { "type": "Point", "coordinates": [ 139.982939020237751, 35.698687759297016 ] } },
{ "type": "Feature", "properties": { "内容": "やさしい手新高根定期巡回・随時対応型訪問介護看護【定期巡回・随時対応型訪問介護看護】千葉県船橋市新高根3-27-2センチュリーテラス船橋1階", "url": "https://www.kaigokensaku.mhlw.go.jp/12/index.php?action_kouhyou_detail_004_kani=true&JigyosyoCd=1290900461-00&ServiceCd=760&Type=search", "url2": "http://www.yasashiite.com/index.html" }, "geometry": { "type": "Point", "coordinates": [ 140.025548399999934, 35.7328048 ] } },
{ "type": "Feature", "properties": { "内容": "けあらぼ24船橋行田【定期巡回・随時対応型訪問介護看護】千葉県船橋市山手3-14-5", "url": "https://www.kaigokensaku.mhlw.go.jp/12/index.php?action_kouhyou_detail_004_kani=true&JigyosyoCd=1290901154-00&ServiceCd=760&Type=search", "url2": "http://www.asupara1.com/carelabo/" }, "geometry": { "type": "Point", "coordinates": [ 139.976525726808774, 35.718433309305993 ] } },
{ "type": "Feature", "properties": { "内容": "やまみ定期巡回ステーション波岡【定期巡回・随時対応型訪問介護看護】千葉県木更津市大久保２－２０－６", "url": "https://www.kaigokensaku.mhlw.go.jp/12/index.php?action_kouhyou_detail_004_kani=true&JigyosyoCd=1291100228-00&ServiceCd=760&Type=search", "url2": "https://yamamikaigo.jp/" }, "geometry": { "type": "Point", "coordinates": [ 139.9331493, 35.3430317 ] } },
{ "type": "Feature", "properties": { "内容": "ファミリーケア・ナースセンター絆【定期巡回・随時対応型訪問介護看護】千葉県木更津市江川523-2", "url": "https://www.kaigokensaku.mhlw.go.jp/12/index.php?action_kouhyou_detail_004_kani=true&JigyosyoCd=1291100111-00&ServiceCd=760&Type=search", "url2": "https://anshinnokizuna.com/" }, "geometry": { "type": "Point", "coordinates": [ 139.920917199999963, 35.405960200000017 ] } },
{ "type": "Feature", "properties": { "内容": "定期巡回・随時対応型訪問介護看護みくに【定期巡回・随時対応型訪問介護看護】千葉県松戸市栄町西５－１３２２（株）みくに　在宅介護事業所", "url": "https://www.kaigokensaku.mhlw.go.jp/12/index.php?action_kouhyou_detail_004_kani=true&JigyosyoCd=1291200432-00&ServiceCd=760&Type=search", "url2": "http://chiicomi.com/shop?s=454f5965-4283-11e6-8bd0-a0369f7b8e6e" }, "geometry": { "type": "Point", "coordinates": [ 139.891264020207245, 35.808445519460271 ] } },
{ "type": "Feature", "properties": { "内容": "グリーンセレスト　定期随時型【定期巡回・随時対応型訪問介護看護】松戸市八ヶ崎7-33-1宇田川ハイツ弐番館202号室", "url": "https://www.kaigokensaku.mhlw.go.jp/12/index.php?action_kouhyou_detail_004_kani=true&JigyosyoCd=1291200549-00&ServiceCd=760&Type=search", "url2": "http://rhinokino.jp/" }, "geometry": { "type": "Point", "coordinates": [ 139.9294416, 35.8118415 ] } },
{ "type": "Feature", "properties": { "内容": "月明会定期巡回事業所【定期巡回・随時対応型訪問介護看護】千葉県松戸市稔台7-17-2メゾンブローニュ102号", "url": "https://www.kaigokensaku.mhlw.go.jp/12/index.php?action_kouhyou_detail_004_kani=true&JigyosyoCd=1291200861-00&ServiceCd=760&Type=search", "url2": "https://getsumeikai.com/" }, "geometry": { "type": "Point", "coordinates": [ 139.928901, 35.7868536 ] } },
{ "type": "Feature", "properties": { "内容": "元気介護サービス定期巡回【定期巡回・随時対応型訪問介護看護】千葉県松戸市中根517番地", "url": "https://www.kaigokensaku.mhlw.go.jp/12/index.php?action_kouhyou_detail_004_kani=true&JigyosyoCd=1291200424-00&ServiceCd=760&Type=search", "url2": "http://genki-matsudo.com/" }, "geometry": { "type": "Point", "coordinates": [ 139.917282600000021, 35.8060385 ] } },
{ "type": "Feature", "properties": { "内容": "秋桜ヴィレッジ訪問介護事業所【定期巡回・随時対応型訪問介護看護】千葉県松戸市栄町西5－1344－1", "url": "https://www.kaigokensaku.mhlw.go.jp/12/index.php?action_kouhyou_detail_004_kani=true&JigyosyoCd=1291200663-00&ServiceCd=760&Type=search", "url2": "https://www.mother-like.co.jp/" }, "geometry": { "type": "Point", "coordinates": [ 139.8947738, 35.8076793 ] } },
{ "type": "Feature", "properties": { "内容": "やさしい手八柱定期巡回随時対応型訪問介護看護【定期巡回・随時対応型訪問介護看護】千葉県松戸市日暮４－３－３", "url": "https://www.kaigokensaku.mhlw.go.jp/12/index.php?action_kouhyou_detail_004_kani=true&JigyosyoCd=1291200408-00&ServiceCd=760&Type=search", "url2": "https://search.yasashiite.com/detail/homonkaigo_yahashira/" }, "geometry": { "type": "Point", "coordinates": [ 139.938662581243079, 35.788256299598977 ] } },
{ "type": "Feature", "properties": { "内容": "SOMPOケア　五香南　定期巡回【定期巡回・随時対応型訪問介護看護】千葉県松戸市五香南2－14－1そんぽの家S五香南", "url": "https://www.kaigokensaku.mhlw.go.jp/12/index.php?action_kouhyou_detail_004_kani=true&JigyosyoCd=1291200804-00&ServiceCd=760&Type=search", "url2": "https://www.sompocare.com/service/zaitaku/teikijunkai/Z000944" }, "geometry": { "type": "Point", "coordinates": [ 139.97708750000001, 35.7916622 ] } },
{ "type": "Feature", "properties": { "内容": "ルポゼ東松戸定期巡回随時対応型訪問介護看護【定期巡回・随時対応型訪問介護看護】千葉県松戸市東松戸3-15-16", "url": "https://www.kaigokensaku.mhlw.go.jp/12/index.php?action_kouhyou_detail_004_kani=true&JigyosyoCd=1291200390-00&ServiceCd=760&Type=search", "url2": "http://reposer-higashimatsudo.com/" }, "geometry": { "type": "Point", "coordinates": [ 139.940029900000013, 35.770024 ] } },
{ "type": "Feature", "properties": { "内容": "生活クラブ風の村定期巡回ステーションなりた【定期巡回・随時対応型訪問介護看護】千葉県成田市大竹字内沼370-5", "url": "https://www.kaigokensaku.mhlw.go.jp/12/index.php?action_kouhyou_detail_004_kani=true&JigyosyoCd=1291600243-00&ServiceCd=760&Type=search", "url2": "https://kazenomura.jp/" }, "geometry": { "type": "Point", "coordinates": [ 140.278006, 35.809269 ] } },
{ "type": "Feature", "properties": { "内容": "定期巡回アルテロイテ【定期巡回・随時対応型訪問介護看護】千葉県成田市北須賀33カレッサ成田北須賀内", "url": "https://www.kaigokensaku.mhlw.go.jp/12/index.php?action_kouhyou_detail_004_kani=true&JigyosyoCd=1291600326-00&ServiceCd=760&Type=search", "url2": null }, "geometry": { "type": "Point", "coordinates": [ 140.259918559184513, 35.784977874855073 ] } },
{ "type": "Feature", "properties": { "内容": "定期巡回もりの家【定期巡回・随時対応型訪問介護看護】千葉県佐倉市小篠塚1153-1", "url": "https://www.kaigokensaku.mhlw.go.jp/12/index.php?action_kouhyou_detail_004_kani=true&JigyosyoCd=1291700415-00&ServiceCd=760&Type=search", "url2": "http://daisen.or.jp" }, "geometry": { "type": "Point", "coordinates": [ 140.2302001, 35.6879347 ] } },
{ "type": "Feature", "properties": { "内容": "定期巡回サービスなごやか旭【定期巡回・随時対応型訪問介護看護】千葉県旭市三川字狢野15001番地2", "url": "https://www.kaigokensaku.mhlw.go.jp/12/index.php?action_kouhyou_detail_004_kani=true&JigyosyoCd=1292000161-00&ServiceCd=760&Type=search", "url2": "https://www.nagoyaka-kaigo.jp/" }, "geometry": { "type": "Point", "coordinates": [ 140.724144, 35.7300362 ] } },
{ "type": "Feature", "properties": { "内容": "かがやきの郷福楽園定期巡回・随時対応型訪問介護看護【定期巡回・随時対応型訪問介護看護】千葉県習志野市東習志野1-1-20", "url": "https://www.kaigokensaku.mhlw.go.jp/12/index.php?action_kouhyou_detail_004_kani=true&JigyosyoCd=1292100276-00&ServiceCd=760&Type=search", "url2": "https://e-houseikai.or.jp/" }, "geometry": { "type": "Point", "coordinates": [ 140.063858200000027, 35.6951194 ] } },
{ "type": "Feature", "properties": { "内容": "定期巡回・随時対応型訪問介護看護やすらぎ【定期巡回・随時対応型訪問介護看護】千葉県柏市豊四季台1丁目3番1号ココファン柏豊四季台内", "url": "https://www.kaigokensaku.mhlw.go.jp/12/index.php?action_kouhyou_detail_004_kani=true&JigyosyoCd=1292200324-00&ServiceCd=760&Type=search", "url2": "http://www.fukushiplazasakuragawa.com/" }, "geometry": { "type": "Point", "coordinates": [ 139.957485499999962, 35.866176 ] } },
{ "type": "Feature", "properties": { "内容": "アプリシェイト定期巡回・随時対応型訪問介護看護ステーション【定期巡回・随時対応型訪問介護看護】千葉県柏市高柳1460-1フラットワン　A号室", "url": "https://www.kaigokensaku.mhlw.go.jp/12/index.php?action_kouhyou_detail_004_kani=true&JigyosyoCd=1292200977-00&ServiceCd=760&Type=search", "url2": null }, "geometry": { "type": "Point", "coordinates": [ 140.00069830000001, 35.8115576 ] } },
{ "type": "Feature", "properties": { "内容": "生活クラブ風の村定期巡回ステーション光ヶ丘【定期巡回・随時対応型訪問介護看護】千葉県柏市東中新宿4-5-12", "url": "https://www.kaigokensaku.mhlw.go.jp/12/index.php?action_kouhyou_detail_004_kani=true&JigyosyoCd=1292200258-00&ServiceCd=760&Type=search", "url2": "http://kazenomura.jp/" }, "geometry": { "type": "Point", "coordinates": [ 139.960978742327825, 35.830964391900963 ] } },
{ "type": "Feature", "properties": { "内容": "やさしい手新柏訪問介護事業所【定期巡回・随時対応型訪問介護看護】千葉県柏市豊住１丁目３-２５センチュリーテラス新柏　１階", "url": "https://www.kaigokensaku.mhlw.go.jp/12/index.php?action_kouhyou_detail_004_kani=true&JigyosyoCd=1292200266-00&ServiceCd=760&Type=search", "url2": "https://www.yasashiite.com/subdomains/section/213/" }, "geometry": { "type": "Point", "coordinates": [ 139.960855300000048, 35.8398335 ] } },
{ "type": "Feature", "properties": { "内容": "定期巡回和気あいあい24【定期巡回・随時対応型訪問介護看護】千葉県柏市松葉町３丁目24-7", "url": "https://www.kaigokensaku.mhlw.go.jp/12/index.php?action_kouhyou_detail_004_kani=true&JigyosyoCd=1292200910-00&ServiceCd=760&Type=search", "url2": "https://www.wakiaiai-kaigo.jp/" }, "geometry": { "type": "Point", "coordinates": [ 139.9661807, 35.8864406 ] } },
{ "type": "Feature", "properties": { "内容": "SOMPOケア地域サービスセンター豊四季　定期巡回【定期巡回・随時対応型訪問介護看護】千葉県柏市豊四季283－1", "url": "https://www.kaigokensaku.mhlw.go.jp/12/index.php?action_kouhyou_detail_004_kani=true&JigyosyoCd=1292200605-00&ServiceCd=760&Type=search", "url2": "https://www.sompocare.com/service/zaitaku/teikijunkai/Z000609" }, "geometry": { "type": "Point", "coordinates": [ 139.94809253622202, 35.861098703009475 ] } },
{ "type": "Feature", "properties": { "内容": "SOMPOケア　柏青葉台　定期巡回【定期巡回・随時対応型訪問介護看護】千葉県柏市青葉台2₋16‐15そんぽの家Ｓ柏青葉台", "url": "https://www.kaigokensaku.mhlw.go.jp/12/index.php?action_kouhyou_detail_004_kani=true&JigyosyoCd=1292200993-00&ServiceCd=760&Type=search", "url2": "https://www.sompocare.com/" }, "geometry": { "type": "Point", "coordinates": [ 139.957404782139577, 35.812878919181287 ] } },
{ "type": "Feature", "properties": { "内容": "巡回ステーションひと結び【定期巡回・随時対応型訪問介護看護】千葉県市原市喜多823-1", "url": "https://www.kaigokensaku.mhlw.go.jp/12/index.php?action_kouhyou_detail_004_kani=true&JigyosyoCd=1292400437-00&ServiceCd=760&Type=search", "url2": "https://shinwakaigo.org" }, "geometry": { "type": "Point", "coordinates": [ 140.18331984815174, 35.500778358190459 ] } },
{ "type": "Feature", "properties": { "内容": "在宅アシスト和気あいあい【定期巡回・随時対応型訪問介護看護】千葉県市原市姉崎2580-1", "url": "https://www.kaigokensaku.mhlw.go.jp/12/index.php?action_kouhyou_detail_004_kani=true&JigyosyoCd=1292400346-00&ServiceCd=760&Type=search", "url2": "https://www.qolife.or.jp/" }, "geometry": { "type": "Point", "coordinates": [ 140.0581544, 35.4778224 ] } },
{ "type": "Feature", "properties": { "内容": "生活クラブ風の村　定期巡回サービス流山【定期巡回・随時対応型訪問介護看護】千葉県流山市東深井20-29", "url": "https://www.kaigokensaku.mhlw.go.jp/12/index.php?action_kouhyou_detail_004_kani=true&JigyosyoCd=1292500251-00&ServiceCd=760&Type=search", "url2": null }, "geometry": { "type": "Point", "coordinates": [ 139.903258568122851, 35.906462420785537 ] } },
{ "type": "Feature", "properties": { "内容": "秋桜ヴィレッジ南流山訪問介護事業所【定期巡回・随時対応型訪問介護看護】千葉県流山市南流山6-8-15", "url": "https://www.kaigokensaku.mhlw.go.jp/12/index.php?action_kouhyou_detail_004_kani=true&JigyosyoCd=1292500319-00&ServiceCd=760&Type=search", "url2": "https://mother-like.co.jp/nursing/regularvisit.html" }, "geometry": { "type": "Point", "coordinates": [ 139.898004852019483, 35.836122011400377 ] } },
{ "type": "Feature", "properties": { "内容": "医療法人社団澄乃会　向日葵ラウンドケア【定期巡回・随時対応型訪問介護看護】千葉県八千代市ゆりのき台5-1-2ブライトリーフ", "url": "https://www.kaigokensaku.mhlw.go.jp/12/index.php?action_kouhyou_detail_004_kani=true&JigyosyoCd=1292600341-00&ServiceCd=760&Type=search", "url2": "http://suminokai.jp/" }, "geometry": { "type": "Point", "coordinates": [ 140.104029500000024, 35.7307315 ] } },
{ "type": "Feature", "properties": { "内容": "けやきの里定期巡回・随時対応型訪問介護看護事業所【定期巡回・随時対応型訪問介護看護】千葉県我孫子市青山４１７番", "url": "https://www.kaigokensaku.mhlw.go.jp/12/index.php?action_kouhyou_detail_004_kani=true&JigyosyoCd=1292700265-00&ServiceCd=760&Type=search", "url2": "https://kojk.jp/keyakinosato/index.html" }, "geometry": { "type": "Point", "coordinates": [ 140.051988505287682, 35.876963422447083 ] } },
{ "type": "Feature", "properties": { "内容": "テイキジュンカイワキアイアイ24・アビコ【定期巡回・随時対応型訪問介護看護】千葉県我孫子市我孫子1861", "url": "https://www.kaigokensaku.mhlw.go.jp/12/index.php?action_kouhyou_detail_004_kani=true&JigyosyoCd=1292700299-00&ServiceCd=760&Type=search", "url2": "https://www.wakiaiai-kaigo.jp/wakiaiai24-abiko.html" }, "geometry": { "type": "Point", "coordinates": [ 140.0274801, 35.8648325 ] } },
{ "type": "Feature", "properties": { "内容": "ケアサポートセンターＭＯＡＮＡ【定期巡回・随時対応型訪問介護看護】千葉県鴨川市西町1011-1介護老人保健施設たいよう内", "url": "https://www.kaigokensaku.mhlw.go.jp/12/index.php?action_kouhyou_detail_004_kani=true&JigyosyoCd=1292800107-00&ServiceCd=760&Type=search", "url2": "https://www.taiyou-kai.jp/taiyou/moana/" }, "geometry": { "type": "Point", "coordinates": [ 140.1246906, 35.1226799 ] } },
{ "type": "Feature", "properties": { "内容": "銀木犀＜鎌ヶ谷＞定期巡回・随時対応型事業所【定期巡回・随時対応型訪問介護看護】千葉県鎌ヶ谷市南鎌ヶ谷1-5-28", "url": "https://www.kaigokensaku.mhlw.go.jp/12/index.php?action_kouhyou_detail_004_kani=true&JigyosyoCd=1292900105-00&ServiceCd=760&Type=search", "url2": "http://silverwood.co.jp/ginmokusei/" }, "geometry": { "type": "Point", "coordinates": [ 140.005002600000012, 35.7485612 ] } },
{ "type": "Feature", "properties": { "内容": "定期巡回・随時対応型訪問介護看護事業所つばさ【定期巡回・随時対応型訪問介護看護】千葉県君津市貞元218-3", "url": "https://www.kaigokensaku.mhlw.go.jp/12/index.php?action_kouhyou_detail_004_kani=true&JigyosyoCd=1293000145-00&ServiceCd=760&Type=search", "url2": "http://allkaigo.com/" }, "geometry": { "type": "Point", "coordinates": [ 139.871524099999988, 35.331496899999983 ] } },
{ "type": "Feature", "properties": { "内容": "２４時間訪問介護事業所つばさ【定期巡回・随時対応型訪問介護看護】千葉県君津市郡2－7－10", "url": "https://www.kaigokensaku.mhlw.go.jp/12/index.php?action_kouhyou_detail_004_kani=true&JigyosyoCd=1293000079-00&ServiceCd=760&Type=search", "url2": "http://tsubasa-shishinkai.com" }, "geometry": { "type": "Point", "coordinates": [ 139.9112821, 35.3121805 ] } },
{ "type": "Feature", "properties": { "内容": "アビタシオン君津定期巡回訪問介護看護ステーション【定期巡回・随時対応型訪問介護看護】千葉県君津市⼋重原1338-1", "url": "https://www.kaigokensaku.mhlw.go.jp/12/index.php?action_kouhyou_detail_004_kani=true&JigyosyoCd=1293000210-00&ServiceCd=760&Type=search", "url2": "https://www.habitation.co.jp/kimitsu/" }, "geometry": { "type": "Point", "coordinates": [ 139.902478699999989, 35.3304451 ] } },
{ "type": "Feature", "properties": { "内容": "玄々堂亀田の郷定期巡回・随時対応型訪問介護看護事業所【定期巡回・随時対応型訪問介護看護】千葉県富津市亀田445-1", "url": "https://www.kaigokensaku.mhlw.go.jp/12/index.php?action_kouhyou_detail_004_kani=true&JigyosyoCd=1293100069-00&ServiceCd=760&Type=search", "url2": "https://gengendo-sanukikai.jp/" }, "geometry": { "type": "Point", "coordinates": [ 139.877992275849124, 35.261176594378789 ] } },
{ "type": "Feature", "properties": { "内容": "定期巡回･随時対応型訪問介護看護事業所「わたしたちの生きる証」【定期巡回・随時対応型訪問介護看護】千葉県富津市長崎字熊ノ下274", "url": "https://www.kaigokensaku.mhlw.go.jp/12/index.php?action_kouhyou_detail_004_kani=true&JigyosyoCd=1293100085-00&ServiceCd=760&Type=search", "url2": "http://watashitachinoikiruakashi.jp/" }, "geometry": { "type": "Point", "coordinates": [ 139.9058449, 35.2192021 ] } },
{ "type": "Feature", "properties": { "内容": "コープみらい四街道介護センター【定期巡回・随時対応型訪問介護看護】千葉県四街道市大日1793-15", "url": "https://www.kaigokensaku.mhlw.go.jp/12/index.php?action_kouhyou_detail_004_kani=true&JigyosyoCd=1294493011-00&ServiceCd=760&Type=search", "url2": "https://mirai.coopnet.or.jp/service/welfare/" }, "geometry": { "type": "Point", "coordinates": [ 140.1589983, 35.66886860000001 ] } },
{ "type": "Feature", "properties": { "内容": "定期巡回・随時対応型訪問介護看護事業所【定期巡回・随時対応型訪問介護看護】千葉県袖ケ浦市蔵波3037番地1", "url": "https://www.kaigokensaku.mhlw.go.jp/12/index.php?action_kouhyou_detail_004_kani=true&JigyosyoCd=1293400089-00&ServiceCd=760&Type=search", "url2": "http://www.eiwa.or.jp/" }, "geometry": { "type": "Point", "coordinates": [ 140.010947982803344, 35.434621404070349 ] } },
{ "type": "Feature", "properties": { "内容": "24時間対応型ベストケア訪問介護【定期巡回・随時対応型訪問介護看護】千葉県袖ケ浦市神納1-19-3グローバルビレッジ10号", "url": "https://www.kaigokensaku.mhlw.go.jp/12/index.php?action_kouhyou_detail_004_kani=true&JigyosyoCd=1293400071-00&ServiceCd=760&Type=search", "url2": "https://bestcare-group.com/" }, "geometry": { "type": "Point", "coordinates": [ 139.9599933, 35.4234014 ] } },
{ "type": "Feature", "properties": { "内容": "生活クラブ風の村定期巡回ステーション八街【定期巡回・随時対応型訪問介護看護】千葉県八街市東吉田912-8", "url": "https://www.kaigokensaku.mhlw.go.jp/12/index.php?action_kouhyou_detail_004_kani=true&JigyosyoCd=1293500110-00&ServiceCd=760&Type=search", "url2": "https://kazenomura.jp/" }, "geometry": { "type": "Point", "coordinates": [ 140.292602699999946, 35.6387056 ] } },
{ "type": "Feature", "properties": { "内容": "さつきの里　定期巡回・随時対応型訪問介護看護事業所【定期巡回・随時対応型訪問介護看護】千葉県白井市笹塚3-25-1", "url": "https://www.kaigokensaku.mhlw.go.jp/12/index.php?action_kouhyou_detail_004_kani=true&JigyosyoCd=1294200116-00&ServiceCd=760&Type=search", "url2": "http://kojk.jp" }, "geometry": { "type": "Point", "coordinates": [ 140.054255824422285, 35.789933702873704 ] } },
{ "type": "Feature", "properties": { "内容": "九十九里ホーム定期巡回・随時対応シオン【定期巡回・随時対応型訪問介護看護】千葉県匝瑳市飯倉97-1", "url": "https://www.kaigokensaku.mhlw.go.jp/12/index.php?action_kouhyou_detail_004_kani=true&JigyosyoCd=1298700111-00&ServiceCd=760&Type=search", "url2": null }, "geometry": { "type": "Point", "coordinates": [ 140.521730759169003, 35.687135302674214 ] } },
{ "type": "Feature", "properties": { "内容": "神代の森定期巡回随時対応型訪問介護看護【定期巡回・随時対応型訪問介護看護】千葉県香取郡東庄町窪野谷1661", "url": "https://www.kaigokensaku.mhlw.go.jp/12/index.php?action_kouhyou_detail_004_kani=true&JigyosyoCd=1295300071-00&ServiceCd=760&Type=search", "url2": "https://please-1222.com/" }, "geometry": { "type": "Point", "coordinates": [ 140.6459423, 35.805294500000045 ] } }
]
}
