{
"type": "FeatureCollection",
"name": "geo_12_短期入所療養介護（介護老人保健施設）",
"crs": { "type": "name", "properties": { "name": "urn:ogc:def:crs:OGC:1.3:CRS84" } },
"features": [
{ "type": "Feature", "properties": { "内容": "介護老人保健施設純恵の郷【短期入所療養介護（介護老人保健施設）】千葉県千葉市中央区南生実町590-1", "url2": "https://www.kaigokensaku.mhlw.go.jp/12/index.php?action_kouhyou_detail_004_kani=true&JigyosyoCd=1250180257-00&ServiceCd=220&Type=search" }, "geometry": { "type": "Point", "coordinates": [ 140.1489623, 35.5539965 ] } },
{ "type": "Feature", "properties": { "内容": "独立行政法人地域医療機能推進機構千葉病院附属介護老人保健施設【短期入所療養介護（介護老人保健施設）】千葉県千葉市中央区仁戸名町682番地", "url2": "https://www.kaigokensaku.mhlw.go.jp/12/index.php?action_kouhyou_detail_004_kani=true&JigyosyoCd=1250180109-00&ServiceCd=220&Type=search" }, "geometry": { "type": "Point", "coordinates": [ 140.162776, 35.582857 ] } },
{ "type": "Feature", "properties": { "内容": "介護老人保健施設　葵の園・はまの【短期入所療養介護（介護老人保健施設）】千葉県千葉市中央区浜野町４２３番地１", "url2": "https://www.kaigokensaku.mhlw.go.jp/12/index.php?action_kouhyou_detail_004_kani=true&JigyosyoCd=1250180190-00&ServiceCd=220&Type=search" }, "geometry": { "type": "Point", "coordinates": [ 140.135127600000033, 35.55642 ] } },
{ "type": "Feature", "properties": { "内容": "介護老人保健施設まくはりの郷【短期入所療養介護（介護老人保健施設）】千葉県千葉市花見川区幕張町5-405-2", "url2": "https://www.kaigokensaku.mhlw.go.jp/12/index.php?action_kouhyou_detail_004_kani=true&JigyosyoCd=1250180083-00&ServiceCd=220&Type=search" }, "geometry": { "type": "Point", "coordinates": [ 140.0598625, 35.6539255 ] } },
{ "type": "Feature", "properties": { "内容": "介護老人保健施設ほうゆうの杜【短期入所療養介護（介護老人保健施設）】犢橋町1105番地", "url2": "https://www.kaigokensaku.mhlw.go.jp/12/index.php?action_kouhyou_detail_004_kani=true&JigyosyoCd=1250180232-00&ServiceCd=220&Type=search" }, "geometry": { "type": "Point", "coordinates": [ 140.1023356, 35.6664671 ] } },
{ "type": "Feature", "properties": { "内容": "介護老人保健施設　ゆうあい苑【短期入所療養介護（介護老人保健施設）】千葉県千葉市花見川区柏井町1132-1", "url2": "https://www.kaigokensaku.mhlw.go.jp/12/index.php?action_kouhyou_detail_004_kani=true&JigyosyoCd=1250180208-00&ServiceCd=220&Type=search" }, "geometry": { "type": "Point", "coordinates": [ 140.104348399999907, 35.698446 ] } },
{ "type": "Feature", "properties": { "内容": "介護老人保健施設　晴山苑【短期入所療養介護（介護老人保健施設）】千葉県千葉市花見川区花島町149-1", "url2": "https://www.kaigokensaku.mhlw.go.jp/12/index.php?action_kouhyou_detail_004_kani=true&JigyosyoCd=1250180018-00&ServiceCd=220&Type=search" }, "geometry": { "type": "Point", "coordinates": [ 140.098552700000027, 35.6801007 ] } },
{ "type": "Feature", "properties": { "内容": "介護老人保健施設　ほうゆう苑【短期入所療養介護（介護老人保健施設）】千葉県千葉市花見川区犢橋町671-3", "url2": "https://www.kaigokensaku.mhlw.go.jp/12/index.php?action_kouhyou_detail_004_kani=true&JigyosyoCd=1250180133-00&ServiceCd=220&Type=search" }, "geometry": { "type": "Point", "coordinates": [ 140.112371, 35.672724 ] } },
{ "type": "Feature", "properties": { "内容": "介護老人保健施設ダンディライオン【短期入所療養介護（介護老人保健施設）】千葉市稲毛区山王町174", "url2": "https://www.kaigokensaku.mhlw.go.jp/12/index.php?action_kouhyou_detail_004_kani=true&JigyosyoCd=1250180175-00&ServiceCd=220&Type=search" }, "geometry": { "type": "Point", "coordinates": [ 140.139427699999942, 35.6647237 ] } },
{ "type": "Feature", "properties": { "内容": "介護老人保健施設　みどりの家【短期入所療養介護（介護老人保健施設）】千葉県千葉市稲毛区天台４丁目１番１６号", "url2": "https://www.kaigokensaku.mhlw.go.jp/12/index.php?action_kouhyou_detail_004_kani=true&JigyosyoCd=1250180067-00&ServiceCd=220&Type=search" }, "geometry": { "type": "Point", "coordinates": [ 140.1123997, 35.6379142 ] } },
{ "type": "Feature", "properties": { "内容": "介護老人保健施設アーバンケアセンター【短期入所療養介護（介護老人保健施設）】千葉市稲毛区山王町１６８－８", "url2": "https://www.kaigokensaku.mhlw.go.jp/12/index.php?action_kouhyou_detail_004_kani=true&JigyosyoCd=1250180026-00&ServiceCd=220&Type=search" }, "geometry": { "type": "Point", "coordinates": [ 140.13922649999995, 35.6661591 ] } },
{ "type": "Feature", "properties": { "内容": "いずみ苑　リハビリケアセンター【短期入所療養介護（介護老人保健施設）】千葉県千葉市若葉区高根町964-49", "url2": "https://www.kaigokensaku.mhlw.go.jp/12/index.php?action_kouhyou_detail_004_kani=true&JigyosyoCd=1250180166-00&ServiceCd=220&Type=search" }, "geometry": { "type": "Point", "coordinates": [ 140.219016900000042, 35.594257 ] } },
{ "type": "Feature", "properties": { "内容": "介護老人保健施設　はつらつリハビリセンター【短期入所療養介護（介護老人保健施設）】千葉県千葉市若葉区小間子町３－１３２", "url2": "https://www.kaigokensaku.mhlw.go.jp/12/index.php?action_kouhyou_detail_004_kani=true&JigyosyoCd=1250180091-00&ServiceCd=220&Type=search" }, "geometry": { "type": "Point", "coordinates": [ 140.2545026, 35.6194844 ] } },
{ "type": "Feature", "properties": { "内容": "介護老人保健施設総和苑【短期入所療養介護（介護老人保健施設）】千葉市緑区高田町1084", "url2": "https://www.kaigokensaku.mhlw.go.jp/12/index.php?action_kouhyou_detail_004_kani=true&JigyosyoCd=1250180117-00&ServiceCd=220&Type=search" }, "geometry": { "type": "Point", "coordinates": [ 140.224216, 35.5512566 ] } },
{ "type": "Feature", "properties": { "内容": "介護老人保健施設ケアセンター　けやき園【短期入所療養介護（介護老人保健施設）】千葉県千葉市緑区鎌取町81-1", "url2": "https://www.kaigokensaku.mhlw.go.jp/12/index.php?action_kouhyou_detail_004_kani=true&JigyosyoCd=1250180141-00&ServiceCd=220&Type=search" }, "geometry": { "type": "Point", "coordinates": [ 140.178636899999987, 35.5645025 ] } },
{ "type": "Feature", "properties": { "内容": "介護老人保健施設　葵の園・緑区【短期入所療養介護（介護老人保健施設）】千葉市緑区高田町２３８１－２", "url2": "https://www.kaigokensaku.mhlw.go.jp/12/index.php?action_kouhyou_detail_004_kani=true&JigyosyoCd=1250180216-00&ServiceCd=220&Type=search" }, "geometry": { "type": "Point", "coordinates": [ 140.23338560000002, 35.5450433 ] } },
{ "type": "Feature", "properties": { "内容": "介護老人保健施設おゆみの【短期入所療養介護（介護老人保健施設）】千葉市緑区大金沢町364-1", "url2": "https://www.kaigokensaku.mhlw.go.jp/12/index.php?action_kouhyou_detail_004_kani=true&JigyosyoCd=1250180158-00&ServiceCd=220&Type=search" }, "geometry": { "type": "Point", "coordinates": [ 140.186083300000064, 35.5402976 ] } },
{ "type": "Feature", "properties": { "内容": "介護老人保健施設　葵の園・美浜【短期入所療養介護（介護老人保健施設）】千葉県千葉市美浜区幸町1-38-5", "url2": "https://www.kaigokensaku.mhlw.go.jp/12/index.php?action_kouhyou_detail_004_kani=true&JigyosyoCd=1250180224-00&ServiceCd=220&Type=search" }, "geometry": { "type": "Point", "coordinates": [ 140.09855573159939, 35.614816403980349 ] } },
{ "type": "Feature", "properties": { "内容": "介護老人保健施設慈風苑【短期入所療養介護（介護老人保健施設）】千葉県銚子市長塚町３丁目６０９番地の2", "url2": "https://www.kaigokensaku.mhlw.go.jp/12/index.php?action_kouhyou_detail_004_kani=true&JigyosyoCd=1251380013-00&ServiceCd=220&Type=search" }, "geometry": { "type": "Point", "coordinates": [ 140.801578799999987, 35.7392579 ] } },
{ "type": "Feature", "properties": { "内容": "介護老人保健施設なぎさ【短期入所療養介護（介護老人保健施設）】千葉県銚子市松岸町4-778-55", "url2": "https://www.kaigokensaku.mhlw.go.jp/12/index.php?action_kouhyou_detail_004_kani=true&JigyosyoCd=1251380021-00&ServiceCd=220&Type=search" }, "geometry": { "type": "Point", "coordinates": [ 140.792376699999977, 35.7403353 ] } },
{ "type": "Feature", "properties": { "内容": "介護老人保健施設とよさと【短期入所療養介護（介護老人保健施設）】千葉県銚子市豊里台１丁目１０４４－７４６", "url2": "https://www.kaigokensaku.mhlw.go.jp/12/index.php?action_kouhyou_detail_004_kani=true&JigyosyoCd=1251380039-00&ServiceCd=220&Type=search" }, "geometry": { "type": "Point", "coordinates": [ 140.712281500000017, 35.7877493 ] } },
{ "type": "Feature", "properties": { "内容": "介護老人保健施設葵の園・市川【短期入所療養介護（介護老人保健施設）】千葉県市川市大野町三丁目2128番1号", "url2": "https://www.kaigokensaku.mhlw.go.jp/12/index.php?action_kouhyou_detail_004_kani=true&JigyosyoCd=1252780054-00&ServiceCd=220&Type=search" }, "geometry": { "type": "Point", "coordinates": [ 139.958720699999958, 35.7504139 ] } },
{ "type": "Feature", "properties": { "内容": "医療法人社団泰正会介護老人保健施設グレースケア市川【短期入所療養介護（介護老人保健施設）】千葉県市川市大町43-3", "url2": "https://www.kaigokensaku.mhlw.go.jp/12/index.php?action_kouhyou_detail_004_kani=true&JigyosyoCd=1252780062-00&ServiceCd=220&Type=search" }, "geometry": { "type": "Point", "coordinates": [ 139.953584200000023, 35.7698161 ] } },
{ "type": "Feature", "properties": { "内容": "介護老人保健施設市川ゆうゆう【短期入所療養介護（介護老人保健施設）】千葉県市川市柏井町４丁目２２９番地４", "url2": "https://www.kaigokensaku.mhlw.go.jp/12/index.php?action_kouhyou_detail_004_kani=true&JigyosyoCd=1252780104-00&ServiceCd=220&Type=search" }, "geometry": { "type": "Point", "coordinates": [ 139.96484780000003, 35.7513296 ] } },
{ "type": "Feature", "properties": { "内容": "介護老人保健施設サンセール市川【短期入所療養介護（介護老人保健施設）】千葉県市川市原木2丁目13番8号", "url2": "https://www.kaigokensaku.mhlw.go.jp/12/index.php?action_kouhyou_detail_004_kani=true&JigyosyoCd=1252780112-00&ServiceCd=220&Type=search" }, "geometry": { "type": "Point", "coordinates": [ 139.943298299999981, 35.6985505 ] } },
{ "type": "Feature", "properties": { "内容": "介護老人保健施設　らいおんハート【短期入所療養介護（介護老人保健施設）】千葉県市川市柏井町４丁目296-2", "url2": "https://www.kaigokensaku.mhlw.go.jp/12/index.php?action_kouhyou_detail_004_kani=true&JigyosyoCd=1252780125-00&ServiceCd=220&Type=search" }, "geometry": { "type": "Point", "coordinates": [ 139.9718052, 35.7540941 ] } },
{ "type": "Feature", "properties": { "内容": "介護老人保健施設　サンシルバー市川【短期入所療養介護（介護老人保健施設）】千葉県市川市北方町4-1460", "url2": "https://www.kaigokensaku.mhlw.go.jp/12/index.php?action_kouhyou_detail_004_kani=true&JigyosyoCd=1252780070-00&ServiceCd=220&Type=search" }, "geometry": { "type": "Point", "coordinates": [ 139.954076799999939, 35.7380866 ] } },
{ "type": "Feature", "properties": { "内容": "介護老人保健施設　　市川あさひ荘【短期入所療養介護（介護老人保健施設）】千葉県市川市大町537-10", "url2": "https://www.kaigokensaku.mhlw.go.jp/12/index.php?action_kouhyou_detail_004_kani=true&JigyosyoCd=1252780096-00&ServiceCd=220&Type=search" }, "geometry": { "type": "Point", "coordinates": [ 139.953717800000049, 35.7609644 ] } },
{ "type": "Feature", "properties": { "内容": "介護老人保健施設　エスポワール市川【短期入所療養介護（介護老人保健施設）】千葉県市川市高谷３丁目１－２０", "url2": "https://www.kaigokensaku.mhlw.go.jp/12/index.php?action_kouhyou_detail_004_kani=true&JigyosyoCd=1252780088-00&ServiceCd=220&Type=search" }, "geometry": { "type": "Point", "coordinates": [ 139.941748599999983, 35.6973788 ] } },
{ "type": "Feature", "properties": { "内容": "介護老人保健施設　ハートケア市川【短期入所療養介護（介護老人保健施設）】千葉県市川市奉免町５９－２", "url2": "https://www.kaigokensaku.mhlw.go.jp/12/index.php?action_kouhyou_detail_004_kani=true&JigyosyoCd=1252780039-00&ServiceCd=220&Type=search" }, "geometry": { "type": "Point", "coordinates": [ 139.957029199999965, 35.7433054 ] } },
{ "type": "Feature", "properties": { "内容": "介護老人保健施設　大穴さくら苑【短期入所療養介護（介護老人保健施設）】千葉県船橋市大穴北8-41-1", "url2": "https://www.kaigokensaku.mhlw.go.jp/12/index.php?action_kouhyou_detail_004_kani=true&JigyosyoCd=1252880086-00&ServiceCd=220&Type=search" }, "geometry": { "type": "Point", "coordinates": [ 140.041782300000023, 35.7432984 ] } },
{ "type": "Feature", "properties": { "内容": "介護老人保健施設ふなばし光陽【短期入所療養介護（介護老人保健施設）】千葉県船橋市豊富町６４４－１２", "url2": "https://www.kaigokensaku.mhlw.go.jp/12/index.php?action_kouhyou_detail_004_kani=true&JigyosyoCd=1252880102-00&ServiceCd=220&Type=search" }, "geometry": { "type": "Point", "coordinates": [ 140.062967, 35.7654307 ] } },
{ "type": "Feature", "properties": { "内容": "介護老人保健施設　フェルマータ船橋【短期入所療養介護（介護老人保健施設）】千葉県船橋市飯山満町1-822", "url2": "https://www.kaigokensaku.mhlw.go.jp/12/index.php?action_kouhyou_detail_004_kani=true&JigyosyoCd=1252880060-00&ServiceCd=220&Type=search" }, "geometry": { "type": "Point", "coordinates": [ 140.01049009999997, 35.7093902 ] } },
{ "type": "Feature", "properties": { "内容": "介護老人保健施設船橋うぐいす園【短期入所療養介護（介護老人保健施設）】千葉県船橋市高根町1-1", "url2": "https://www.kaigokensaku.mhlw.go.jp/12/index.php?action_kouhyou_detail_004_kani=true&JigyosyoCd=1252880094-00&ServiceCd=220&Type=search" }, "geometry": { "type": "Point", "coordinates": [ 140.010548100000079, 35.7167922 ] } },
{ "type": "Feature", "properties": { "内容": "介護老人保健施設リハビリケア船橋【短期入所療養介護（介護老人保健施設）】千葉県船橋市本町4-8-30", "url2": "https://www.kaigokensaku.mhlw.go.jp/12/index.php?action_kouhyou_detail_004_kani=true&JigyosyoCd=1252880136-00&ServiceCd=220&Type=search" }, "geometry": { "type": "Point", "coordinates": [ 139.991278400000027, 35.700866 ] } },
{ "type": "Feature", "properties": { "内容": "介護老人保健施設なつみの郷【短期入所療養介護（介護老人保健施設）】千葉県船橋市夏見台4丁目24番1号", "url2": "https://www.kaigokensaku.mhlw.go.jp/12/index.php?action_kouhyou_detail_004_kani=true&JigyosyoCd=1250980040-00&ServiceCd=220&Type=search" }, "geometry": { "type": "Point", "coordinates": [ 139.9891864, 35.715195 ] } },
{ "type": "Feature", "properties": { "内容": "介護老人保健施設船橋ケアセンター【短期入所療養介護（介護老人保健施設）】千葉県船橋市高野台５－７４１－６", "url2": "https://www.kaigokensaku.mhlw.go.jp/12/index.php?action_kouhyou_detail_004_kani=true&JigyosyoCd=1252880037-00&ServiceCd=220&Type=search" }, "geometry": { "type": "Point", "coordinates": [ 140.031295300000011, 35.7707877 ] } },
{ "type": "Feature", "properties": { "内容": "介護老人保健施設　はさま徳洲苑【短期入所療養介護（介護老人保健施設）】千葉県船橋市飯山満町2-685-3", "url2": "https://www.kaigokensaku.mhlw.go.jp/12/index.php?action_kouhyou_detail_004_kani=true&JigyosyoCd=1250980073-00&ServiceCd=220&Type=search" }, "geometry": { "type": "Point", "coordinates": [ 140.0186516, 35.7092246 ] } },
{ "type": "Feature", "properties": { "内容": "介護老人保健施設オレンジガーデン・ケアセンター【短期入所療養介護（介護老人保健施設）】千葉県船橋市芝山7-41-1", "url2": "https://www.kaigokensaku.mhlw.go.jp/12/index.php?action_kouhyou_detail_004_kani=true&JigyosyoCd=1252880110-00&ServiceCd=220&Type=search" }, "geometry": { "type": "Point", "coordinates": [ 140.026702, 35.7169063 ] } },
{ "type": "Feature", "properties": { "内容": "介護老人保健施設やすらぎ【短期入所療養介護（介護老人保健施設）】千葉県船橋市市場３－３－１", "url2": "https://www.kaigokensaku.mhlw.go.jp/12/index.php?action_kouhyou_detail_004_kani=true&JigyosyoCd=1252880045-00&ServiceCd=220&Type=search" }, "geometry": { "type": "Point", "coordinates": [ 139.997466700000018, 35.7008633 ] } },
{ "type": "Feature", "properties": { "内容": "介護老人保健施設　ロータスケアセンター【短期入所療養介護（介護老人保健施設）】千葉県船橋市藤原5-23-1", "url2": "https://www.kaigokensaku.mhlw.go.jp/12/index.php?action_kouhyou_detail_004_kani=true&JigyosyoCd=1252880078-00&ServiceCd=220&Type=search" }, "geometry": { "type": "Point", "coordinates": [ 139.981974900000068, 35.7404114 ] } },
{ "type": "Feature", "properties": { "内容": "介護老人保健施設千葉徳洲苑【短期入所療養介護（介護老人保健施設）】千葉県船橋市大穴北7-22-1", "url2": "https://www.kaigokensaku.mhlw.go.jp/12/index.php?action_kouhyou_detail_004_kani=true&JigyosyoCd=1250980065-00&ServiceCd=220&Type=search" }, "geometry": { "type": "Point", "coordinates": [ 140.053478, 35.74784 ] } },
{ "type": "Feature", "properties": { "内容": "介護老人保健施設　エスポワール船橋【短期入所療養介護（介護老人保健施設）】千葉県船橋市小野田町1494-1", "url2": "https://www.kaigokensaku.mhlw.go.jp/12/index.php?action_kouhyou_detail_004_kani=true&JigyosyoCd=1250980057-00&ServiceCd=220&Type=search" }, "geometry": { "type": "Point", "coordinates": [ 140.076039900000012, 35.7831895 ] } },
{ "type": "Feature", "properties": { "内容": "医療法人南陽会介護老人保健施設みやぎの郷【短期入所療養介護（介護老人保健施設）】千葉県館山市宮城1088番地", "url2": "https://www.kaigokensaku.mhlw.go.jp/12/index.php?action_kouhyou_detail_004_kani=true&JigyosyoCd=1253680030-00&ServiceCd=220&Type=search" }, "geometry": { "type": "Point", "coordinates": [ 139.836682200000041, 34.9822933 ] } },
{ "type": "Feature", "properties": { "内容": "サテライト型小規模介護老人保険施設　なのはな館なぎさ【短期入所療養介護（介護老人保健施設）】千葉県館山市北条2832", "url2": "https://www.kaigokensaku.mhlw.go.jp/12/index.php?action_kouhyou_detail_004_kani=true&JigyosyoCd=1253680055-00&ServiceCd=220&Type=search" }, "geometry": { "type": "Point", "coordinates": [ 139.859366300000033, 34.996852500000017 ] } },
{ "type": "Feature", "properties": { "内容": "介護老人保健施設なのはな館みさき【短期入所療養介護（介護老人保健施設）】千葉県館山市浜田１１０－１", "url2": "https://www.kaigokensaku.mhlw.go.jp/12/index.php?action_kouhyou_detail_004_kani=true&JigyosyoCd=1253680014-00&ServiceCd=220&Type=search" }, "geometry": { "type": "Point", "coordinates": [ 139.808715600000028, 34.9748188 ] } },
{ "type": "Feature", "properties": { "内容": "館山ケアセンター夢くらぶ【短期入所療養介護（介護老人保健施設）】千葉県館山市山本392-1", "url2": "https://www.kaigokensaku.mhlw.go.jp/12/index.php?action_kouhyou_detail_004_kani=true&JigyosyoCd=1253680022-00&ServiceCd=220&Type=search" }, "geometry": { "type": "Point", "coordinates": [ 139.8922966, 34.9859356 ] } },
{ "type": "Feature", "properties": { "内容": "介護老人保健施設たてやま【短期入所療養介護（介護老人保健施設）】千葉県館山市北条520-1", "url2": "https://www.kaigokensaku.mhlw.go.jp/12/index.php?action_kouhyou_detail_004_kani=true&JigyosyoCd=1253680068-00&ServiceCd=220&Type=search" }, "geometry": { "type": "Point", "coordinates": [ 139.875310873680121, 34.993845883115434 ] } },
{ "type": "Feature", "properties": { "内容": "かもめメディカルケアセンター【短期入所療養介護（介護老人保健施設）】千葉県木更津市菅生689", "url2": "https://www.kaigokensaku.mhlw.go.jp/12/index.php?action_kouhyou_detail_004_kani=true&JigyosyoCd=1251080043-00&ServiceCd=220&Type=search" }, "geometry": { "type": "Point", "coordinates": [ 139.968189700000039, 35.392280400000011 ] } },
{ "type": "Feature", "properties": { "内容": "介護老人保健施設ケアセンターきさらづ【短期入所療養介護（介護老人保健施設）】千葉県木更津市長須賀1239番地", "url2": "https://www.kaigokensaku.mhlw.go.jp/12/index.php?action_kouhyou_detail_004_kani=true&JigyosyoCd=1251080019-00&ServiceCd=220&Type=search" }, "geometry": { "type": "Point", "coordinates": [ 139.933959400000049, 35.3979962 ] } },
{ "type": "Feature", "properties": { "内容": "介護老人保健施設メディケアーさざなみ【短期入所療養介護（介護老人保健施設）】千葉県木更津市中島2366-1", "url2": "https://www.kaigokensaku.mhlw.go.jp/12/index.php?action_kouhyou_detail_004_kani=true&JigyosyoCd=1251080035-00&ServiceCd=220&Type=search" }, "geometry": { "type": "Point", "coordinates": [ 139.91935280000007, 35.437357 ] } },
{ "type": "Feature", "properties": { "内容": "介護老人保健施設　エスポワール松戸【短期入所療養介護（介護老人保健施設）】千葉県松戸市五香西4-26-10", "url2": "https://www.kaigokensaku.mhlw.go.jp/12/index.php?action_kouhyou_detail_004_kani=true&JigyosyoCd=1252480093-00&ServiceCd=220&Type=search" }, "geometry": { "type": "Point", "coordinates": [ 139.960221899999965, 35.7874286 ] } },
{ "type": "Feature", "properties": { "内容": "介護老人保健施設　葵の園・松戸東【短期入所療養介護（介護老人保健施設）】千葉県松戸市千駄堀1091-1", "url2": "https://www.kaigokensaku.mhlw.go.jp/12/index.php?action_kouhyou_detail_004_kani=true&JigyosyoCd=1252480135-00&ServiceCd=220&Type=search" }, "geometry": { "type": "Point", "coordinates": [ 139.9289771, 35.8035126 ] } },
{ "type": "Feature", "properties": { "内容": "介護老人保健施設　千の星・松戸【短期入所療養介護（介護老人保健施設）】千葉県松戸市串崎新田189-4", "url2": "https://www.kaigokensaku.mhlw.go.jp/12/index.php?action_kouhyou_detail_004_kani=true&JigyosyoCd=1252480051-00&ServiceCd=220&Type=search" }, "geometry": { "type": "Point", "coordinates": [ 139.981978499999968, 35.7765469 ] } },
{ "type": "Feature", "properties": { "内容": "介護老人保健施設葵の園・松戸【短期入所療養介護（介護老人保健施設）】千葉県松戸市千駄堀1103-1", "url2": "https://www.kaigokensaku.mhlw.go.jp/12/index.php?action_kouhyou_detail_004_kani=true&JigyosyoCd=1252480127-00&ServiceCd=220&Type=search" }, "geometry": { "type": "Point", "coordinates": [ 139.928554572956727, 35.802711672293604 ] } },
{ "type": "Feature", "properties": { "内容": "東京おりーぶ苑【短期入所療養介護（介護老人保健施設）】千葉県松戸市金ヶ作２７６－２８", "url2": "https://www.kaigokensaku.mhlw.go.jp/12/index.php?action_kouhyou_detail_004_kani=true&JigyosyoCd=1252480077-00&ServiceCd=220&Type=search" }, "geometry": { "type": "Point", "coordinates": [ 139.962612400000012, 35.8083155 ] } },
{ "type": "Feature", "properties": { "内容": "介護老人保健施設　偕楽園【短期入所療養介護（介護老人保健施設）】千葉県松戸市西馬橋幸町23", "url2": "https://www.kaigokensaku.mhlw.go.jp/12/index.php?action_kouhyou_detail_004_kani=true&JigyosyoCd=1252480036-00&ServiceCd=220&Type=search" }, "geometry": { "type": "Point", "coordinates": [ 139.915643700000032, 35.8121267 ] } },
{ "type": "Feature", "properties": { "内容": "医療法人徳洲会介護老人保健施設シルバーケア松戸【短期入所療養介護（介護老人保健施設）】千葉県松戸市串崎新田172-1", "url2": "https://www.kaigokensaku.mhlw.go.jp/12/index.php?action_kouhyou_detail_004_kani=true&JigyosyoCd=1252480155-00&ServiceCd=220&Type=search" }, "geometry": { "type": "Point", "coordinates": [ 139.976190800000012, 35.7757564 ] } },
{ "type": "Feature", "properties": { "内容": "介護老人保健施設　まつど徳洲苑【短期入所療養介護（介護老人保健施設）】千葉県松戸市幸田180-1", "url2": "https://www.kaigokensaku.mhlw.go.jp/12/index.php?action_kouhyou_detail_004_kani=true&JigyosyoCd=1252480148-00&ServiceCd=220&Type=search" }, "geometry": { "type": "Point", "coordinates": [ 139.922507200000013, 35.8484901 ] } },
{ "type": "Feature", "properties": { "内容": "医療法人徳洲会介護老人保健施設シルバーケア常盤平【短期入所療養介護（介護老人保健施設）】千葉県松戸市五香西5-28", "url2": "https://www.kaigokensaku.mhlw.go.jp/12/index.php?action_kouhyou_detail_004_kani=true&JigyosyoCd=1252480163-00&ServiceCd=220&Type=search" }, "geometry": { "type": "Point", "coordinates": [ 139.9527115, 35.7864289 ] } },
{ "type": "Feature", "properties": { "内容": "介護老人保健施設島村洗心苑【短期入所療養介護（介護老人保健施設）】千葉県松戸市和名ケ谷660", "url2": "https://www.kaigokensaku.mhlw.go.jp/12/index.php?action_kouhyou_detail_004_kani=true&JigyosyoCd=1252480119-00&ServiceCd=220&Type=search" }, "geometry": { "type": "Point", "coordinates": [ 139.932460799999944, 35.7756592 ] } },
{ "type": "Feature", "properties": { "内容": "介護老人保健施設野田ライフケアセンター【短期入所療養介護（介護老人保健施設）】千葉県野田市野田８４０", "url2": "https://www.kaigokensaku.mhlw.go.jp/12/index.php?action_kouhyou_detail_004_kani=true&JigyosyoCd=1252080026-00&ServiceCd=220&Type=search" }, "geometry": { "type": "Point", "coordinates": [ 139.865850300000034, 35.9563642 ] } },
{ "type": "Feature", "properties": { "内容": "福聚苑老人保健施設【短期入所療養介護（介護老人保健施設）】千葉県野田市中戸20番地", "url2": "https://www.kaigokensaku.mhlw.go.jp/12/index.php?action_kouhyou_detail_004_kani=true&JigyosyoCd=1252280014-00&ServiceCd=220&Type=search" }, "geometry": { "type": "Point", "coordinates": [ 139.801927400000068, 36.0553465 ] } },
{ "type": "Feature", "properties": { "内容": "介護老人保健施設梅郷ナーシングセンター【短期入所療養介護（介護老人保健施設）】千葉県野田市山崎2785番地", "url2": "https://www.kaigokensaku.mhlw.go.jp/12/index.php?action_kouhyou_detail_004_kani=true&JigyosyoCd=1252080018-00&ServiceCd=220&Type=search" }, "geometry": { "type": "Point", "coordinates": [ 139.8935854, 35.9366774 ] } },
{ "type": "Feature", "properties": { "内容": "介護老人保健施設葵の園・野田【短期入所療養介護（介護老人保健施設）】千葉県野田市中里1389番地", "url2": "https://www.kaigokensaku.mhlw.go.jp/12/index.php?action_kouhyou_detail_004_kani=true&JigyosyoCd=1252080034-00&ServiceCd=220&Type=search" }, "geometry": { "type": "Point", "coordinates": [ 139.851217, 35.9966235 ] } },
{ "type": "Feature", "properties": { "内容": "介護老人保健施設つくも苑【短期入所療養介護（介護老人保健施設）】千葉県茂原市六ツ野１８４１番地", "url2": "https://www.kaigokensaku.mhlw.go.jp/12/index.php?action_kouhyou_detail_004_kani=true&JigyosyoCd=1253180015-00&ServiceCd=220&Type=search" }, "geometry": { "type": "Point", "coordinates": [ 140.323873899999967, 35.4364993 ] } },
{ "type": "Feature", "properties": { "内容": "介護老人保健施設ケアセンターかずさ【短期入所療養介護（介護老人保健施設）】千葉県茂原市高師台三丁目３番地３", "url2": "https://www.kaigokensaku.mhlw.go.jp/12/index.php?action_kouhyou_detail_004_kani=true&JigyosyoCd=1253180023-00&ServiceCd=220&Type=search" }, "geometry": { "type": "Point", "coordinates": [ 140.288890199999969, 35.4377119 ] } },
{ "type": "Feature", "properties": { "内容": "介護老人保健施設エスポワール成田【短期入所療養介護（介護老人保健施設）】千葉県成田市宝田360-1", "url2": "https://www.kaigokensaku.mhlw.go.jp/12/index.php?action_kouhyou_detail_004_kani=true&JigyosyoCd=1254380036-00&ServiceCd=220&Type=search" }, "geometry": { "type": "Point", "coordinates": [ 140.310049613739011, 35.809476263875055 ] } },
{ "type": "Feature", "properties": { "内容": "介護老人保健施設セントアンナナーシングホーム【短期入所療養介護（介護老人保健施設）】千葉県成田市本三里塚２２６－１", "url2": "https://www.kaigokensaku.mhlw.go.jp/12/index.php?action_kouhyou_detail_004_kani=true&JigyosyoCd=1254380028-00&ServiceCd=220&Type=search" }, "geometry": { "type": "Point", "coordinates": [ 140.363585599999965, 35.7502004 ] } },
{ "type": "Feature", "properties": { "内容": "国際医療福祉大学成田老年医療福祉センター介護老人保健施設オルタンシア【短期入所療養介護（介護老人保健施設）】千葉県成田市川栗746番地1", "url2": "https://www.kaigokensaku.mhlw.go.jp/12/index.php?action_kouhyou_detail_004_kani=true&JigyosyoCd=1254380049-00&ServiceCd=220&Type=search" }, "geometry": { "type": "Point", "coordinates": [ 140.3391523, 35.7651153 ] } },
{ "type": "Feature", "properties": { "内容": "介護老人保健施設透光苑【短期入所療養介護（介護老人保健施設）】千葉県成田市桜田１１３７", "url2": "https://www.kaigokensaku.mhlw.go.jp/12/index.php?action_kouhyou_detail_004_kani=true&JigyosyoCd=1253080025-00&ServiceCd=220&Type=search" }, "geometry": { "type": "Point", "coordinates": [ 140.459409300000061, 35.8432219 ] } },
{ "type": "Feature", "properties": { "内容": "介護老人保健施設百寿園【短期入所療養介護（介護老人保健施設）】千葉県成田市押畑８９６番地", "url2": "https://www.kaigokensaku.mhlw.go.jp/12/index.php?action_kouhyou_detail_004_kani=true&JigyosyoCd=1254380010-00&ServiceCd=220&Type=search" }, "geometry": { "type": "Point", "coordinates": [ 140.3094754, 35.8023292 ] } },
{ "type": "Feature", "properties": { "内容": "介護老人保健施設ユーカリ優都苑【短期入所療養介護（介護老人保健施設）】千葉県佐倉市青菅1010番地15", "url2": "https://www.kaigokensaku.mhlw.go.jp/12/index.php?action_kouhyou_detail_004_kani=true&JigyosyoCd=1254280046-00&ServiceCd=220&Type=search" }, "geometry": { "type": "Point", "coordinates": [ 140.1415991, 35.7445451 ] } },
{ "type": "Feature", "properties": { "内容": "介護老人保健施設葵の園・佐倉【短期入所療養介護（介護老人保健施設）】千葉県佐倉市城字松ヶ丘188-335", "url2": "https://www.kaigokensaku.mhlw.go.jp/12/index.php?action_kouhyou_detail_004_kani=true&JigyosyoCd=1254280061-00&ServiceCd=220&Type=search" }, "geometry": { "type": "Point", "coordinates": [ 140.233046890074093, 35.689091551310035 ] } },
{ "type": "Feature", "properties": { "内容": "介護老人保健施設葵の園・佐倉【ユニット】【短期入所療養介護（介護老人保健施設）】千葉県佐倉市城字松が丘188-335", "url2": "https://www.kaigokensaku.mhlw.go.jp/12/index.php?action_kouhyou_detail_004_kani=true&JigyosyoCd=1254280079-00&ServiceCd=220&Type=search" }, "geometry": { "type": "Point", "coordinates": [ 140.233062983328182, 35.689113336063691 ] } },
{ "type": "Feature", "properties": { "内容": "介護老人保健施設エスポワール佐倉【短期入所療養介護（介護老人保健施設）】千葉県佐倉市上志津1316-1", "url2": "https://www.kaigokensaku.mhlw.go.jp/12/index.php?action_kouhyou_detail_004_kani=true&JigyosyoCd=1254280090-00&ServiceCd=220&Type=search" }, "geometry": { "type": "Point", "coordinates": [ 140.1468918, 35.7082506 ] } },
{ "type": "Feature", "properties": { "内容": "介護老人保健施設佐倉ホワイエ【短期入所療養介護（介護老人保健施設）】千葉県佐倉市鏑木町336", "url2": "https://www.kaigokensaku.mhlw.go.jp/12/index.php?action_kouhyou_detail_004_kani=true&JigyosyoCd=1254280012-00&ServiceCd=220&Type=search" }, "geometry": { "type": "Point", "coordinates": [ 140.235177099999987, 35.7149041 ] } },
{ "type": "Feature", "properties": { "内容": "介護老人保健施設あさいケアセンター【短期入所療養介護（介護老人保健施設）】千葉県東金市家徳157-1", "url2": "https://www.kaigokensaku.mhlw.go.jp/12/index.php?action_kouhyou_detail_004_kani=true&JigyosyoCd=1250880013-00&ServiceCd=220&Type=search" }, "geometry": { "type": "Point", "coordinates": [ 140.395722500000034, 35.5463378 ] } },
{ "type": "Feature", "properties": { "内容": "介護老人保健施設すこやか・リハビリケアセンター【短期入所療養介護（介護老人保健施設）】千葉県旭市ロの８１８－３", "url2": "https://www.kaigokensaku.mhlw.go.jp/12/index.php?action_kouhyou_detail_004_kani=true&JigyosyoCd=1251480029-00&ServiceCd=220&Type=search" }, "geometry": { "type": "Point", "coordinates": [ 140.654024199999981, 35.7177288 ] } },
{ "type": "Feature", "properties": { "内容": "介護老人保健施設シルバーケアセンター【短期入所療養介護（介護老人保健施設）】千葉県旭市イ1307番地", "url2": "https://www.kaigokensaku.mhlw.go.jp/12/index.php?action_kouhyou_detail_004_kani=true&JigyosyoCd=1251480037-00&ServiceCd=220&Type=search" }, "geometry": { "type": "Point", "coordinates": [ 140.6646316, 35.716568 ] } },
{ "type": "Feature", "properties": { "内容": "医療法人社団愛友会介護老人保健施設ケアセンター習志野【短期入所療養介護（介護老人保健施設）】千葉県習志野市秋津3-5-2", "url2": "https://www.kaigokensaku.mhlw.go.jp/12/index.php?action_kouhyou_detail_004_kani=true&JigyosyoCd=1250280016-00&ServiceCd=220&Type=search" }, "geometry": { "type": "Point", "coordinates": [ 140.017968500000052, 35.6690449 ] } },
{ "type": "Feature", "properties": { "内容": "医療法人社団愛友会サテライト型小規模介護老人保健施設あっとほーむ習志野【短期入所療養介護（介護老人保健施設）】千葉県習志野市大久保4-2-11", "url2": "https://www.kaigokensaku.mhlw.go.jp/12/index.php?action_kouhyou_detail_004_kani=true&JigyosyoCd=1250280024-00&ServiceCd=220&Type=search" }, "geometry": { "type": "Point", "coordinates": [ 140.052381200000013, 35.6909251 ] } },
{ "type": "Feature", "properties": { "内容": "介護老人保健施設ケアホーム初石【短期入所療養介護（介護老人保健施設）】千葉県柏市西原7-6-3", "url2": "https://www.kaigokensaku.mhlw.go.jp/12/index.php?action_kouhyou_detail_004_kani=true&JigyosyoCd=1252180073-00&ServiceCd=220&Type=search" }, "geometry": { "type": "Point", "coordinates": [ 139.928704, 35.888526800000015 ] } },
{ "type": "Feature", "properties": { "内容": "介護老人保健施設回生の里【短期入所療養介護（介護老人保健施設）】千葉県柏市名戸ケ谷９２９－１", "url2": "https://www.kaigokensaku.mhlw.go.jp/12/index.php?action_kouhyou_detail_004_kani=true&JigyosyoCd=1252180057-00&ServiceCd=220&Type=search" }, "geometry": { "type": "Point", "coordinates": [ 139.981139, 35.8456743 ] } },
{ "type": "Feature", "properties": { "内容": "柏市立介護老人保健施設はみんぐ【短期入所療養介護（介護老人保健施設）】千葉県柏市布施1番地３", "url2": "https://www.kaigokensaku.mhlw.go.jp/12/index.php?action_kouhyou_detail_004_kani=true&JigyosyoCd=1252180024-00&ServiceCd=220&Type=search" }, "geometry": { "type": "Point", "coordinates": [ 139.9819324, 35.8928588 ] } },
{ "type": "Feature", "properties": { "内容": "介護老人保健施設葵の園・柏【短期入所療養介護（介護老人保健施設）】千葉県柏市松ヶ崎897-1", "url2": "https://www.kaigokensaku.mhlw.go.jp/12/index.php?action_kouhyou_detail_004_kani=true&JigyosyoCd=1252180065-00&ServiceCd=220&Type=search" }, "geometry": { "type": "Point", "coordinates": [ 139.974991899999964, 35.8764305 ] } },
{ "type": "Feature", "properties": { "内容": "介護老人保健施設葵の園・沼南【短期入所療養介護（介護老人保健施設）】千葉県柏市箕輪532-1", "url2": "https://www.kaigokensaku.mhlw.go.jp/12/index.php?action_kouhyou_detail_004_kani=true&JigyosyoCd=1252280022-00&ServiceCd=220&Type=search" }, "geometry": { "type": "Point", "coordinates": [ 140.021840200000042, 35.8561595 ] } },
{ "type": "Feature", "properties": { "内容": "介護老人保健施設さかき光陽【短期入所療養介護（介護老人保健施設）】千葉県柏市酒井根４０番地の1", "url2": "https://www.kaigokensaku.mhlw.go.jp/12/index.php?action_kouhyou_detail_004_kani=true&JigyosyoCd=1252180016-00&ServiceCd=220&Type=search" }, "geometry": { "type": "Point", "coordinates": [ 139.961334099999931, 35.820175 ] } },
{ "type": "Feature", "properties": { "内容": "介護老人保健施設　葵の園・柏たなか【短期入所療養介護（介護老人保健施設）】千葉県柏市小青田一丁目3番地3", "url2": "https://www.kaigokensaku.mhlw.go.jp/12/index.php?action_kouhyou_detail_004_kani=true&JigyosyoCd=1252180081-00&ServiceCd=220&Type=search" }, "geometry": { "type": "Point", "coordinates": [ 139.955899899999963, 35.9151161 ] } },
{ "type": "Feature", "properties": { "内容": "介護老人保健施設蒼生の杜【短期入所療養介護（介護老人保健施設）】千葉県柏市逆井４３７－２８", "url2": "https://www.kaigokensaku.mhlw.go.jp/12/index.php?action_kouhyou_detail_004_kani=true&JigyosyoCd=1252180040-00&ServiceCd=220&Type=search" }, "geometry": { "type": "Point", "coordinates": [ 139.979265700000042, 35.8136929 ] } },
{ "type": "Feature", "properties": { "内容": "介護老人保健施設北柏ナーシングケアセンター【短期入所療養介護（介護老人保健施設）】千葉県柏市柏下265", "url2": "https://www.kaigokensaku.mhlw.go.jp/12/index.php?action_kouhyou_detail_004_kani=true&JigyosyoCd=1252180032-00&ServiceCd=220&Type=search" }, "geometry": { "type": "Point", "coordinates": [ 139.9825664, 35.8719675 ] } },
{ "type": "Feature", "properties": { "内容": "介護老人保健施設　やすらぎの郷【短期入所療養介護（介護老人保健施設）】千葉県勝浦市芳賀441-1", "url2": "https://www.kaigokensaku.mhlw.go.jp/12/index.php?action_kouhyou_detail_004_kani=true&JigyosyoCd=1253880010-00&ServiceCd=220&Type=search" }, "geometry": { "type": "Point", "coordinates": [ 140.29055029999995, 35.1988797 ] } },
{ "type": "Feature", "properties": { "内容": "介護老人保健施設クレイン【短期入所療養介護（介護老人保健施設）】千葉県市原市石川１０７８", "url2": "https://www.kaigokensaku.mhlw.go.jp/12/index.php?action_kouhyou_detail_004_kani=true&JigyosyoCd=1250680111-00&ServiceCd=220&Type=search" }, "geometry": { "type": "Point", "coordinates": [ 140.183762699999988, 35.3863297 ] } },
{ "type": "Feature", "properties": { "内容": "介護老人保健施設　なんな苑【短期入所療養介護（介護老人保健施設）】千葉県市原市中高根1341-1", "url2": "https://www.kaigokensaku.mhlw.go.jp/12/index.php?action_kouhyou_detail_004_kani=true&JigyosyoCd=1250680041-00&ServiceCd=220&Type=search" }, "geometry": { "type": "Point", "coordinates": [ 140.0939976, 35.4316525 ] } },
{ "type": "Feature", "properties": { "内容": "介護老人保健施設　しらつか【短期入所療養介護（介護老人保健施設）】千葉県市原市白塚567番地", "url2": "https://www.kaigokensaku.mhlw.go.jp/12/index.php?action_kouhyou_detail_004_kani=true&JigyosyoCd=1250680129-00&ServiceCd=220&Type=search" }, "geometry": { "type": "Point", "coordinates": [ 140.0636977, 35.4880927 ] } },
{ "type": "Feature", "properties": { "内容": "介護老人保健施設アーネスト【短期入所療養介護（介護老人保健施設）】千葉県市原市五井１８４６－１", "url2": "https://www.kaigokensaku.mhlw.go.jp/12/index.php?action_kouhyou_detail_004_kani=true&JigyosyoCd=1250680082-00&ServiceCd=220&Type=search" }, "geometry": { "type": "Point", "coordinates": [ 140.081186900000034, 35.5093047 ] } },
{ "type": "Feature", "properties": { "内容": "介護老人保健施設　ユー・アイ久楽部【短期入所療養介護（介護老人保健施設）】千葉県市原市西広131", "url2": "https://www.kaigokensaku.mhlw.go.jp/12/index.php?action_kouhyou_detail_004_kani=true&JigyosyoCd=1250680066-00&ServiceCd=220&Type=search" }, "geometry": { "type": "Point", "coordinates": [ 140.121792, 35.4869475 ] } },
{ "type": "Feature", "properties": { "内容": "介護老人保健施設リハパークきくま【短期入所療養介護（介護老人保健施設）】千葉県市原市菊間1136-6", "url2": "https://www.kaigokensaku.mhlw.go.jp/12/index.php?action_kouhyou_detail_004_kani=true&JigyosyoCd=1250680090-00&ServiceCd=220&Type=search" }, "geometry": { "type": "Point", "coordinates": [ 140.149893900000052, 35.5382608 ] } },
{ "type": "Feature", "properties": { "内容": "介護老人保健施設辰巳ナーシング・ヴィラ【短期入所療養介護（介護老人保健施設）】千葉県市原市辰巳台東５－５－１", "url2": "https://www.kaigokensaku.mhlw.go.jp/12/index.php?action_kouhyou_detail_004_kani=true&JigyosyoCd=1250680025-00&ServiceCd=220&Type=search" }, "geometry": { "type": "Point", "coordinates": [ 140.1504344, 35.5089615 ] } },
{ "type": "Feature", "properties": { "内容": "介護老人保健施設メディケア51【短期入所療養介護（介護老人保健施設）】千葉県市原市町田176", "url2": "https://www.kaigokensaku.mhlw.go.jp/12/index.php?action_kouhyou_detail_004_kani=true&JigyosyoCd=1250680108-00&ServiceCd=220&Type=search" }, "geometry": { "type": "Point", "coordinates": [ 140.08125078636931, 35.486041883543102 ] } },
{ "type": "Feature", "properties": { "内容": "介護老人保健施設梅香苑【短期入所療養介護（介護老人保健施設）】千葉県市原市馬立802-1", "url2": "https://www.kaigokensaku.mhlw.go.jp/12/index.php?action_kouhyou_detail_004_kani=true&JigyosyoCd=1250680074-00&ServiceCd=220&Type=search" }, "geometry": { "type": "Point", "coordinates": [ 140.115879899999982, 35.4229344 ] } },
{ "type": "Feature", "properties": { "内容": "介護老人保健施設杏の里【短期入所療養介護（介護老人保健施設）】千葉県市原市能満１７７４－１", "url2": "https://www.kaigokensaku.mhlw.go.jp/12/index.php?action_kouhyou_detail_004_kani=true&JigyosyoCd=1250680033-00&ServiceCd=220&Type=search" }, "geometry": { "type": "Point", "coordinates": [ 140.142665500000021, 35.5080839 ] } },
{ "type": "Feature", "properties": { "内容": "介護老人保健施設ナーシングプラザ流山【短期入所療養介護（介護老人保健施設）】千葉県流山市前ヶ崎248-1", "url2": "https://www.kaigokensaku.mhlw.go.jp/12/index.php?action_kouhyou_detail_004_kani=true&JigyosyoCd=1252380012-00&ServiceCd=220&Type=search" }, "geometry": { "type": "Point", "coordinates": [ 139.929949599999986, 35.8498611 ] } },
{ "type": "Feature", "properties": { "内容": "介護老人保健施設ハートケア流山【短期入所療養介護（介護老人保健施設）】千葉県流山市小屋１４６－１", "url2": "https://www.kaigokensaku.mhlw.go.jp/12/index.php?action_kouhyou_detail_004_kani=true&JigyosyoCd=1252380020-00&ServiceCd=220&Type=search" }, "geometry": { "type": "Point", "coordinates": [ 139.896387399999981, 35.8939616 ] } },
{ "type": "Feature", "properties": { "内容": "介護老人保健施設荒井記念ホーム【短期入所療養介護（介護老人保健施設）】千葉県八千代市米本1523", "url2": "https://www.kaigokensaku.mhlw.go.jp/12/index.php?action_kouhyou_detail_004_kani=true&JigyosyoCd=1250480041-00&ServiceCd=220&Type=search" }, "geometry": { "type": "Point", "coordinates": [ 140.1103898, 35.750215 ] } },
{ "type": "Feature", "properties": { "内容": "介護老人保健施設ばらの里【短期入所療養介護（介護老人保健施設）】千葉県八千代市島田台字大東台764-2", "url2": "https://www.kaigokensaku.mhlw.go.jp/12/index.php?action_kouhyou_detail_004_kani=true&JigyosyoCd=1250480038-00&ServiceCd=220&Type=search" }, "geometry": { "type": "Point", "coordinates": [ 140.087998199999987, 35.7590346 ] } },
{ "type": "Feature", "properties": { "内容": "八千代ケアセンター【短期入所療養介護（介護老人保健施設）】千葉県八千代市島田55-1", "url2": "https://www.kaigokensaku.mhlw.go.jp/12/index.php?action_kouhyou_detail_004_kani=true&JigyosyoCd=1250480020-00&ServiceCd=220&Type=search" }, "geometry": { "type": "Point", "coordinates": [ 140.093846799999938, 35.764551 ] } },
{ "type": "Feature", "properties": { "内容": "介護老人保健施設我孫子ロイヤルケアセンター【短期入所療養介護（介護老人保健施設）】千葉県我孫子市中峠2614", "url2": "https://www.kaigokensaku.mhlw.go.jp/12/index.php?action_kouhyou_detail_004_kani=true&JigyosyoCd=1252580017-00&ServiceCd=220&Type=search" }, "geometry": { "type": "Point", "coordinates": [ 140.090021500000034, 35.8800854 ] } },
{ "type": "Feature", "properties": { "内容": "介護老人保健施設　葵の園・我孫子西【短期入所療養介護（介護老人保健施設）】千葉県我孫子市柴崎188-1", "url2": "https://www.kaigokensaku.mhlw.go.jp/12/index.php?action_kouhyou_detail_004_kani=true&JigyosyoCd=1252580053-00&ServiceCd=220&Type=search" }, "geometry": { "type": "Point", "coordinates": [ 140.036264499999987, 35.8751894 ] } },
{ "type": "Feature", "properties": { "内容": "介護老人保健施設葵の園・我孫子【短期入所療養介護（介護老人保健施設）】千葉県我孫子市柴崎１３７番地の１", "url2": "https://www.kaigokensaku.mhlw.go.jp/12/index.php?action_kouhyou_detail_004_kani=true&JigyosyoCd=1252580041-00&ServiceCd=220&Type=search" }, "geometry": { "type": "Point", "coordinates": [ 140.036227100000019, 35.8747547 ] } },
{ "type": "Feature", "properties": { "内容": "介護老人保健施設クレオ【短期入所療養介護（介護老人保健施設）】千葉県我孫子市我孫子１８５５－４", "url2": "https://www.kaigokensaku.mhlw.go.jp/12/index.php?action_kouhyou_detail_004_kani=true&JigyosyoCd=1252580033-00&ServiceCd=220&Type=search" }, "geometry": { "type": "Point", "coordinates": [ 140.027961600000026, 35.8652197 ] } },
{ "type": "Feature", "properties": { "内容": "たいよう【短期入所療養介護（介護老人保健施設）】千葉県鴨川市西町1011番地1", "url2": "https://www.kaigokensaku.mhlw.go.jp/12/index.php?action_kouhyou_detail_004_kani=true&JigyosyoCd=1253980018-00&ServiceCd=220&Type=search" }, "geometry": { "type": "Point", "coordinates": [ 140.124675, 35.122618 ] } },
{ "type": "Feature", "properties": { "内容": "介護老人保健施設シルバーケア鎌ヶ谷【短期入所療養介護（介護老人保健施設）】千葉県鎌ケ谷市初富125番地の1", "url2": "https://www.kaigokensaku.mhlw.go.jp/12/index.php?action_kouhyou_detail_004_kani=true&JigyosyoCd=1252680036-00&ServiceCd=220&Type=search" }, "geometry": { "type": "Point", "coordinates": [ 139.987849700663759, 35.782784369637454 ] } },
{ "type": "Feature", "properties": { "内容": "介護老人保健施設しんかま【短期入所療養介護（介護老人保健施設）】千葉県鎌ケ谷市初富929-6鎌ケ谷総合病院内6階", "url2": "https://www.kaigokensaku.mhlw.go.jp/12/index.php?action_kouhyou_detail_004_kani=true&JigyosyoCd=1252680044-00&ServiceCd=220&Type=search" }, "geometry": { "type": "Point", "coordinates": [ 139.9965057, 35.7779067 ] } },
{ "type": "Feature", "properties": { "内容": "介護老人保健施設メディケアー君津【短期入所療養介護（介護老人保健施設）】千葉県君津市八幡62-1", "url2": "https://www.kaigokensaku.mhlw.go.jp/12/index.php?action_kouhyou_detail_004_kani=true&JigyosyoCd=1251180025-00&ServiceCd=220&Type=search" }, "geometry": { "type": "Point", "coordinates": [ 139.908209899999946, 35.320746 ] } },
{ "type": "Feature", "properties": { "内容": "介護老人保健施設ケアセンターさきくさ【短期入所療養介護（介護老人保健施設）】千葉県富津市青木1641", "url2": "https://www.kaigokensaku.mhlw.go.jp/12/index.php?action_kouhyou_detail_004_kani=true&JigyosyoCd=1251280015-00&ServiceCd=220&Type=search" }, "geometry": { "type": "Point", "coordinates": [ 139.849582, 35.3258227 ] } },
{ "type": "Feature", "properties": { "内容": "介護老人保健施設わかくさ【短期入所療養介護（介護老人保健施設）】千葉県富津市上335-1", "url2": "https://www.kaigokensaku.mhlw.go.jp/12/index.php?action_kouhyou_detail_004_kani=true&JigyosyoCd=1251280023-00&ServiceCd=220&Type=search" }, "geometry": { "type": "Point", "coordinates": [ 139.888348800000017, 35.287509 ] } },
{ "type": "Feature", "properties": { "内容": "介護老人保健施設浦安ベテルホーム【短期入所療養介護（介護老人保健施設）】千葉県浦安市高洲九丁目３番２号", "url2": "https://www.kaigokensaku.mhlw.go.jp/12/index.php?action_kouhyou_detail_004_kani=true&JigyosyoCd=1251980019-00&ServiceCd=220&Type=search" }, "geometry": { "type": "Point", "coordinates": [ 139.918790899999976, 35.6315822 ] } },
{ "type": "Feature", "properties": { "内容": "介護老人保健施設四街道徳洲苑【短期入所療養介護（介護老人保健施設）】千葉県四街道市吉岡1830-1", "url2": "https://www.kaigokensaku.mhlw.go.jp/12/index.php?action_kouhyou_detail_004_kani=true&JigyosyoCd=1254480047-00&ServiceCd=220&Type=search" }, "geometry": { "type": "Point", "coordinates": [ 140.187124899999986, 35.628457 ] } },
{ "type": "Feature", "properties": { "内容": "介護老人保健施設栗の郷【短期入所療養介護（介護老人保健施設）】千葉県四街道市栗山906-1", "url2": "https://www.kaigokensaku.mhlw.go.jp/12/index.php?action_kouhyou_detail_004_kani=true&JigyosyoCd=1254480026-00&ServiceCd=220&Type=search" }, "geometry": { "type": "Point", "coordinates": [ 140.176325499999962, 35.678348799999981 ] } },
{ "type": "Feature", "properties": { "内容": "介護老人保健施設のぞみ【短期入所療養介護（介護老人保健施設）】千葉県四街道市大日1685-10", "url2": "https://www.kaigokensaku.mhlw.go.jp/12/index.php?action_kouhyou_detail_004_kani=true&JigyosyoCd=1254480018-00&ServiceCd=220&Type=search" }, "geometry": { "type": "Point", "coordinates": [ 140.152706500000022, 35.679502800000016 ] } },
{ "type": "Feature", "properties": { "内容": "介護老人保健施設カトレアンホーム【短期入所療養介護（介護老人保健施設）】千葉県袖ヶ浦市蔵波２７１３番１", "url2": "https://www.kaigokensaku.mhlw.go.jp/12/index.php?action_kouhyou_detail_004_kani=true&JigyosyoCd=1250980029-00&ServiceCd=220&Type=search" }, "geometry": { "type": "Point", "coordinates": [ 139.989856599999939, 35.4387347 ] } },
{ "type": "Feature", "properties": { "内容": "介護老人保健施設メディケアーやまゆり【短期入所療養介護（介護老人保健施設）】千葉県袖ヶ浦市奈良輪７３０番地", "url2": "https://www.kaigokensaku.mhlw.go.jp/12/index.php?action_kouhyou_detail_004_kani=true&JigyosyoCd=1250980011-00&ServiceCd=220&Type=search" }, "geometry": { "type": "Point", "coordinates": [ 139.963170900000023, 35.4334992 ] } },
{ "type": "Feature", "properties": { "内容": "介護老人保健施設さんふらわ【短期入所療養介護（介護老人保健施設）】千葉県八街市八街ほ４５-１", "url2": "https://www.kaigokensaku.mhlw.go.jp/12/index.php?action_kouhyou_detail_004_kani=true&JigyosyoCd=1254580015-00&ServiceCd=220&Type=search" }, "geometry": { "type": "Point", "coordinates": [ 140.3162433, 35.6676001 ] } },
{ "type": "Feature", "properties": { "内容": "介護老人保健施設ヴィラ大森【短期入所療養介護（介護老人保健施設）】千葉県印西市大森２２１８－１", "url2": "https://www.kaigokensaku.mhlw.go.jp/12/index.php?action_kouhyou_detail_004_kani=true&JigyosyoCd=1254680013-00&ServiceCd=220&Type=search" }, "geometry": { "type": "Point", "coordinates": [ 140.149954100000059, 35.8267132 ] } },
{ "type": "Feature", "properties": { "内容": "介護老人保健施設アモールケア白井【短期入所療養介護（介護老人保健施設）】千葉県白井市復1448-30", "url2": "https://www.kaigokensaku.mhlw.go.jp/12/index.php?action_kouhyou_detail_004_kani=true&JigyosyoCd=1254780011-00&ServiceCd=220&Type=search" }, "geometry": { "type": "Point", "coordinates": [ 140.057127329885816, 35.793759253541317 ] } },
{ "type": "Feature", "properties": { "内容": "介護老人保健施設ケアホーム白井【短期入所療養介護（介護老人保健施設）】千葉県白井市中１７０", "url2": "https://www.kaigokensaku.mhlw.go.jp/12/index.php?action_kouhyou_detail_004_kani=true&JigyosyoCd=1254180022-00&ServiceCd=220&Type=search" }, "geometry": { "type": "Point", "coordinates": [ 140.044808500000045, 35.8176015 ] } },
{ "type": "Feature", "properties": { "内容": "介護老人保健施設龍岡ケアセンター【短期入所療養介護（介護老人保健施設）】千葉県富里市七栄653-73", "url2": "https://www.kaigokensaku.mhlw.go.jp/12/index.php?action_kouhyou_detail_004_kani=true&JigyosyoCd=1254180048-00&ServiceCd=220&Type=search" }, "geometry": { "type": "Point", "coordinates": [ 140.336122700000033, 35.7257167 ] } },
{ "type": "Feature", "properties": { "内容": "介護老人保健施設成田富里徳洲苑【短期入所療養介護（介護老人保健施設）】千葉県富里市日吉台1-1-1", "url2": "https://www.kaigokensaku.mhlw.go.jp/12/index.php?action_kouhyou_detail_004_kani=true&JigyosyoCd=1254880019-00&ServiceCd=220&Type=search" }, "geometry": { "type": "Point", "coordinates": [ 140.321380299999987, 35.7754105 ] } },
{ "type": "Feature", "properties": { "内容": "医療法人光洋会　介護老人保健施設光栄館【短期入所療養介護（介護老人保健施設）】千葉県南房総市谷向166-1", "url2": "https://www.kaigokensaku.mhlw.go.jp/12/index.php?action_kouhyou_detail_004_kani=true&JigyosyoCd=1253580016-00&ServiceCd=220&Type=search" }, "geometry": { "type": "Point", "coordinates": [ 139.893876200000022, 35.0259102 ] } },
{ "type": "Feature", "properties": { "内容": "介護老人保健施設晴耕苑【短期入所療養介護（介護老人保健施設）】千葉県南房総市千倉町忽戸６９２－１", "url2": "https://www.kaigokensaku.mhlw.go.jp/12/index.php?action_kouhyou_detail_004_kani=true&JigyosyoCd=1253580032-00&ServiceCd=220&Type=search" }, "geometry": { "type": "Point", "coordinates": [ 139.960572, 34.9448854 ] } },
{ "type": "Feature", "properties": { "内容": "介護老人保健施設葵の園・南房総【短期入所療養介護（介護老人保健施設）】千葉県南房総市久枝1140", "url2": "https://www.kaigokensaku.mhlw.go.jp/12/index.php?action_kouhyou_detail_004_kani=true&JigyosyoCd=1255180013-00&ServiceCd=220&Type=search" }, "geometry": { "type": "Point", "coordinates": [ 139.8396109, 35.0983567 ] } },
{ "type": "Feature", "properties": { "内容": "サテライト型小規模介護老人保健施設葵の園･岩井海岸【短期入所療養介護（介護老人保健施設）】千葉県南房総市久枝1143", "url2": "https://www.kaigokensaku.mhlw.go.jp/12/index.php?action_kouhyou_detail_004_kani=true&JigyosyoCd=1255180021-00&ServiceCd=220&Type=search" }, "geometry": { "type": "Point", "coordinates": [ 139.839051299999937, 35.0986664 ] } },
{ "type": "Feature", "properties": { "内容": "匝瑳市介護老人保健施設そうさぬくもりの郷【短期入所療養介護（介護老人保健施設）】千葉県匝瑳市中台305番地", "url2": "https://www.kaigokensaku.mhlw.go.jp/12/index.php?action_kouhyou_detail_004_kani=true&JigyosyoCd=1251680024-00&ServiceCd=220&Type=search" }, "geometry": { "type": "Point", "coordinates": [ 140.53547530000003, 35.7082469 ] } },
{ "type": "Feature", "properties": { "内容": "介護老人保健施設　ミス・ヘンテ記念ケアセンター【短期入所療養介護（介護老人保健施設）】千葉県匝瑳市飯倉２０", "url2": "https://www.kaigokensaku.mhlw.go.jp/12/index.php?action_kouhyou_detail_004_kani=true&JigyosyoCd=1251680016-00&ServiceCd=220&Type=search" }, "geometry": { "type": "Point", "coordinates": [ 140.524127600000043, 35.687155 ] } },
{ "type": "Feature", "properties": { "内容": "介護老人保健施設おおくすの郷【短期入所療養介護（介護老人保健施設）】千葉県香取市府馬３７２３番地", "url2": "https://www.kaigokensaku.mhlw.go.jp/12/index.php?action_kouhyou_detail_004_kani=true&JigyosyoCd=1253080041-00&ServiceCd=220&Type=search" }, "geometry": { "type": "Point", "coordinates": [ 140.6045686, 35.7860387 ] } },
{ "type": "Feature", "properties": { "内容": "介護老人保健施設おみがわ【短期入所療養介護（介護老人保健施設）】千葉県香取市小見川4662番地2", "url2": "https://www.kaigokensaku.mhlw.go.jp/12/index.php?action_kouhyou_detail_004_kani=true&JigyosyoCd=1253080033-00&ServiceCd=220&Type=search" }, "geometry": { "type": "Point", "coordinates": [ 140.585308700000041, 35.8540005 ] } },
{ "type": "Feature", "properties": { "内容": "介護老人保健施設夢プラスワン【短期入所療養介護（介護老人保健施設）】千葉県香取市大倉字入り1196-1", "url2": "https://www.kaigokensaku.mhlw.go.jp/12/index.php?action_kouhyou_detail_004_kani=true&JigyosyoCd=1252980019-00&ServiceCd=220&Type=search" }, "geometry": { "type": "Point", "coordinates": [ 140.557573201760874, 35.888569494457549 ] } },
{ "type": "Feature", "properties": { "内容": "介護老人保健施設松尾リハビリ苑【短期入所療養介護（介護老人保健施設）】千葉県山武市松尾町田越７５６番地の５", "url2": "https://www.kaigokensaku.mhlw.go.jp/12/index.php?action_kouhyou_detail_004_kani=true&JigyosyoCd=1250780015-00&ServiceCd=220&Type=search" }, "geometry": { "type": "Point", "coordinates": [ 140.444602300000042, 35.629865 ] } },
{ "type": "Feature", "properties": { "内容": "介護老人保健施設日向の里【短期入所療養介護（介護老人保健施設）】千葉県山武市木原２１００", "url2": "https://www.kaigokensaku.mhlw.go.jp/12/index.php?action_kouhyou_detail_004_kani=true&JigyosyoCd=1255380019-00&ServiceCd=220&Type=search" }, "geometry": { "type": "Point", "coordinates": [ 140.349286799999959, 35.634057 ] } },
{ "type": "Feature", "properties": { "内容": "介護老人保健施設ハートビレッジ【短期入所療養介護（介護老人保健施設）】千葉県山武市蓮沼ニ5035-4", "url2": "https://www.kaigokensaku.mhlw.go.jp/12/index.php?action_kouhyou_detail_004_kani=true&JigyosyoCd=1250780023-00&ServiceCd=220&Type=search" }, "geometry": { "type": "Point", "coordinates": [ 140.4828675, 35.5949479 ] } },
{ "type": "Feature", "properties": { "内容": "介護老人保健施設エスポワール岬【短期入所療養介護（介護老人保健施設）】千葉県いすみ市岬町和泉字苅込台３３０－１", "url2": "https://www.kaigokensaku.mhlw.go.jp/12/index.php?action_kouhyou_detail_004_kani=true&JigyosyoCd=1253780020-00&ServiceCd=220&Type=search" }, "geometry": { "type": "Point", "coordinates": [ 140.403098199999931, 35.323708 ] } },
{ "type": "Feature", "properties": { "内容": "介護老人保健施設　エスポワール大原【短期入所療養介護（介護老人保健施設）】千葉県いすみ市日在2623", "url2": "https://www.kaigokensaku.mhlw.go.jp/12/index.php?action_kouhyou_detail_004_kani=true&JigyosyoCd=1254980033-00&ServiceCd=220&Type=search" }, "geometry": { "type": "Point", "coordinates": [ 140.388109100000065, 35.2759806 ] } },
{ "type": "Feature", "properties": { "内容": "介護老人保健施設シルバーハピネス【短期入所療養介護（介護老人保健施設）】千葉県いすみ市苅谷１１７７番地", "url2": "https://www.kaigokensaku.mhlw.go.jp/12/index.php?action_kouhyou_detail_004_kani=true&JigyosyoCd=1253780012-00&ServiceCd=220&Type=search" }, "geometry": { "type": "Point", "coordinates": [ 140.315165799999932, 35.284788200000015 ] } },
{ "type": "Feature", "properties": { "内容": "介護老人保健施設杜の街【短期入所療養介護（介護老人保健施設）】千葉県大網白里市南飯塚404-4", "url2": "https://www.kaigokensaku.mhlw.go.jp/12/index.php?action_kouhyou_detail_004_kani=true&JigyosyoCd=1250780031-00&ServiceCd=220&Type=search" }, "geometry": { "type": "Point", "coordinates": [ 140.346480299999939, 35.5030612 ] } },
{ "type": "Feature", "properties": { "内容": "介護老人保健施設さかえケアセンター【短期入所療養介護（介護老人保健施設）】千葉県印旛郡栄町安食２４２１", "url2": "https://www.kaigokensaku.mhlw.go.jp/12/index.php?action_kouhyou_detail_004_kani=true&JigyosyoCd=1254180030-00&ServiceCd=220&Type=search" }, "geometry": { "type": "Point", "coordinates": [ 140.24975138783563, 35.835044253470244 ] } },
{ "type": "Feature", "properties": { "内容": "介護老人保健施設深深【短期入所療養介護（介護老人保健施設）】千葉県香取郡東庄町羽計2181", "url2": "https://www.kaigokensaku.mhlw.go.jp/12/index.php?action_kouhyou_detail_004_kani=true&JigyosyoCd=1253080017-00&ServiceCd=220&Type=search" }, "geometry": { "type": "Point", "coordinates": [ 140.6891764, 35.8239382 ] } },
{ "type": "Feature", "properties": { "内容": "介護老人保健施設二川苑【短期入所療養介護（介護老人保健施設）】千葉県山武郡芝山町山中678", "url2": "https://www.kaigokensaku.mhlw.go.jp/12/index.php?action_kouhyou_detail_004_kani=true&JigyosyoCd=1250780049-00&ServiceCd=220&Type=search" }, "geometry": { "type": "Point", "coordinates": [ 140.434410500000013, 35.6959755 ] } },
{ "type": "Feature", "properties": { "内容": "介護老人保健施設睦沢の里【短期入所療養介護（介護老人保健施設）】千葉県長生郡睦沢町大上1150番地", "url2": "https://www.kaigokensaku.mhlw.go.jp/12/index.php?action_kouhyou_detail_004_kani=true&JigyosyoCd=1253280021-00&ServiceCd=220&Type=search" }, "geometry": { "type": "Point", "coordinates": [ 140.294092399999954, 35.3348848 ] } },
{ "type": "Feature", "properties": { "内容": "介護老人保健施設長柄ケアセンター【短期入所療養介護（介護老人保健施設）】千葉県長生郡長柄町立鳥597-2", "url2": "https://www.kaigokensaku.mhlw.go.jp/12/index.php?action_kouhyou_detail_004_kani=true&JigyosyoCd=1253280013-00&ServiceCd=220&Type=search" }, "geometry": { "type": "Point", "coordinates": [ 140.2187457, 35.4327941 ] } },
{ "type": "Feature", "properties": { "内容": "医療法人白百合会介護老人保健施設しらゆり【短期入所療養介護（介護老人保健施設）】千葉県夷隅郡大多喜町上原786番地", "url2": "https://www.kaigokensaku.mhlw.go.jp/12/index.php?action_kouhyou_detail_004_kani=true&JigyosyoCd=1253780046-00&ServiceCd=220&Type=search" }, "geometry": { "type": "Point", "coordinates": [ 140.241895099999965, 35.2758731 ] } }
]
}
