{
"type": "FeatureCollection",
"name": "geo_12_短期入所療養介護（介護医療院）",
"crs": { "type": "name", "properties": { "name": "urn:ogc:def:crs:OGC:1.3:CRS84" } },
"features": [
{ "type": "Feature", "properties": { "内容": "介護医療院なごみかん【短期入所療養介護（介護医療院）】千葉県千葉市中央区道場南1丁目12番7号", "url2": "https://www.kaigokensaku.mhlw.go.jp/12/index.php?action_kouhyou_detail_004_kani=true&JigyosyoCd=12B0100026-00&ServiceCd=551&Type=search" }, "geometry": { "type": "Point", "coordinates": [ 140.130262, 35.6124926 ] } },
{ "type": "Feature", "properties": { "内容": "うらら介護医療院【短期入所療養介護（介護医療院）】千葉県千葉市中央区千葉寺町188", "url2": "https://www.kaigokensaku.mhlw.go.jp/12/index.php?action_kouhyou_detail_004_kani=true&JigyosyoCd=12B0100034-00&ServiceCd=551&Type=search" }, "geometry": { "type": "Point", "coordinates": [ 140.1297242, 35.5949492 ] } },
{ "type": "Feature", "properties": { "内容": "タムス介護医療院花見川【短期入所療養介護（介護医療院）】千葉県千葉市花見川区柏井町1132-1", "url2": "https://www.kaigokensaku.mhlw.go.jp/12/index.php?action_kouhyou_detail_004_kani=true&JigyosyoCd=12B0100067-00&ServiceCd=551&Type=search" }, "geometry": { "type": "Point", "coordinates": [ 140.1039844, 35.6987756 ] } },
{ "type": "Feature", "properties": { "内容": "総泉病院介護医療院【短期入所療養介護（介護医療院）】千葉県千葉市若葉区更科町2592", "url2": "https://www.kaigokensaku.mhlw.go.jp/12/index.php?action_kouhyou_detail_004_kani=true&JigyosyoCd=12B0100018-00&ServiceCd=551&Type=search" }, "geometry": { "type": "Point", "coordinates": [ 140.21828450000001, 35.6209983 ] } },
{ "type": "Feature", "properties": { "内容": "介護医療院秀眉園【短期入所療養介護（介護医療院）】千葉県千葉市若葉区加曽利町1803-1", "url2": "https://www.kaigokensaku.mhlw.go.jp/12/index.php?action_kouhyou_detail_004_kani=true&JigyosyoCd=12B0100042-00&ServiceCd=551&Type=search" }, "geometry": { "type": "Point", "coordinates": [ 140.170586100000037, 35.6179315 ] } },
{ "type": "Feature", "properties": { "内容": "医療法人友康会　行徳中央介護医療院【短期入所療養介護（介護医療院）】千葉県市川市日之出17-16", "url2": "https://www.kaigokensaku.mhlw.go.jp/12/index.php?action_kouhyou_detail_004_kani=true&JigyosyoCd=12B2700070-00&ServiceCd=551&Type=search" }, "geometry": { "type": "Point", "coordinates": [ 139.9212789, 35.6768218 ] } },
{ "type": "Feature", "properties": { "内容": "介護医療院　みさきの郷【短期入所療養介護（介護医療院）】千葉県船橋市三咲4-23-15", "url2": "https://www.kaigokensaku.mhlw.go.jp/12/index.php?action_kouhyou_detail_004_kani=true&JigyosyoCd=12B2800011-00&ServiceCd=551&Type=search" }, "geometry": { "type": "Point", "coordinates": [ 140.0367343, 35.7503501 ] } },
{ "type": "Feature", "properties": { "内容": "小林病院介護医療院【短期入所療養介護（介護医療院）】千葉県館山市船形９０９番地", "url2": "https://www.kaigokensaku.mhlw.go.jp/12/index.php?action_kouhyou_detail_004_kani=true&JigyosyoCd=12B3600063-00&ServiceCd=551&Type=search" }, "geometry": { "type": "Point", "coordinates": [ 139.8440036, 35.0283209 ] } },
{ "type": "Feature", "properties": { "内容": "介護医療院あきやまの郷【短期入所療養介護（介護医療院）】千葉県松戸市高塚新田484-1", "url2": "https://www.kaigokensaku.mhlw.go.jp/12/index.php?action_kouhyou_detail_004_kani=true&JigyosyoCd=12B2400093-00&ServiceCd=551&Type=search" }, "geometry": { "type": "Point", "coordinates": [ 139.933048, 35.7612942 ] } },
{ "type": "Feature", "properties": { "内容": "医療法人社団博恵会介護医療院柏南【短期入所療養介護（介護医療院）】千葉県柏市逆井１１４４", "url2": "https://www.kaigokensaku.mhlw.go.jp/12/index.php?action_kouhyou_detail_004_kani=true&JigyosyoCd=12B2100014-00&ServiceCd=551&Type=search" }, "geometry": { "type": "Point", "coordinates": [ 139.979677400000014, 35.8168073 ] } },
{ "type": "Feature", "properties": { "内容": "エビハラ介護医療院【短期入所療養介護（介護医療院）】千葉県鴨川市太海630番地10", "url2": "https://www.kaigokensaku.mhlw.go.jp/12/index.php?action_kouhyou_detail_004_kani=true&JigyosyoCd=12B3900026-00&ServiceCd=551&Type=search" }, "geometry": { "type": "Point", "coordinates": [ 140.0910754, 35.0914651 ] } },
{ "type": "Feature", "properties": { "内容": "東条病院介護医療院【短期入所療養介護（介護医療院）】千葉県鴨川市広場1615", "url2": "https://www.kaigokensaku.mhlw.go.jp/12/index.php?action_kouhyou_detail_004_kani=true&JigyosyoCd=12B3900083-00&ServiceCd=551&Type=search" }, "geometry": { "type": "Point", "coordinates": [ 140.108703600000013, 35.1214633 ] } },
{ "type": "Feature", "properties": { "内容": "小田介護医療院【短期入所療養介護（介護医療院）】千葉県鴨川市横渚880", "url2": "https://www.kaigokensaku.mhlw.go.jp/12/index.php?action_kouhyou_detail_004_kani=true&JigyosyoCd=12B3900034-00&ServiceCd=551&Type=search" }, "geometry": { "type": "Point", "coordinates": [ 140.1048683, 35.1061858 ] } },
{ "type": "Feature", "properties": { "内容": "医療法人社団一心会　初富保健病院介護医療院【短期入所療養介護（介護医療院）】千葉県鎌ヶ谷市初富114番地", "url2": "https://www.kaigokensaku.mhlw.go.jp/12/index.php?action_kouhyou_detail_004_kani=true&JigyosyoCd=12B2600015-00&ServiceCd=551&Type=search" }, "geometry": { "type": "Point", "coordinates": [ 139.986196299999961, 35.784355400000024 ] } },
{ "type": "Feature", "properties": { "内容": "鈴木病院介護医療院【短期入所療養介護（介護医療院）】千葉県君津市上２３８番地", "url2": "https://www.kaigokensaku.mhlw.go.jp/12/index.php?action_kouhyou_detail_004_kani=true&JigyosyoCd=12B1100017-00&ServiceCd=551&Type=search" }, "geometry": { "type": "Point", "coordinates": [ 139.9548824, 35.3069037 ] } },
{ "type": "Feature", "properties": { "内容": "医療法人三省会本多病院介護医療院【短期入所療養介護（介護医療院）】千葉県香取市本郷772", "url2": "https://www.kaigokensaku.mhlw.go.jp/12/index.php?action_kouhyou_detail_004_kani=true&JigyosyoCd=12B5200029-00&ServiceCd=551&Type=search" }, "geometry": { "type": "Point", "coordinates": [ 140.583540199999959, 35.8535551 ] } },
{ "type": "Feature", "properties": { "内容": "国保多古中央病院介護医療院【短期入所療養介護（介護医療院）】千葉県香取郡多古町多古３８８－１", "url2": "https://www.kaigokensaku.mhlw.go.jp/12/index.php?action_kouhyou_detail_004_kani=true&JigyosyoCd=12B3000058-00&ServiceCd=551&Type=search" }, "geometry": { "type": "Point", "coordinates": [ 140.472092800000013, 35.7380088 ] } }
]
}
